[
{ "NAME_EN": "hammem lif", "gouv_name": "Ben Arous", "NAME_AR": "حمام الأنف", "GOV_EN": "Ben Arous", "GOV_AR": "بن عروس", "allreg_male_sum": 11055, "allreg_female_sum": 11482, "reg_18_35": 5922, "reg_36_40": 2069, "reg_41_60": 9289, "reg_p_60": 5257, "allreg_sum": 22537, "total_inscrits": 22538, "votes_nul": 299, "votes_blancs": 110, "total_votes_valide": 8262, "total_votes": 8671, "id": 183, "POP": 42518, "chair": 24, "state": "old", "area": 11.34 },
{ "NAME_EN": "mornag", "gouv_name": "Ben Arous", "NAME_AR": "مرناق", "GOV_EN": "Ben Arous", "GOV_AR": "بن عروس", "allreg_male_sum": 10947, "allreg_female_sum": 8848, "reg_18_35": 5893, "reg_36_40": 2156, "reg_41_60": 7948, "reg_p_60": 3798, "allreg_sum": 19795, "total_inscrits": 19795, "votes_nul": 311, "votes_blancs": 154, "total_votes_valide": 6232, "total_votes": 6697, "id": 313, "POP": 42362, "chair": 24, "state": "extended", "area": 217.92 },
{ "NAME_EN": "Ben Arous", "gouv_name": "Ben Arous", "NAME_AR": "بن عروس", "GOV_EN": "Ben Arous", "GOV_AR": "بن عروس", "allreg_male_sum": 23574, "allreg_female_sum": 23133, "reg_18_35": 13378, "reg_36_40": 5481, "reg_41_60": 18456, "reg_p_60": 9392, "allreg_sum": 46707, "total_inscrits": 46708, "votes_nul": 536, "votes_blancs": 246, "total_votes_valide": 11879, "total_votes": 12661, "id": 120, "POP": 88322, "chair": 30, "state": "old", "area": 14.56 },
{ "NAME_EN": "bou mhel el bassatine", "gouv_name": "Ben Arous", "NAME_AR": "بومهل البساتين", "GOV_EN": "Ben Arous", "GOV_AR": "بن عروس", "allreg_male_sum": 9376, "allreg_female_sum": 8957, "reg_18_35": 5638, "reg_36_40": 1962, "reg_41_60": 7488, "reg_p_60": 3245, "allreg_sum": 18333, "total_inscrits": 18334, "votes_nul": 201, "votes_blancs": 123, "total_votes_valide": 5891, "total_votes": 6215, "id": 143, "POP": 40101, "chair": 24, "state": "old", "area": 20.16 },
{ "NAME_EN": "ez-zahra", "gouv_name": "Ben Arous", "NAME_AR": "الزهراء", "GOV_EN": "Ben Arous", "GOV_AR": "بن عروس", "allreg_male_sum": 9743, "allreg_female_sum": 10393, "reg_18_35": 5447, "reg_36_40": 2084, "reg_41_60": 8147, "reg_p_60": 4458, "allreg_sum": 20136, "total_inscrits": 20136, "votes_nul": 259, "votes_blancs": 136, "total_votes_valide": 7845, "total_votes": 8240, "id": 34, "POP": 34962, "chair": 24, "state": "old", "area": 7.0 },
{ "NAME_EN": "mohamedia", "gouv_name": "Ben Arous", "NAME_AR": "المحمدية", "GOV_EN": "Ben Arous", "GOV_AR": "بن عروس", "allreg_male_sum": 13572, "allreg_female_sum": 12459, "reg_18_35": 8319, "reg_36_40": 2848, "reg_41_60": 10484, "reg_p_60": 4380, "allreg_sum": 26031, "total_inscrits": 26031, "votes_nul": 383, "votes_blancs": 208, "total_votes_valide": 7425, "total_votes": 8016, "id": 81, "POP": 66439, "chair": 30, "state": "extended", "area": 98.33 },
{ "NAME_EN": "Khelidia", "gouv_name": "Ben Arous", "NAME_AR": "الخليدية", "GOV_EN": "Ben Arous", "GOV_AR": "بن عروس", "allreg_male_sum": 4493, "allreg_female_sum": 3124, "reg_18_35": 2189, "reg_36_40": 894, "reg_41_60": 3115, "reg_p_60": 1419, "allreg_sum": 7617, "total_inscrits": 7617, "votes_nul": 160, "votes_blancs": 92, "total_votes_valide": 2870, "total_votes": 3122, "id": 23, "POP": 19156, "chair": 18, "state": "extended", "area": 180.0 },
{ "NAME_EN": "rades", "gouv_name": "Ben Arous", "NAME_AR": "رادس", "GOV_EN": "Ben Arous", "GOV_AR": "بن عروس", "allreg_male_sum": 14743, "allreg_female_sum": 14306, "reg_18_35": 8517, "reg_36_40": 3233, "reg_41_60": 11429, "reg_p_60": 5870, "allreg_sum": 29049, "total_inscrits": 29049, "votes_nul": 287, "votes_blancs": 191, "total_votes_valide": 9624, "total_votes": 10102, "id": 198, "POP": 59998, "chair": 30, "state": "old", "area": 19.73 },
{ "NAME_EN": "el mourouj", "gouv_name": "Ben Arous", "NAME_AR": "المروج", "GOV_EN": "Ben Arous", "GOV_AR": "بن عروس", "allreg_male_sum": 25908, "allreg_female_sum": 24692, "reg_18_35": 17775, "reg_36_40": 5247, "reg_41_60": 19767, "reg_p_60": 7811, "allreg_sum": 50600, "total_inscrits": 50600, "votes_nul": 325, "votes_blancs": 195, "total_votes_valide": 14620, "total_votes": 15140, "id": 85, "POP": 104538, "chair": 36, "state": "old", "area": 16.0 },
{ "NAME_EN": "fouchana", "gouv_name": "Ben Arous", "NAME_AR": "فوشانة", "GOV_EN": "Ben Arous", "GOV_AR": "بن عروس", "allreg_male_sum": 10668, "allreg_female_sum": 9775, "reg_18_35": 6778, "reg_36_40": 2275, "reg_41_60": 8044, "reg_p_60": 3346, "allreg_sum": 20443, "total_inscrits": 20443, "votes_nul": 297, "votes_blancs": 142, "total_votes_valide": 6869, "total_votes": 7308, "id": 283, "POP": 46717, "chair": 24, "state": "new", "area": 23.67 },
{ "NAME_EN": "hammem chatt", "gouv_name": "Ben Arous", "NAME_AR": "حمام الشط", "GOV_EN": "Ben Arous", "GOV_AR": "بن عروس", "allreg_male_sum": 9076, "allreg_female_sum": 9010, "reg_18_35": 5782, "reg_36_40": 2169, "reg_41_60": 6329, "reg_p_60": 3806, "allreg_sum": 18086, "total_inscrits": 18086, "votes_nul": 220, "votes_blancs": 97, "total_votes_valide": 6214, "total_votes": 6531, "id": 184, "POP": 31858, "chair": 24, "state": "old", "area": 26.71 },
{ "NAME_EN": "megrine", "gouv_name": "Ben Arous", "NAME_AR": "مقرين", "GOV_EN": "Ben Arous", "GOV_AR": "بن عروس", "allreg_male_sum": 8405, "allreg_female_sum": 8608, "reg_18_35": 4535, "reg_36_40": 1797, "reg_41_60": 6952, "reg_p_60": 3729, "allreg_sum": 17013, "total_inscrits": 17014, "votes_nul": 179, "votes_blancs": 132, "total_votes_valide": 6007, "total_votes": 6318, "id": 318, "POP": 26720, "chair": 24, "state": "old", "area": 10.67 },
{ "NAME_EN": "Nâassen", "gouv_name": "Ben Arous", "NAME_AR": "نعسان", "GOV_EN": "Ben Arous", "GOV_AR": "بن عروس", "allreg_male_sum": 6251, "allreg_female_sum": 5552, "reg_18_35": 3773, "reg_36_40": 1387, "reg_41_60": 4620, "reg_p_60": 2023, "allreg_sum": 11803, "total_inscrits": 11803, "votes_nul": 156, "votes_blancs": 69, "total_votes_valide": 3017, "total_votes": 3242, "id": 342, "POP": 28151, "chair": 24, "state": "new", "area": 15.107 },
{ "NAME_EN": "tameghza", "gouv_name": "Tozeur", "NAME_AR": "تمغزة", "GOV_EN": "Tozeur", "GOV_AR": "توزر", "allreg_male_sum": 2250, "allreg_female_sum": 2131, "reg_18_35": 1901, "reg_36_40": 440, "reg_41_60": 1424, "reg_p_60": 616, "allreg_sum": 4381, "total_inscrits": 4381, "votes_nul": 101, "votes_blancs": 36, "total_votes_valide": 2239, "total_votes": 2376, "id": 158, "POP": 6516, "chair": 12, "state": "extended", "area": 938.63 },
{ "NAME_EN": "deguach", "gouv_name": "Tozeur", "NAME_AR": "دقاش", "GOV_EN": "Tozeur", "GOV_AR": "توزر", "allreg_male_sum": 6113, "allreg_female_sum": 6710, "reg_18_35": 4806, "reg_36_40": 1449, "reg_41_60": 4474, "reg_p_60": 2094, "allreg_sum": 12823, "total_inscrits": 12823, "votes_nul": 157, "votes_blancs": 88, "total_votes_valide": 4156, "total_votes": 4401, "id": 194, "POP": 21590, "chair": 18, "state": "extended", "area": 824.6 },
{ "NAME_EN": "Tozeur", "gouv_name": "Tozeur", "NAME_AR": "توزر", "GOV_EN": "Tozeur", "GOV_AR": "توزر", "allreg_male_sum": 13798, "allreg_female_sum": 14144, "reg_18_35": 10908, "reg_36_40": 3166, "reg_41_60": 9905, "reg_p_60": 3963, "allreg_sum": 27942, "total_inscrits": 27942, "votes_nul": 279, "votes_blancs": 167, "total_votes_valide": 8453, "total_votes": 8899, "id": 159, "POP": 46422, "chair": 24, "state": "extended", "area": 817.06 },
{ "NAME_EN": "hazoua", "gouv_name": "Tozeur", "NAME_AR": "حزوة", "GOV_EN": "Tozeur", "GOV_AR": "توزر", "allreg_male_sum": 1725, "allreg_female_sum": 1725, "reg_18_35": 1758, "reg_36_40": 375, "reg_41_60": 940, "reg_p_60": 377, "allreg_sum": 3450, "total_inscrits": 3450, "votes_nul": 97, "votes_blancs": 23, "total_votes_valide": 1989, "total_votes": 2109, "id": 180, "POP": 4700, "chair": 12, "state": "new", "area": 1255.75 },
{ "NAME_EN": "nefta", "gouv_name": "Tozeur", "NAME_AR": "نفطة", "GOV_EN": "Tozeur", "GOV_AR": "توزر", "allreg_male_sum": 7552, "allreg_female_sum": 8055, "reg_18_35": 5736, "reg_36_40": 1662, "reg_41_60": 5716, "reg_p_60": 2493, "allreg_sum": 15607, "total_inscrits": 15608, "votes_nul": 143, "votes_blancs": 78, "total_votes_valide": 5199, "total_votes": 5420, "id": 344, "POP": 21731, "chair": 18, "state": "extended", "area": 1636.23 },
{ "NAME_EN": "hamet ejrid", "gouv_name": "Tozeur", "NAME_AR": "حامة الجريد", "GOV_EN": "Tozeur", "GOV_AR": "توزر", "allreg_male_sum": 2342, "allreg_female_sum": 2590, "reg_18_35": 2002, "reg_36_40": 567, "reg_41_60": 1628, "reg_p_60": 735, "allreg_sum": 4932, "total_inscrits": 4932, "votes_nul": 103, "votes_blancs": 47, "total_votes_valide": 1579, "total_votes": 1729, "id": 178, "POP": 6953, "chair": 12, "state": "extended", "area": 582.62 },
{ "NAME_EN": "mednine", "gouv_name": "Medenine", "NAME_AR": "مدنين", "GOV_EN": "Medenine", "GOV_AR": "مدنين", "allreg_male_sum": 24820, "allreg_female_sum": 22202, "reg_18_35": 16485, "reg_36_40": 5648, "reg_41_60": 16931, "reg_p_60": 7958, "allreg_sum": 47022, "total_inscrits": 47023, "votes_nul": 382, "votes_blancs": 238, "total_votes_valide": 15089, "total_votes": 15709, "id": 312, "POP": 91100, "chair": 30, "state": "extended", "area": 676.09 },
{ "NAME_EN": "beni-khedech", "gouv_name": "Medenine", "NAME_AR": "بني خداش", "GOV_EN": "Medenine", "GOV_AR": "مدنين", "allreg_male_sum": 6676, "allreg_female_sum": 8033, "reg_18_35": 5102, "reg_36_40": 1668, "reg_41_60": 4815, "reg_p_60": 3124, "allreg_sum": 14709, "total_inscrits": 14709, "votes_nul": 186, "votes_blancs": 97, "total_votes_valide": 4446, "total_votes": 4729, "id": 127, "POP": 25885, "chair": 24, "state": "extended", "area": 1385.75 },
{ "NAME_EN": "zarzis", "gouv_name": "Medenine", "NAME_AR": "جرجيس", "GOV_EN": "Medenine", "GOV_AR": "مدنين", "allreg_male_sum": 11124, "allreg_female_sum": 10044, "reg_18_35": 6177, "reg_36_40": 2219, "reg_41_60": 8230, "reg_p_60": 4542, "allreg_sum": 21168, "total_inscrits": 21168, "votes_nul": 220, "votes_blancs": 105, "total_votes_valide": 8333, "total_votes": 8658, "id": 167, "POP": 45223, "chair": 24, "state": "extended", "area": 667.62 },
{ "NAME_EN": "ben guerdane", "gouv_name": "Medenine", "NAME_AR": "بن قردان", "GOV_EN": "Medenine", "GOV_AR": "مدنين", "allreg_male_sum": 17788, "allreg_female_sum": 14324, "reg_18_35": 11443, "reg_36_40": 4128, "reg_41_60": 11166, "reg_p_60": 5375, "allreg_sum": 32112, "total_inscrits": 32112, "votes_nul": 311, "votes_blancs": 152, "total_votes_valide": 12290, "total_votes": 12753, "id": 121, "POP": 79912, "chair": 30, "state": "extended", "area": 4799.3 },
{ "NAME_EN": "zarzis nord", "gouv_name": "Medenine", "NAME_AR": "جرجيس الشمالية", "GOV_EN": "Medenine", "GOV_AR": "مدنين", "allreg_male_sum": 8311, "allreg_female_sum": 7204, "reg_18_35": 4582, "reg_36_40": 1678, "reg_41_60": 5877, "reg_p_60": 3378, "allreg_sum": 15515, "total_inscrits": 15515, "votes_nul": 187, "votes_blancs": 130, "total_votes_valide": 6170, "total_votes": 6487, "id": 168, "POP": 30159, "chair": 24, "state": "new", "area": 217.07 },
{ "NAME_EN": "sidi makhlouf", "gouv_name": "Medenine", "NAME_AR": "سيدي مخلوف", "GOV_EN": "Medenine", "GOV_AR": "مدنين", "allreg_male_sum": 6643, "allreg_female_sum": 6316, "reg_18_35": 4970, "reg_36_40": 1655, "reg_41_60": 4239, "reg_p_60": 2095, "allreg_sum": 12959, "total_inscrits": 12959, "votes_nul": 149, "votes_blancs": 58, "total_votes_valide": 3255, "total_votes": 3462, "id": 244, "POP": 25206, "chair": 24, "state": "new", "area": 669.0 },
{ "NAME_EN": "bou-ghrara", "gouv_name": "Medenine", "NAME_AR": "بوغرارة", "GOV_EN": "Medenine", "GOV_AR": "مدنين", "allreg_male_sum": 1981, "allreg_female_sum": 1586, "reg_18_35": 1408, "reg_36_40": 402, "reg_41_60": 1193, "reg_p_60": 564, "allreg_sum": 3567, "total_inscrits": 3567, "votes_nul": 66, "votes_blancs": 32, "total_votes_valide": 2202, "total_votes": 2300, "id": 141, "POP": 18309, "chair": 18, "state": "new", "area": 392.449 },
{ "NAME_EN": "ajim", "gouv_name": "Medenine", "NAME_AR": "اجيم", "GOV_EN": "Medenine", "GOV_AR": "مدنين", "allreg_male_sum": 5472, "allreg_female_sum": 4705, "reg_18_35": 3001, "reg_36_40": 1121, "reg_41_60": 3755, "reg_p_60": 2300, "allreg_sum": 10177, "total_inscrits": 10177, "votes_nul": 162, "votes_blancs": 80, "total_votes_valide": 3683, "total_votes": 3925, "id": 1, "POP": 24294, "chair": 24, "state": "old", "area": 158.01 },
{ "NAME_EN": "houmet essouk", "gouv_name": "Medenine", "NAME_AR": "حومة السوق", "GOV_EN": "Medenine", "GOV_AR": "مدنين", "allreg_male_sum": 18493, "allreg_female_sum": 14813, "reg_18_35": 10101, "reg_36_40": 4066, "reg_41_60": 13514, "reg_p_60": 5625, "allreg_sum": 33306, "total_inscrits": 33306, "votes_nul": 260, "votes_blancs": 166, "total_votes_valide": 12742, "total_votes": 13168, "id": 187, "POP": 75904, "chair": 30, "state": "old", "area": 162.27 },
{ "NAME_EN": "midoun", "gouv_name": "Medenine", "NAME_AR": "ميدون", "GOV_EN": "Medenine", "GOV_AR": "مدنين", "allreg_male_sum": 14542, "allreg_female_sum": 10235, "reg_18_35": 7419, "reg_36_40": 3336, "reg_41_60": 10071, "reg_p_60": 3951, "allreg_sum": 24777, "total_inscrits": 24777, "votes_nul": 178, "votes_blancs": 113, "total_votes_valide": 8544, "total_votes": 8835, "id": 338, "POP": 63528, "chair": 30, "state": "old", "area": 176.69 },
{ "NAME_EN": "Monastir", "gouv_name": "Monastir", "NAME_AR": "المنستير", "GOV_EN": "Monastir", "GOV_AR": "المنستير", "allreg_male_sum": 23115, "allreg_female_sum": 23315, "reg_18_35": 17069, "reg_36_40": 5456, "reg_41_60": 17059, "reg_p_60": 6846, "allreg_sum": 46430, "total_inscrits": 46430, "votes_nul": 384, "votes_blancs": 209, "total_votes_valide": 17457, "total_votes": 18050, "id": 93, "POP": 93306, "chair": 30, "state": "old", "area": 42.95 },
{ "NAME_EN": "ouerdanine", "gouv_name": "Monastir", "NAME_AR": "الوردانين", "GOV_EN": "Monastir", "GOV_AR": "المنستير", "allreg_male_sum": 5047, "allreg_female_sum": 4971, "reg_18_35": 3496, "reg_36_40": 1056, "reg_41_60": 3910, "reg_p_60": 1556, "allreg_sum": 10018, "total_inscrits": 10018, "votes_nul": 178, "votes_blancs": 111, "total_votes_valide": 4902, "total_votes": 5191, "id": 105, "POP": 21814, "chair": 18, "state": "old", "area": 51.31 },
{ "NAME_EN": "sidi ameur masjed aïssa", "gouv_name": "Monastir", "NAME_AR": "سيدي عامر- مسجد عيسى", "GOV_EN": "Monastir", "GOV_AR": "المنستير", "allreg_male_sum": 2227, "allreg_female_sum": 2213, "reg_18_35": 1505, "reg_36_40": 540, "reg_41_60": 1721, "reg_p_60": 674, "allreg_sum": 4440, "total_inscrits": 4440, "votes_nul": 49, "votes_blancs": 34, "total_votes_valide": 2534, "total_votes": 2617, "id": 240, "POP": 8453, "chair": 12, "state": "old", "area": 13.26 },
{ "NAME_EN": "menzel harb", "gouv_name": "Monastir", "NAME_AR": "مصدور - منزل حرب", "GOV_EN": "Monastir", "GOV_AR": "المنستير", "allreg_male_sum": 1300, "allreg_female_sum": 1153, "reg_18_35": 918, "reg_36_40": 302, "reg_41_60": 895, "reg_p_60": 338, "allreg_sum": 2453, "total_inscrits": 2453, "votes_nul": 55, "votes_blancs": 22, "total_votes_valide": 1702, "total_votes": 1779, "id": 330, "POP": 4705, "chair": 12, "state": "old", "area": 18.65 },
{ "NAME_EN": "zaouiet kontoch", "gouv_name": "Monastir", "NAME_AR": "زاوية قنطش", "GOV_EN": "Monastir", "GOV_AR": "المنستير", "allreg_male_sum": 1776, "allreg_female_sum": 1710, "reg_18_35": 1254, "reg_36_40": 389, "reg_41_60": 1284, "reg_p_60": 559, "allreg_sum": 3486, "total_inscrits": 3486, "votes_nul": 38, "votes_blancs": 22, "total_votes_valide": 1755, "total_votes": 1815, "id": 210, "POP": 6713, "chair": 12, "state": "old", "area": 12.18 },
{ "NAME_EN": "ksibet el mediouni", "gouv_name": "Monastir", "NAME_AR": "قصيبة المديوني", "GOV_EN": "Monastir", "GOV_AR": "المنستير", "allreg_male_sum": 3703, "allreg_female_sum": 3561, "reg_18_35": 2529, "reg_36_40": 722, "reg_41_60": 2755, "reg_p_60": 1258, "allreg_sum": 7264, "total_inscrits": 7264, "votes_nul": 86, "votes_blancs": 58, "total_votes_valide": 3383, "total_votes": 3527, "id": 295, "POP": 13082, "chair": 18, "state": "old", "area": 5.74 },
{ "NAME_EN": "menzel kamel", "gouv_name": "Monastir", "NAME_AR": "منزل كامل", "GOV_EN": "Monastir", "GOV_AR": "المنستير", "allreg_male_sum": 1998, "allreg_female_sum": 1603, "reg_18_35": 1176, "reg_36_40": 349, "reg_41_60": 1441, "reg_p_60": 635, "allreg_sum": 3601, "total_inscrits": 3601, "votes_nul": 48, "votes_blancs": 33, "total_votes_valide": 1739, "total_votes": 1820, "id": 336, "POP": 8432, "chair": 12, "state": "old", "area": 80.34 },
{ "NAME_EN": "jamel", "gouv_name": "Monastir", "NAME_AR": "جمال", "GOV_EN": "Monastir", "GOV_AR": "المنستير", "allreg_male_sum": 11433, "allreg_female_sum": 10811, "reg_18_35": 8342, "reg_36_40": 2568, "reg_41_60": 8204, "reg_p_60": 3130, "allreg_sum": 22244, "total_inscrits": 22244, "votes_nul": 194, "votes_blancs": 75, "total_votes_valide": 8834, "total_votes": 9103, "id": 170, "POP": 50275, "chair": 30, "state": "old", "area": 144.35 },
{ "NAME_EN": "menzel hayet", "gouv_name": "Monastir", "NAME_AR": "منزل حياة", "GOV_EN": "Monastir", "GOV_AR": "المنستير", "allreg_male_sum": 3464, "allreg_female_sum": 2454, "reg_18_35": 2325, "reg_36_40": 696, "reg_41_60": 1984, "reg_p_60": 913, "allreg_sum": 5918, "total_inscrits": 5918, "votes_nul": 97, "votes_blancs": 51, "total_votes_valide": 3558, "total_votes": 3706, "id": 331, "POP": 12952, "chair": 18, "state": "old", "area": 154.85 },
{ "NAME_EN": "zeramdine", "gouv_name": "Monastir", "NAME_AR": "زرمدين", "GOV_EN": "Monastir", "GOV_AR": "المنستير", "allreg_male_sum": 3877, "allreg_female_sum": 3572, "reg_18_35": 2753, "reg_36_40": 775, "reg_41_60": 2699, "reg_p_60": 1222, "allreg_sum": 7449, "total_inscrits": 7449, "votes_nul": 121, "votes_blancs": 48, "total_votes_valide": 3574, "total_votes": 3743, "id": 211, "POP": 16781, "chair": 18, "state": "old", "area": 93.83 },
{ "NAME_EN": "ghnada", "gouv_name": "Monastir", "NAME_AR": "غنادة", "GOV_EN": "Monastir", "GOV_AR": "المنستير", "allreg_male_sum": 1442, "allreg_female_sum": 1278, "reg_18_35": 1079, "reg_36_40": 337, "reg_41_60": 923, "reg_p_60": 381, "allreg_sum": 2720, "total_inscrits": 2720, "votes_nul": 72, "votes_blancs": 28, "total_votes_valide": 1857, "total_votes": 1957, "id": 277, "POP": 5068, "chair": 12, "state": "old", "area": 56.32 },
{ "NAME_EN": "beni hassen", "gouv_name": "Monastir", "NAME_AR": "بني حسان", "GOV_EN": "Monastir", "GOV_AR": "المنستير", "allreg_male_sum": 2596, "allreg_female_sum": 2531, "reg_18_35": 1845, "reg_36_40": 581, "reg_41_60": 1866, "reg_p_60": 835, "allreg_sum": 5127, "total_inscrits": 5127, "votes_nul": 101, "votes_blancs": 33, "total_votes_valide": 2928, "total_votes": 3062, "id": 126, "POP": 8801, "chair": 12, "state": "old", "area": 29.97 },
{ "NAME_EN": "menzel farsi", "gouv_name": "Monastir", "NAME_AR": "منزل فارسي", "GOV_EN": "Monastir", "GOV_AR": "المنستير", "allreg_male_sum": 952, "allreg_female_sum": 984, "reg_18_35": 734, "reg_36_40": 230, "reg_41_60": 669, "reg_p_60": 303, "allreg_sum": 1936, "total_inscrits": 1936, "votes_nul": 31, "votes_blancs": 25, "total_votes_valide": 1101, "total_votes": 1157, "id": 335, "POP": 3603, "chair": 12, "state": "old", "area": 26.09 },
{ "NAME_EN": "moknine", "gouv_name": "Monastir", "NAME_AR": "المكنين", "GOV_EN": "Monastir", "GOV_AR": "المنستير", "allreg_male_sum": 13404, "allreg_female_sum": 12470, "reg_18_35": 9758, "reg_36_40": 2836, "reg_41_60": 9585, "reg_p_60": 3695, "allreg_sum": 25874, "total_inscrits": 25874, "votes_nul": 229, "votes_blancs": 99, "total_votes_valide": 9781, "total_votes": 10109, "id": 92, "POP": 57111, "chair": 30, "state": "old", "area": 56.61 },
{ "NAME_EN": "amiret touazra", "gouv_name": "Monastir", "NAME_AR": "عميرة التوازرة", "GOV_EN": "Monastir", "GOV_AR": "المنستير", "allreg_male_sum": 1619, "allreg_female_sum": 1525, "reg_18_35": 1242, "reg_36_40": 426, "reg_41_60": 1032, "reg_p_60": 444, "allreg_sum": 3144, "total_inscrits": 3144, "votes_nul": 39, "votes_blancs": 57, "total_votes_valide": 1692, "total_votes": 1788, "id": 265, "POP": 6261, "chair": 12, "state": "old", "area": 23.41 },
{ "NAME_EN": "benen bodher", "gouv_name": "Monastir", "NAME_AR": "بنان - بوضر", "GOV_EN": "Monastir", "GOV_AR": "المنستير", "allreg_male_sum": 3842, "allreg_female_sum": 3730, "reg_18_35": 2995, "reg_36_40": 895, "reg_41_60": 2698, "reg_p_60": 984, "allreg_sum": 7572, "total_inscrits": 6930, "votes_nul": 85, "votes_blancs": 59, "total_votes_valide": 3753, "total_votes": 3897, "id": 122, "POP": 14258, "chair": 18, "state": "old", "area": 18.5 },
{ "NAME_EN": "bou-hjar", "gouv_name": "Monastir", "NAME_AR": "بوحجر", "GOV_EN": "Monastir", "GOV_AR": "المنستير", "allreg_male_sum": 1716, "allreg_female_sum": 1680, "reg_18_35": 1261, "reg_36_40": 404, "reg_41_60": 1237, "reg_p_60": 494, "allreg_sum": 3396, "total_inscrits": 3396, "votes_nul": 56, "votes_blancs": 27, "total_votes_valide": 1896, "total_votes": 1979, "id": 134, "POP": 6137, "chair": 12, "state": "old", "area": 4.33 },
{ "NAME_EN": "ksar hlel", "gouv_name": "Monastir", "NAME_AR": "قصر هلال", "GOV_EN": "Monastir", "GOV_AR": "المنستير", "allreg_male_sum": 13187, "allreg_female_sum": 13484, "reg_18_35": 9527, "reg_36_40": 3079, "reg_41_60": 9866, "reg_p_60": 4199, "allreg_sum": 26671, "total_inscrits": 26671, "votes_nul": 289, "votes_blancs": 136, "total_votes_valide": 11147, "total_votes": 11572, "id": 293, "POP": 49376, "chair": 24, "state": "old", "area": 22.01 },
{ "NAME_EN": "bekalta", "gouv_name": "Monastir", "NAME_AR": "البقالطة", "GOV_EN": "Monastir", "GOV_AR": "المنستير", "allreg_male_sum": 4459, "allreg_female_sum": 3890, "reg_18_35": 2871, "reg_36_40": 868, "reg_41_60": 3066, "reg_p_60": 1544, "allreg_sum": 8349, "total_inscrits": 8349, "votes_nul": 127, "votes_blancs": 55, "total_votes_valide": 4490, "total_votes": 4672, "id": 9, "POP": 17850, "chair": 18, "state": "old", "area": 43.99 },
{ "NAME_EN": "amiret el hojjaj", "gouv_name": "Monastir", "NAME_AR": "عميرة الحجاج", "GOV_EN": "Monastir", "GOV_AR": "المنستير", "allreg_male_sum": 2077, "allreg_female_sum": 1777, "reg_18_35": 1620, "reg_36_40": 468, "reg_41_60": 1255, "reg_p_60": 511, "allreg_sum": 3854, "total_inscrits": 3854, "votes_nul": 65, "votes_blancs": 33, "total_votes_valide": 1299, "total_votes": 1397, "id": 266, "POP": 8121, "chair": 12, "state": "old", "area": 26.3 },
{ "NAME_EN": "menzel en-nour", "gouv_name": "Monastir", "NAME_AR": "منزل نور", "GOV_EN": "Monastir", "GOV_AR": "المنستير", "allreg_male_sum": 3156, "allreg_female_sum": 2665, "reg_18_35": 2282, "reg_36_40": 637, "reg_41_60": 2167, "reg_p_60": 735, "allreg_sum": 5821, "total_inscrits": 5821, "votes_nul": 57, "votes_blancs": 46, "total_votes_valide": 3091, "total_votes": 3194, "id": 324, "POP": 11772, "chair": 18, "state": "old", "area": 8.97 },
{ "NAME_EN": "bembla el manara", "gouv_name": "Monastir", "NAME_AR": "بنبلة - المنارة", "GOV_EN": "Monastir", "GOV_AR": "المنستير", "allreg_male_sum": 3701, "allreg_female_sum": 3229, "reg_18_35": 2404, "reg_36_40": 856, "reg_41_60": 2677, "reg_p_60": 993, "allreg_sum": 6930, "total_inscrits": 6930, "votes_nul": 118, "votes_blancs": 52, "total_votes_valide": 3623, "total_votes": 3793, "id": 123, "POP": 16087, "chair": 18, "state": "old", "area": 21.29 },
{ "NAME_EN": "lamta", "gouv_name": "Monastir", "NAME_AR": "لمطة", "GOV_EN": "Monastir", "GOV_AR": "المنستير", "allreg_male_sum": 1507, "allreg_female_sum": 1683, "reg_18_35": 1082, "reg_36_40": 298, "reg_41_60": 1233, "reg_p_60": 577, "allreg_sum": 3190, "total_inscrits": 3190, "votes_nul": 44, "votes_blancs": 16, "total_votes_valide": 1769, "total_votes": 1829, "id": 306, "POP": 5790, "chair": 12, "state": "old", "area": 1.81 },
{ "NAME_EN": "sidi bennour", "gouv_name": "Monastir", "NAME_AR": "سيدي بنور", "GOV_EN": "Monastir", "GOV_AR": "المنستير", "allreg_male_sum": 962, "allreg_female_sum": 1050, "reg_18_35": 755, "reg_36_40": 217, "reg_41_60": 719, "reg_p_60": 321, "allreg_sum": 2012, "total_inscrits": 2012, "votes_nul": 23, "votes_blancs": 21, "total_votes_valide": 1146, "total_votes": 1190, "id": 232, "POP": 4520, "chair": 12, "state": "old", "area": 19.42 },
{ "NAME_EN": "cherahil", "gouv_name": "Monastir", "NAME_AR": "شراحيل", "GOV_EN": "Monastir", "GOV_AR": "المنستير", "allreg_male_sum": 988, "allreg_female_sum": 1101, "reg_18_35": 672, "reg_36_40": 207, "reg_41_60": 786, "reg_p_60": 424, "allreg_sum": 2089, "total_inscrits": 2089, "votes_nul": 36, "votes_blancs": 7, "total_votes_valide": 881, "total_votes": 924, "id": 247, "POP": 4406, "chair": 12, "state": "old", "area": 15.49 },
{ "NAME_EN": "sahline", "gouv_name": "Monastir", "NAME_AR": "الساحلين - معتمر", "GOV_EN": "Monastir", "GOV_AR": "المنستير", "allreg_male_sum": 5035, "allreg_female_sum": 4798, "reg_18_35": 3252, "reg_36_40": 1067, "reg_41_60": 3803, "reg_p_60": 1711, "allreg_sum": 9833, "total_inscrits": 9833, "votes_nul": 212, "votes_blancs": 85, "total_votes_valide": 4282, "total_votes": 4579, "id": 37, "POP": 18996, "chair": 18, "state": "old", "area": 29.01 },
{ "NAME_EN": "amiret el fehoul", "gouv_name": "Monastir", "NAME_AR": "عميرة الفحول", "GOV_EN": "Monastir", "GOV_AR": "المنستير", "allreg_male_sum": 1449, "allreg_female_sum": 1293, "reg_18_35": 1030, "reg_36_40": 320, "reg_41_60": 958, "reg_p_60": 434, "allreg_sum": 2742, "total_inscrits": 2742, "votes_nul": 55, "votes_blancs": 31, "total_votes_valide": 1352, "total_votes": 1438, "id": 267, "POP": 5255, "chair": 12, "state": "old", "area": 29.94 },
{ "NAME_EN": "touza", "gouv_name": "Monastir", "NAME_AR": "طوزة", "GOV_EN": "Monastir", "GOV_AR": "المنستير", "allreg_male_sum": 2002, "allreg_female_sum": 2057, "reg_18_35": 1480, "reg_36_40": 474, "reg_41_60": 1434, "reg_p_60": 671, "allreg_sum": 4059, "total_inscrits": 4059, "votes_nul": 27, "votes_blancs": 9, "total_votes_valide": 2009, "total_votes": 2045, "id": 261, "POP": 7236, "chair": 12, "state": "old", "area": 12.89 },
{ "NAME_EN": "khenis", "gouv_name": "Monastir", "NAME_AR": "خنيس", "GOV_EN": "Monastir", "GOV_AR": "المنستير", "allreg_male_sum": 3028, "allreg_female_sum": 2614, "reg_18_35": 1867, "reg_36_40": 705, "reg_41_60": 2221, "reg_p_60": 849, "allreg_sum": 5642, "total_inscrits": 5642, "votes_nul": 60, "votes_blancs": 37, "total_votes_valide": 2435, "total_votes": 2532, "id": 190, "POP": 11229, "chair": 18, "state": "old", "area": 17.65 },
{ "NAME_EN": "tebolba", "gouv_name": "Monastir", "NAME_AR": "طبلبة", "GOV_EN": "Monastir", "GOV_AR": "المنستير", "allreg_male_sum": 9156, "allreg_female_sum": 8592, "reg_18_35": 6349, "reg_36_40": 1968, "reg_41_60": 6691, "reg_p_60": 2740, "allreg_sum": 17748, "total_inscrits": 17748, "votes_nul": 170, "votes_blancs": 79, "total_votes_valide": 7636, "total_votes": 7885, "id": 259, "POP": 37485, "chair": 24, "state": "old", "area": 19.47 },
{ "NAME_EN": "sayada", "gouv_name": "Monastir", "NAME_AR": "صيادة", "GOV_EN": "Monastir", "GOV_AR": "المنستير", "allreg_male_sum": 3694, "allreg_female_sum": 4257, "reg_18_35": 2590, "reg_36_40": 762, "reg_41_60": 3151, "reg_p_60": 1448, "allreg_sum": 7951, "total_inscrits": 7951, "votes_nul": 109, "votes_blancs": 57, "total_votes_valide": 3681, "total_votes": 3847, "id": 256, "POP": 12962, "chair": 18, "state": "old", "area": 6.64 },
{ "NAME_EN": "faouar", "gouv_name": "Kebili", "NAME_AR": "الفوار", "GOV_EN": "Kebili", "GOV_AR": "قبلي", "allreg_male_sum": 4579, "allreg_female_sum": 4987, "reg_18_35": 4425, "reg_36_40": 1120, "reg_41_60": 2553, "reg_p_60": 1468, "allreg_sum": 9566, "total_inscrits": 9566, "votes_nul": 215, "votes_blancs": 75, "total_votes_valide": 5168, "total_votes": 5458, "id": 64, "POP": 15376, "chair": 18, "state": "new", "area": 7231.97 },
{ "NAME_EN": "douz", "gouv_name": "Kebili", "NAME_AR": "دوز", "GOV_EN": "Kebili", "GOV_AR": "قبلي", "allreg_male_sum": 10798, "allreg_female_sum": 12021, "reg_18_35": 8783, "reg_36_40": 2823, "reg_41_60": 7494, "reg_p_60": 3719, "allreg_sum": 22819, "total_inscrits": 22819, "votes_nul": 226, "votes_blancs": 132, "total_votes_valide": 7259, "total_votes": 7617, "id": 196, "POP": 39270, "chair": 24, "state": "extended", "area": 7988.37 },
{ "NAME_EN": "rejim mâatoug", "gouv_name": "Kebili", "NAME_AR": "رجيم معتوق", "GOV_EN": "Kebili", "GOV_AR": "قبلي", "allreg_male_sum": 1105, "allreg_female_sum": 853, "reg_18_35": 855, "reg_36_40": 218, "reg_41_60": 684, "reg_p_60": 201, "allreg_sum": 1958, "total_inscrits": 1958, "votes_nul": 26, "votes_blancs": 25, "total_votes_valide": 1190, "total_votes": 1241, "id": 200, "POP": 4237, "chair": 12, "state": "new", "area": 2550.93 },
{ "NAME_EN": "Kebili", "gouv_name": "Kebili", "NAME_AR": "قبلي", "GOV_EN": "Kebili", "GOV_AR": "قبلي", "allreg_male_sum": 11101, "allreg_female_sum": 12786, "reg_18_35": 7764, "reg_36_40": 2823, "reg_41_60": 8806, "reg_p_60": 4494, "allreg_sum": 23887, "total_inscrits": 23887, "votes_nul": 231, "votes_blancs": 175, "total_votes_valide": 6773, "total_votes": 7179, "id": 286, "POP": 41951, "chair": 24, "state": "extended", "area": 1915.2 },
{ "NAME_EN": "fatnassa", "gouv_name": "Kebili", "NAME_AR": "بشري فطناسة", "GOV_EN": "Kebili", "GOV_AR": "قبلي", "allreg_male_sum": 2754, "allreg_female_sum": 3148, "reg_18_35": 2096, "reg_36_40": 697, "reg_41_60": 1932, "reg_p_60": 1177, "allreg_sum": 5902, "total_inscrits": 5902, "votes_nul": 121, "votes_blancs": 65, "total_votes_valide": 2191, "total_votes": 2377, "id": 116, "POP": 8960, "chair": 12, "state": "new", "area": 912.99 },
{ "NAME_EN": "bechelli", "gouv_name": "Kebili", "NAME_AR": "بشلي - جرسين - البليدات", "GOV_EN": "Kebili", "GOV_AR": "قبلي", "allreg_male_sum": 3528, "allreg_female_sum": 3514, "reg_18_35": 2799, "reg_36_40": 844, "reg_41_60": 2289, "reg_p_60": 1110, "allreg_sum": 7042, "total_inscrits": 7042, "votes_nul": 79, "votes_blancs": 44, "total_votes_valide": 3217, "total_votes": 3340, "id": 117, "POP": 13141, "chair": 18, "state": "new", "area": 430.28 },
{ "NAME_EN": "el golaa", "gouv_name": "Kebili", "NAME_AR": "القلعة", "GOV_EN": "Kebili", "GOV_AR": "قبلي", "allreg_male_sum": 2452, "allreg_female_sum": 2553, "reg_18_35": 2174, "reg_36_40": 532, "reg_41_60": 1558, "reg_p_60": 741, "allreg_sum": 5005, "total_inscrits": 5005, "votes_nul": 57, "votes_blancs": 41, "total_votes_valide": 2822, "total_votes": 2920, "id": 70, "POP": 7912, "chair": 12, "state": "old", "area": 51.74 },
{ "NAME_EN": "jemna", "gouv_name": "Kebili", "NAME_AR": "جمنة", "GOV_EN": "Kebili", "GOV_AR": "قبلي", "allreg_male_sum": 1960, "allreg_female_sum": 2032, "reg_18_35": 1448, "reg_36_40": 504, "reg_41_60": 1386, "reg_p_60": 654, "allreg_sum": 3992, "total_inscrits": 3992, "votes_nul": 51, "votes_blancs": 31, "total_votes_valide": 1788, "total_votes": 1870, "id": 171, "POP": 7209, "chair": 12, "state": "extended", "area": 656.13 },
{ "NAME_EN": "souk el ahed", "gouv_name": "Kebili", "NAME_AR": "سوق الأحد", "GOV_EN": "Kebili", "GOV_AR": "قبلي", "allreg_male_sum": 6068, "allreg_female_sum": 6598, "reg_18_35": 4667, "reg_36_40": 1571, "reg_41_60": 4083, "reg_p_60": 2345, "allreg_sum": 12666, "total_inscrits": 12666, "votes_nul": 158, "votes_blancs": 93, "total_votes_valide": 3515, "total_votes": 3766, "id": 227, "POP": 18905, "chair": 18, "state": "extended", "area": 1366.08 },
{ "NAME_EN": "oum el araies", "gouv_name": "Gafsa", "NAME_AR": "أم العرائس", "GOV_EN": "Gafsa", "GOV_AR": "قفصة", "allreg_male_sum": 8613, "allreg_female_sum": 7391, "reg_18_35": 5710, "reg_36_40": 1939, "reg_41_60": 5803, "reg_p_60": 2552, "allreg_sum": 16004, "total_inscrits": 16004, "votes_nul": 256, "votes_blancs": 102, "total_votes_valide": 6753, "total_votes": 7111, "id": 107, "POP": 22798, "chair": 18, "state": "extended", "area": 798.9 },
{ "NAME_EN": "Gafsa", "gouv_name": "Gafsa", "NAME_AR": "قفصة", "GOV_EN": "Gafsa", "GOV_AR": "قفصة", "allreg_male_sum": 28763, "allreg_female_sum": 25488, "reg_18_35": 19088, "reg_36_40": 6125, "reg_41_60": 20296, "reg_p_60": 8742, "allreg_sum": 54251, "total_inscrits": 54251, "votes_nul": 469, "votes_blancs": 185, "total_votes_valide": 14805, "total_votes": 15459, "id": 297, "POP": 111170, "chair": 36, "state": "extended", "area": 1284.25 },
{ "NAME_EN": "redeyef", "gouv_name": "Gafsa", "NAME_AR": "الرديف", "GOV_EN": "Gafsa", "GOV_AR": "قفصة", "allreg_male_sum": 7711, "allreg_female_sum": 5317, "reg_18_35": 4567, "reg_36_40": 1475, "reg_41_60": 4821, "reg_p_60": 2165, "allreg_sum": 13028, "total_inscrits": 13028, "votes_nul": 172, "votes_blancs": 88, "total_votes_valide": 5561, "total_votes": 5821, "id": 29, "POP": 26976, "chair": 24, "state": "extended", "area": 403.51 },
{ "NAME_EN": "metlaoui", "gouv_name": "Gafsa", "NAME_AR": "المتلوي", "GOV_EN": "Gafsa", "GOV_AR": "قفصة", "allreg_male_sum": 11359, "allreg_female_sum": 10607, "reg_18_35": 7546, "reg_36_40": 2426, "reg_41_60": 8399, "reg_p_60": 3595, "allreg_sum": 21966, "total_inscrits": 21966, "votes_nul": 260, "votes_blancs": 103, "total_votes_valide": 9721, "total_votes": 10084, "id": 79, "POP": 38634, "chair": 24, "state": "extended", "area": 972.6 },
{ "NAME_EN": "sned", "gouv_name": "Gafsa", "NAME_AR": "السند", "GOV_EN": "Gafsa", "GOV_AR": "قفصة", "allreg_male_sum": 5455, "allreg_female_sum": 5046, "reg_18_35": 3752, "reg_36_40": 1242, "reg_41_60": 3601, "reg_p_60": 1906, "allreg_sum": 10501, "total_inscrits": 10501, "votes_nul": 135, "votes_blancs": 82, "total_votes_valide": 4450, "total_votes": 4667, "id": 41, "POP": 21487, "chair": 18, "state": "extended", "area": 448.85 },
{ "NAME_EN": "sanouche", "gouv_name": "Gafsa", "NAME_AR": "زانوش", "GOV_EN": "Gafsa", "GOV_AR": "قفصة", "allreg_male_sum": 3982, "allreg_female_sum": 3057, "reg_18_35": 2609, "reg_36_40": 856, "reg_41_60": 2385, "reg_p_60": 1189, "allreg_sum": 7039, "total_inscrits": 7039, "votes_nul": 201, "votes_blancs": 34, "total_votes_valide": 3407, "total_votes": 3642, "id": 207, "POP": 15259, "chair": 18, "state": "new", "area": 318.94 },
{ "NAME_EN": "el ksar", "gouv_name": "Gafsa", "NAME_AR": "القصر", "GOV_EN": "Gafsa", "GOV_AR": "قفصة", "allreg_male_sum": 6590, "allreg_female_sum": 6200, "reg_18_35": 4130, "reg_36_40": 1429, "reg_41_60": 4895, "reg_p_60": 2336, "allreg_sum": 12790, "total_inscrits": 12791, "votes_nul": 192, "votes_blancs": 70, "total_votes_valide": 4600, "total_votes": 4862, "id": 66, "POP": 29739, "chair": 24, "state": "extended", "area": 281.61 },
{ "NAME_EN": "el guetar", "gouv_name": "Gafsa", "NAME_AR": "القطار", "GOV_EN": "Gafsa", "GOV_AR": "قفصة", "allreg_male_sum": 5219, "allreg_female_sum": 5594, "reg_18_35": 3742, "reg_36_40": 1079, "reg_41_60": 3942, "reg_p_60": 2050, "allreg_sum": 10813, "total_inscrits": 10813, "votes_nul": 200, "votes_blancs": 60, "total_votes_valide": 4184, "total_votes": 4444, "id": 69, "POP": 20137, "chair": 18, "state": "extended", "area": 932.66 },
{ "NAME_EN": "mdhila", "gouv_name": "Gafsa", "NAME_AR": "المظيلة", "GOV_EN": "Gafsa", "GOV_AR": "قفصة", "allreg_male_sum": 4786, "allreg_female_sum": 4183, "reg_18_35": 3359, "reg_36_40": 1197, "reg_41_60": 3089, "reg_p_60": 1324, "allreg_sum": 8969, "total_inscrits": 8969, "votes_nul": 176, "votes_blancs": 47, "total_votes_valide": 4274, "total_votes": 4497, "id": 88, "POP": 15306, "chair": 18, "state": "extended", "area": 643.95 },
{ "NAME_EN": "lala", "gouv_name": "Gafsa", "NAME_AR": "لالة", "GOV_EN": "Gafsa", "GOV_AR": "قفصة", "allreg_male_sum": 3364, "allreg_female_sum": 3429, "reg_18_35": 2360, "reg_36_40": 736, "reg_41_60": 2489, "reg_p_60": 1208, "allreg_sum": 6793, "total_inscrits": 6793, "votes_nul": 81, "votes_blancs": 44, "total_votes_valide": 2298, "total_votes": 2423, "id": 305, "POP": 6743, "chair": 12, "state": "new", "area": 62.96 },
{ "NAME_EN": "sidi aïch", "gouv_name": "Gafsa", "NAME_AR": "سيدي عيش", "GOV_EN": "Gafsa", "GOV_AR": "قفصة", "allreg_male_sum": 3204, "allreg_female_sum": 2693, "reg_18_35": 2284, "reg_36_40": 727, "reg_41_60": 1863, "reg_p_60": 1023, "allreg_sum": 5897, "total_inscrits": 5897, "votes_nul": 131, "votes_blancs": 34, "total_votes_valide": 3309, "total_votes": 3474, "id": 243, "POP": 10084, "chair": 18, "state": "new", "area": 442.57 },
{ "NAME_EN": "sidi boubaker", "gouv_name": "Gafsa", "NAME_AR": "سيدي بوبكر", "GOV_EN": "Gafsa", "GOV_AR": "قفصة", "allreg_male_sum": 1368, "allreg_female_sum": 1219, "reg_18_35": 1049, "reg_36_40": 321, "reg_41_60": 816, "reg_p_60": 401, "allreg_sum": 2587, "total_inscrits": 2587, "votes_nul": 69, "votes_blancs": 21, "total_votes_valide": 1689, "total_votes": 1779, "id": 235, "POP": 4214, "chair": 12, "state": "new", "area": 176.9 },
{ "NAME_EN": "belkhir", "gouv_name": "Gafsa", "NAME_AR": "بلخير", "GOV_EN": "Gafsa", "GOV_AR": "قفصة", "allreg_male_sum": 4236, "allreg_female_sum": 3564, "reg_18_35": 3107, "reg_36_40": 906, "reg_41_60": 2499, "reg_p_60": 1288, "allreg_sum": 7800, "total_inscrits": 7800, "votes_nul": 110, "votes_blancs": 46, "total_votes_valide": 2395, "total_votes": 2551, "id": 118, "POP": 14784, "chair": 18, "state": "new", "area": 840.21 },
{ "NAME_EN": "dhehbia", "gouv_name": "Tataouine", "NAME_AR": "الذهيبة", "GOV_EN": "Tataouine", "GOV_AR": "تطاوين", "allreg_male_sum": 1058, "allreg_female_sum": 1079, "reg_18_35": 736, "reg_36_40": 273, "reg_41_60": 726, "reg_p_60": 402, "allreg_sum": 2137, "total_inscrits": 2137, "votes_nul": 36, "votes_blancs": 10, "total_votes_valide": 756, "total_votes": 802, "id": 197, "POP": 4295, "chair": 12, "state": "old", "area": 3102.79 },
{ "NAME_EN": "remada", "gouv_name": "Tataouine", "NAME_AR": "رمادة", "GOV_EN": "Tataouine", "GOV_AR": "تطاوين", "allreg_male_sum": 2250, "allreg_female_sum": 2042, "reg_18_35": 1607, "reg_36_40": 525, "reg_41_60": 1436, "reg_p_60": 724, "allreg_sum": 4292, "total_inscrits": 4292, "votes_nul": 63, "votes_blancs": 27, "total_votes_valide": 1254, "total_votes": 1344, "id": 204, "POP": 10173, "chair": 18, "state": "extended", "area": 27154.18 },
{ "NAME_EN": "Tataouine", "gouv_name": "Tataouine", "NAME_AR": "تطاوين", "GOV_EN": "Tataouine", "GOV_AR": "تطاوين", "allreg_male_sum": 20510, "allreg_female_sum": 17160, "reg_18_35": 14541, "reg_36_40": 4402, "reg_41_60": 12397, "reg_p_60": 6330, "allreg_sum": 37670, "total_inscrits": 37780, "votes_nul": 211, "votes_blancs": 153, "total_votes_valide": 8800, "total_votes": 9164, "id": 155, "POP": 88232, "chair": 30, "state": "extended", "area": 2873.0 },
{ "NAME_EN": "smar", "gouv_name": "Tataouine", "NAME_AR": "الصمار", "GOV_EN": "Tataouine", "GOV_AR": "تطاوين", "allreg_male_sum": 3114, "allreg_female_sum": 2813, "reg_18_35": 2378, "reg_36_40": 717, "reg_41_60": 1820, "reg_p_60": 1012, "allreg_sum": 5927, "total_inscrits": 5927, "votes_nul": 80, "votes_blancs": 36, "total_votes_valide": 2314, "total_votes": 2430, "id": 50, "POP": 14793, "chair": 18, "state": "new", "area": 1990.08 },
{ "NAME_EN": "ghomrassen", "gouv_name": "Tataouine", "NAME_AR": "غمراسن", "GOV_EN": "Tataouine", "GOV_AR": "تطاوين", "allreg_male_sum": 3708, "allreg_female_sum": 4110, "reg_18_35": 2361, "reg_36_40": 783, "reg_41_60": 2964, "reg_p_60": 1710, "allreg_sum": 7818, "total_inscrits": 7818, "votes_nul": 71, "votes_blancs": 39, "total_votes_valide": 2166, "total_votes": 2276, "id": 276, "POP": 15957, "chair": 18, "state": "extended", "area": 692.11 },
{ "NAME_EN": "chenini eddouiret", "gouv_name": "Tataouine", "NAME_AR": "تطاوين الجنوبية", "GOV_EN": "Tataouine", "GOV_AR": "تطاوين", "allreg_male_sum": 2028, "allreg_female_sum": 1969, "reg_18_35": 1438, "reg_36_40": 402, "reg_41_60": 1282, "reg_p_60": 875, "allreg_sum": 3997, "total_inscrits": 3997, "votes_nul": 52, "votes_blancs": 18, "total_votes_valide": 1266, "total_votes": 1336, "id": 250, "POP": 7543, "chair": 12, "state": "new", "area": 1863.88 },
{ "NAME_EN": "bir lahmar", "gouv_name": "Tataouine", "NAME_AR": "بئر الأحمر", "GOV_EN": "Tataouine", "GOV_AR": "تطاوين", "allreg_male_sum": 1986, "allreg_female_sum": 1844, "reg_18_35": 1419, "reg_36_40": 401, "reg_41_60": 1286, "reg_p_60": 724, "allreg_sum": 3830, "total_inscrits": 3830, "votes_nul": 35, "votes_blancs": 28, "total_votes_valide": 1477, "total_votes": 1540, "id": 144, "POP": 8460, "chair": 12, "state": "extended", "area": 244.26 },
{ "NAME_EN": "khemaïria", "gouv_name": "Jendouba", "NAME_AR": "الخمايرية", "GOV_EN": "Jendouba", "GOV_AR": "جندوبة", "allreg_male_sum": 3732, "allreg_female_sum": 3405, "reg_18_35": 2283, "reg_36_40": 761, "reg_41_60": 2275, "reg_p_60": 1818, "allreg_sum": 7137, "total_inscrits": 7137, "votes_nul": 203, "votes_blancs": 52, "total_votes_valide": 1988, "total_votes": 2243, "id": 24, "POP": 12175, "chair": 12, "state": "new", "area": 169.198 },
{ "NAME_EN": "aïn drahem", "gouv_name": "Jendouba", "NAME_AR": "عين دراهم", "GOV_EN": "Jendouba", "GOV_AR": "جندوبة", "allreg_male_sum": 6942, "allreg_female_sum": 6497, "reg_18_35": 4012, "reg_36_40": 1219, "reg_41_60": 4759, "reg_p_60": 3449, "allreg_sum": 13439, "total_inscrits": 13439, "votes_nul": 284, "votes_blancs": 110, "total_votes_valide": 3140, "total_votes": 3534, "id": 272, "POP": 23227, "chair": 18, "state": "extended", "area": 319.7 },
{ "NAME_EN": "beni m'tir", "gouv_name": "Jendouba", "NAME_AR": "بني مطير", "GOV_EN": "Jendouba", "GOV_AR": "جندوبة", "allreg_male_sum": 1481, "allreg_female_sum": 1312, "reg_18_35": 716, "reg_36_40": 232, "reg_41_60": 1055, "reg_p_60": 790, "allreg_sum": 2793, "total_inscrits": 2793, "votes_nul": 85, "votes_blancs": 15, "total_votes_valide": 1142, "total_votes": 1242, "id": 130, "POP": 5553, "chair": 12, "state": "extended", "area": 85.56 },
{ "NAME_EN": "oued meliz", "gouv_name": "Jendouba", "NAME_AR": "وادي مليز", "GOV_EN": "Jendouba", "GOV_AR": "جندوبة", "allreg_male_sum": 4559, "allreg_female_sum": 4162, "reg_18_35": 2490, "reg_36_40": 880, "reg_41_60": 3148, "reg_p_60": 2203, "allreg_sum": 8721, "total_inscrits": 8721, "votes_nul": 176, "votes_blancs": 98, "total_votes_valide": 3198, "total_votes": 3472, "id": 348, "POP": 17843, "chair": 18, "state": "extended", "area": 198.21 },
{ "NAME_EN": "balta bou aouane", "gouv_name": "Jendouba", "NAME_AR": "بلطة بوعوان", "GOV_EN": "Jendouba", "GOV_AR": "جندوبة", "allreg_male_sum": 6851, "allreg_female_sum": 5672, "reg_18_35": 3239, "reg_36_40": 1013, "reg_41_60": 4455, "reg_p_60": 3816, "allreg_sum": 12523, "total_inscrits": 12523, "votes_nul": 225, "votes_blancs": 101, "total_votes_valide": 2745, "total_votes": 3071, "id": 119, "POP": 30268, "chair": 24, "state": "new", "area": 266.19 },
{ "NAME_EN": "ghardimaou", "gouv_name": "Jendouba", "NAME_AR": "غار الدماء", "GOV_EN": "Jendouba", "GOV_AR": "جندوبة", "allreg_male_sum": 11094, "allreg_female_sum": 9077, "reg_18_35": 5903, "reg_36_40": 1987, "reg_41_60": 7316, "reg_p_60": 4965, "allreg_sum": 20171, "total_inscrits": 20171, "votes_nul": 289, "votes_blancs": 174, "total_votes_valide": 5869, "total_votes": 6332, "id": 273, "POP": 50793, "chair": 36, "state": "extended", "area": 379.3 },
{ "NAME_EN": "Jendouba", "gouv_name": "Jendouba", "NAME_AR": "جندوبة", "GOV_EN": "Jendouba", "GOV_AR": "جندوبة", "allreg_male_sum": 25420, "allreg_female_sum": 24525, "reg_18_35": 15636, "reg_36_40": 4801, "reg_41_60": 18370, "reg_p_60": 11138, "allreg_sum": 49945, "total_inscrits": 49945, "votes_nul": 579, "votes_blancs": 303, "total_votes_valide": 10156, "total_votes": 11038, "id": 172, "POP": 74421, "chair": 36, "state": "extended", "area": 294.26 },
{ "NAME_EN": "el galaa el mâaden forgassen", "gouv_name": "Jendouba", "NAME_AR": "القلعة - المعدن - فرقصان", "GOV_EN": "Jendouba", "GOV_AR": "جندوبة", "allreg_male_sum": 2630, "allreg_female_sum": 1553, "reg_18_35": 1362, "reg_36_40": 427, "reg_41_60": 1498, "reg_p_60": 896, "allreg_sum": 4183, "total_inscrits": 4183, "votes_nul": 60, "votes_blancs": 40, "total_votes_valide": 1491, "total_votes": 1591, "id": 74, "POP": 13377, "chair": 18, "state": "new", "area": 241.412 },
{ "NAME_EN": "bou salem", "gouv_name": "Jendouba", "NAME_AR": "بوسالم", "GOV_EN": "Jendouba", "GOV_AR": "جندوبة", "allreg_male_sum": 10705, "allreg_female_sum": 9882, "reg_18_35": 5909, "reg_36_40": 1770, "reg_41_60": 8028, "reg_p_60": 4880, "allreg_sum": 20587, "total_inscrits": 20587, "votes_nul": 375, "votes_blancs": 104, "total_votes_valide": 6123, "total_votes": 6602, "id": 137, "POP": 43997, "chair": 24, "state": "extended", "area": 319.04 },
{ "NAME_EN": "ettataouer souk el sebt", "gouv_name": "Jendouba", "NAME_AR": "سوق السبت", "GOV_EN": null, "GOV_AR": null, "allreg_male_sum": 3160, "allreg_female_sum": 2042, "reg_18_35": 1636, "reg_36_40": 506, "reg_41_60": 1947, "reg_p_60": 1113, "allreg_sum": 5202, "total_inscrits": 5202, "votes_nul": 98, "votes_blancs": 39, "total_votes_valide": 1526, "total_votes": 1663, "id": 11, "POP": 38695, "chair": 24, "state": "new", "area": 249.164 },
{ "NAME_EN": "jaouaouada", "gouv_name": "Jendouba", "NAME_AR": "الجواودة", "GOV_EN": "Jendouba", "GOV_AR": "جندوبة", "allreg_male_sum": 3527, "allreg_female_sum": 1949, "reg_18_35": 1682, "reg_36_40": 583, "reg_41_60": 1897, "reg_p_60": 1314, "allreg_sum": 5476, "total_inscrits": 5476, "votes_nul": 109, "votes_blancs": 60, "total_votes_valide": 1517, "total_votes": 1686, "id": 174, "POP": 16739, "chair": 18, "state": "new", "area": 98.669 },
{ "NAME_EN": "fernana", "gouv_name": "Jendouba", "NAME_AR": "فرنانة", "GOV_EN": "Jendouba", "GOV_AR": "جندوبة", "allreg_male_sum": 6961, "allreg_female_sum": 5477, "reg_18_35": 3769, "reg_36_40": 1249, "reg_41_60": 4495, "reg_p_60": 2925, "allreg_sum": 12438, "total_inscrits": 12438, "votes_nul": 305, "votes_blancs": 81, "total_votes_valide": 2848, "total_votes": 3234, "id": 279, "POP": 25398, "chair": 24, "state": "extended", "area": 213.3 },
{ "NAME_EN": "nadhour", "gouv_name": "Jendouba", "NAME_AR": "الناظور", "GOV_EN": "Zaghouan", "GOV_AR": "زغوان", "allreg_male_sum": 8751, "allreg_female_sum": 7693, "reg_18_35": 6379, "reg_36_40": 1971, "reg_41_60": 5350, "reg_p_60": 2744, "allreg_sum": 16444, "total_inscrits": 16444, "votes_nul": 360, "votes_blancs": 171, "total_votes_valide": 7603, "total_votes": 8134, "id": 99, "POP": 30366, "chair": 24, "state": "extended", "area": 355.43 },
{ "NAME_EN": "tabarka", "gouv_name": "Jendouba", "NAME_AR": "طبرقة", "GOV_EN": "Jendouba", "GOV_AR": "جندوبة", "allreg_male_sum": 8730, "allreg_female_sum": 8345, "reg_18_35": 4844, "reg_36_40": 1753, "reg_41_60": 6821, "reg_p_60": 3657, "allreg_sum": 17075, "total_inscrits": 17075, "votes_nul": 312, "votes_blancs": 74, "total_votes_valide": 4792, "total_votes": 5178, "id": 258, "POP": 33942, "chair": 24, "state": "extended", "area": 134.6 },
{ "NAME_EN": "ousja", "gouv_name": "Bizerte", "NAME_AR": "عوسجة", "GOV_EN": "Bizerte", "GOV_AR": "بنزرت", "allreg_male_sum": 2662, "allreg_female_sum": 2373, "reg_18_35": 1611, "reg_36_40": 559, "reg_41_60": 1908, "reg_p_60": 957, "allreg_sum": 5035, "total_inscrits": 5035, "votes_nul": 88, "votes_blancs": 58, "total_votes_valide": 2415, "total_votes": 2561, "id": 268, "POP": 10253, "chair": 18, "state": "extended", "area": 61.1 },
{ "NAME_EN": "ghar el meleh", "gouv_name": "Bizerte", "NAME_AR": "غار الملح", "GOV_EN": "Bizerte", "GOV_AR": "بنزرت", "allreg_male_sum": 2563, "allreg_female_sum": 1976, "reg_18_35": 1388, "reg_36_40": 522, "reg_41_60": 1754, "reg_p_60": 875, "allreg_sum": 4539, "total_inscrits": 4539, "votes_nul": 57, "votes_blancs": 57, "total_votes_valide": 1655, "total_votes": 1769, "id": 274, "POP": 9242, "chair": 12, "state": "extended", "area": 31.16 },
{ "NAME_EN": "rafraf", "gouv_name": "Bizerte", "NAME_AR": "رفراف", "GOV_EN": "Bizerte", "GOV_AR": "بنزرت", "allreg_male_sum": 3322, "allreg_female_sum": 2945, "reg_18_35": 1818, "reg_36_40": 677, "reg_41_60": 2462, "reg_p_60": 1310, "allreg_sum": 6267, "total_inscrits": 6267, "votes_nul": 96, "votes_blancs": 46, "total_votes_valide": 2325, "total_votes": 2467, "id": 202, "POP": 14118, "chair": 18, "state": "extended", "area": 22.2 },
{ "NAME_EN": "menzel djemil", "gouv_name": "Bizerte", "NAME_AR": "منزل جميل", "GOV_EN": "Bizerte", "GOV_AR": "بنزرت", "allreg_male_sum": 6460, "allreg_female_sum": 6612, "reg_18_35": 4049, "reg_36_40": 1399, "reg_41_60": 5121, "reg_p_60": 2503, "allreg_sum": 13072, "total_inscrits": 13072, "votes_nul": 190, "votes_blancs": 77, "total_votes_valide": 4587, "total_votes": 4854, "id": 321, "POP": 28139, "chair": 24, "state": "extended", "area": 72.8 },
{ "NAME_EN": "tinja", "gouv_name": "Bizerte", "NAME_AR": "تينجة", "GOV_EN": "Bizerte", "GOV_AR": "بنزرت", "allreg_male_sum": 5100, "allreg_female_sum": 5012, "reg_18_35": 2958, "reg_36_40": 889, "reg_41_60": 3858, "reg_p_60": 2407, "allreg_sum": 10112, "total_inscrits": 10112, "votes_nul": 213, "votes_blancs": 105, "total_votes_valide": 3284, "total_votes": 3602, "id": 162, "POP": 23455, "chair": 18, "state": "extended", "area": 60.79 },
{ "NAME_EN": "menzel bourguiba", "gouv_name": "Bizerte", "NAME_AR": "منزل بورقيبة", "GOV_EN": "Bizerte", "GOV_AR": "بنزرت", "allreg_male_sum": 15440, "allreg_female_sum": 14280, "reg_18_35": 8267, "reg_36_40": 2795, "reg_41_60": 11562, "reg_p_60": 7096, "allreg_sum": 29720, "total_inscrits": 29721, "votes_nul": 401, "votes_blancs": 174, "total_votes_valide": 7645, "total_votes": 8220, "id": 325, "POP": 61919, "chair": 30, "state": "extended", "area": 128.42 },
{ "NAME_EN": "ras el djebel", "gouv_name": "Bizerte", "NAME_AR": "رأس الجبل", "GOV_EN": "Bizerte", "GOV_AR": "بنزرت", "allreg_male_sum": 7855, "allreg_female_sum": 7869, "reg_18_35": 5330, "reg_36_40": 1767, "reg_41_60": 5978, "reg_p_60": 2649, "allreg_sum": 15724, "total_inscrits": 15724, "votes_nul": 232, "votes_blancs": 107, "total_votes_valide": 4926, "total_votes": 5265, "id": 199, "POP": 29977, "chair": 24, "state": "extended", "area": 29.87 },
{ "NAME_EN": "metline", "gouv_name": "Bizerte", "NAME_AR": "ماتلين", "GOV_EN": "Bizerte", "GOV_AR": "بنزرت", "allreg_male_sum": 3213, "allreg_female_sum": 3421, "reg_18_35": 2016, "reg_36_40": 731, "reg_41_60": 2571, "reg_p_60": 1316, "allreg_sum": 6634, "total_inscrits": 6634, "votes_nul": 86, "votes_blancs": 62, "total_votes_valide": 1916, "total_votes": 2064, "id": 307, "POP": 14146, "chair": 18, "state": "extended", "area": 32.0 },
{ "NAME_EN": "Bizerte", "gouv_name": "Bizerte", "NAME_AR": "بنزرت", "GOV_EN": "Bizerte", "GOV_AR": "بنزرت", "allreg_male_sum": 40609, "allreg_female_sum": 40211, "reg_18_35": 24016, "reg_36_40": 8324, "reg_41_60": 31340, "reg_p_60": 17140, "allreg_sum": 80820, "total_inscrits": 80820, "votes_nul": 950, "votes_blancs": 445, "total_votes_valide": 18963, "total_votes": 20358, "id": 124, "POP": 167759, "chair": 36, "state": "extended", "area": 457.97 },
{ "NAME_EN": "el alia", "gouv_name": "Bizerte", "NAME_AR": "العالية", "GOV_EN": "Bizerte", "GOV_AR": "بنزرت", "allreg_male_sum": 5991, "allreg_female_sum": 5725, "reg_18_35": 3923, "reg_36_40": 1218, "reg_41_60": 4462, "reg_p_60": 2113, "allreg_sum": 11716, "total_inscrits": 17717, "votes_nul": 247, "votes_blancs": 118, "total_votes_valide": 3816, "total_votes": 4181, "id": 53, "POP": 27057, "chair": 24, "state": "extended", "area": 84.89 },
{ "NAME_EN": "el hachachna", "gouv_name": "Bizerte", "NAME_AR": "الحشاشنة", "GOV_EN": "Bizerte", "GOV_AR": "بنزرت", "allreg_male_sum": 4055, "allreg_female_sum": 2867, "reg_18_35": 1885, "reg_36_40": 735, "reg_41_60": 2533, "reg_p_60": 1769, "allreg_sum": 6922, "total_inscrits": 6922, "votes_nul": 147, "votes_blancs": 68, "total_votes_valide": 2169, "total_votes": 2384, "id": 19, "POP": 18797, "chair": 18, "state": "new", "area": 364.8 },
{ "NAME_EN": "djoumine", "gouv_name": "Bizerte", "NAME_AR": "جومين", "GOV_EN": "Bizerte", "GOV_AR": "بنزرت", "allreg_male_sum": 6761, "allreg_female_sum": 4975, "reg_18_35": 3411, "reg_36_40": 1133, "reg_41_60": 4368, "reg_p_60": 2824, "allreg_sum": 11736, "total_inscrits": 11736, "votes_nul": 416, "votes_blancs": 130, "total_votes_valide": 4587, "total_votes": 5133, "id": 175, "POP": 29029, "chair": 24, "state": "new", "area": 551.71 },
{ "NAME_EN": "sedjnane", "gouv_name": "Bizerte", "NAME_AR": "سجنان", "GOV_EN": "Bizerte", "GOV_AR": "بنزرت", "allreg_male_sum": 5714, "allreg_female_sum": 4756, "reg_18_35": 2930, "reg_36_40": 1129, "reg_41_60": 3864, "reg_p_60": 2547, "allreg_sum": 10470, "total_inscrits": 10470, "votes_nul": 278, "votes_blancs": 85, "total_votes_valide": 3978, "total_votes": 4341, "id": 221, "POP": 21369, "chair": 18, "state": "extended", "area": 261.5 },
{ "NAME_EN": "ghezala", "gouv_name": "Bizerte", "NAME_AR": "غزالة", "GOV_EN": "Bizerte", "GOV_AR": "بنزرت", "allreg_male_sum": 6142, "allreg_female_sum": 4420, "reg_18_35": 2585, "reg_36_40": 993, "reg_41_60": 4101, "reg_p_60": 2883, "allreg_sum": 10562, "total_inscrits": 10562, "votes_nul": 237, "votes_blancs": 64, "total_votes_valide": 1959, "total_votes": 2260, "id": 275, "POP": 26977, "chair": 24, "state": "new", "area": 409.49 },
{ "NAME_EN": "mateur", "gouv_name": "Bizerte", "NAME_AR": "ماطر", "GOV_EN": "Bizerte", "GOV_AR": "بنزرت", "allreg_male_sum": 10433, "allreg_female_sum": 9455, "reg_18_35": 5082, "reg_36_40": 2011, "reg_41_60": 8040, "reg_p_60": 4755, "allreg_sum": 19888, "total_inscrits": 19888, "votes_nul": 325, "votes_blancs": 149, "total_votes_valide": 4844, "total_votes": 5318, "id": 310, "POP": 46975, "chair": 24, "state": "extended", "area": 564.01 },
{ "NAME_EN": "utique", "gouv_name": "Bizerte", "NAME_AR": "أوتيك", "GOV_EN": "Bizerte", "GOV_AR": "بنزرت", "allreg_male_sum": 4725, "allreg_female_sum": 2764, "reg_18_35": 2153, "reg_36_40": 879, "reg_41_60": 3065, "reg_p_60": 1392, "allreg_sum": 7489, "total_inscrits": 7489, "votes_nul": 143, "votes_blancs": 79, "total_votes_valide": 2930, "total_votes": 3152, "id": 108, "POP": 19922, "chair": 18, "state": "new", "area": 381.12 },
{ "NAME_EN": "menzel abderrahmen", "gouv_name": "Bizerte", "NAME_AR": "منزل عبد الرحمان", "GOV_EN": "Bizerte", "GOV_AR": "بنزرت", "allreg_male_sum": 3946, "allreg_female_sum": 4193, "reg_18_35": 2525, "reg_36_40": 720, "reg_41_60": 3188, "reg_p_60": 1706, "allreg_sum": 8139, "total_inscrits": 8139, "votes_nul": 171, "votes_blancs": 68, "total_votes_valide": 3289, "total_votes": 3528, "id": 334, "POP": 19085, "chair": 18, "state": "old", "area": 9.66 },
{ "NAME_EN": "el hamma", "gouv_name": "Gabes", "NAME_AR": "الحامة", "GOV_EN": "Gabes", "GOV_AR": "قابس", "allreg_male_sum": 10820, "allreg_female_sum": 12216, "reg_18_35": 8230, "reg_36_40": 2597, "reg_41_60": 8115, "reg_p_60": 4094, "allreg_sum": 23036, "total_inscrits": 23036, "votes_nul": 320, "votes_blancs": 127, "total_votes_valide": 6631, "total_votes": 7078, "id": 16, "POP": 54192, "chair": 30, "state": "extended", "area": 944.9 },
{ "NAME_EN": "menzel el habib", "gouv_name": "Gabes", "NAME_AR": "منزل الحبيب", "GOV_EN": "Gabes", "GOV_AR": "قابس", "allreg_male_sum": 3212, "allreg_female_sum": 2924, "reg_18_35": 2312, "reg_36_40": 670, "reg_41_60": 2107, "reg_p_60": 1047, "allreg_sum": 6136, "total_inscrits": 6136, "votes_nul": 120, "votes_blancs": 39, "total_votes_valide": 2676, "total_votes": 2835, "id": 322, "POP": 10184, "chair": 18, "state": "new", "area": 951.42 },
{ "NAME_EN": "dekhilet toujane", "gouv_name": "Gabes", "NAME_AR": "دخيلة توجان", "GOV_EN": "Gabes", "GOV_AR": "قابس", "allreg_male_sum": 2483, "allreg_female_sum": 2208, "reg_18_35": 1699, "reg_36_40": 569, "reg_41_60": 1527, "reg_p_60": 896, "allreg_sum": 4691, "total_inscrits": 4691, "votes_nul": 67, "votes_blancs": 45, "total_votes_valide": 2207, "total_votes": 2319, "id": 193, "POP": 10277, "chair": 18, "state": "new", "area": 318.48 },
{ "NAME_EN": "nouvelle matmata", "gouv_name": "Gabes", "NAME_AR": "مطماطة الجديدة", "GOV_EN": "Gabes", "GOV_AR": "قابس", "allreg_male_sum": 3413, "allreg_female_sum": 3693, "reg_18_35": 1929, "reg_36_40": 670, "reg_41_60": 2576, "reg_p_60": 1931, "allreg_sum": 7106, "total_inscrits": 7106, "votes_nul": 146, "votes_blancs": 58, "total_votes_valide": 2253, "total_votes": 2457, "id": 317, "POP": 14224, "chair": 18, "state": "extended", "area": 751.95 },
{ "NAME_EN": "ketana", "gouv_name": "Gabes", "NAME_AR": "كتانة", "GOV_EN": "Gabes", "GOV_AR": "قابس", "allreg_male_sum": 3677, "allreg_female_sum": 3630, "reg_18_35": 2443, "reg_36_40": 781, "reg_41_60": 2616, "reg_p_60": 1467, "allreg_sum": 7307, "total_inscrits": 7307, "votes_nul": 75, "votes_blancs": 56, "total_votes_valide": 1929, "total_votes": 2060, "id": 301, "POP": 13310, "chair": 18, "state": "new", "area": 222.4 },
{ "NAME_EN": "teboulbou", "gouv_name": "Gabes", "NAME_AR": "طبلبو", "GOV_EN": "Gabes", "GOV_AR": "قابس", "allreg_male_sum": 5658, "allreg_female_sum": 5821, "reg_18_35": 3630, "reg_36_40": 1283, "reg_41_60": 4401, "reg_p_60": 2165, "allreg_sum": 11479, "total_inscrits": 11479, "votes_nul": 136, "votes_blancs": 70, "total_votes_valide": 4445, "total_votes": 4651, "id": 260, "POP": 21727, "chair": 18, "state": "new", "area": 77.8 },
{ "NAME_EN": "mareth", "gouv_name": "Gabes", "NAME_AR": "مارث", "GOV_EN": "Gabes", "GOV_AR": "قابس", "allreg_male_sum": 7383, "allreg_female_sum": 7316, "reg_18_35": 5147, "reg_36_40": 1654, "reg_41_60": 5107, "reg_p_60": 2791, "allreg_sum": 14699, "total_inscrits": 14699, "votes_nul": 185, "votes_blancs": 106, "total_votes_valide": 4650, "total_votes": 4941, "id": 309, "POP": 30410, "chair": 24, "state": "extended", "area": 345.79 },
{ "NAME_EN": "ezzarat", "gouv_name": "Gabes", "NAME_AR": "الزارات", "GOV_EN": "Gabes", "GOV_AR": "قابس", "allreg_male_sum": 2514, "allreg_female_sum": 2706, "reg_18_35": 1807, "reg_36_40": 552, "reg_41_60": 1781, "reg_p_60": 1080, "allreg_sum": 5220, "total_inscrits": 5220, "votes_nul": 67, "votes_blancs": 68, "total_votes_valide": 2168, "total_votes": 2303, "id": 32, "POP": 9125, "chair": 12, "state": "extended", "area": 118.08 },
{ "NAME_EN": "matmata", "gouv_name": "Gabes", "NAME_AR": "مطماطة", "GOV_EN": "Gabes", "GOV_AR": "قابس", "allreg_male_sum": 1336, "allreg_female_sum": 1225, "reg_18_35": 680, "reg_36_40": 260, "reg_41_60": 856, "reg_p_60": 765, "allreg_sum": 2561, "total_inscrits": 2561, "votes_nul": 46, "votes_blancs": 32, "total_votes_valide": 943, "total_votes": 1021, "id": 316, "POP": 4444, "chair": 12, "state": "extended", "area": 1240.86 },
{ "NAME_EN": "ouedhref", "gouv_name": "Gabes", "NAME_AR": "وذرف", "GOV_EN": "Gabes", "GOV_AR": "قابس", "allreg_male_sum": 4129, "allreg_female_sum": 3953, "reg_18_35": 2620, "reg_36_40": 864, "reg_41_60": 3137, "reg_p_60": 1461, "allreg_sum": 8082, "total_inscrits": 8083, "votes_nul": 79, "votes_blancs": 60, "total_votes_valide": 3753, "total_votes": 3892, "id": 349, "POP": 12557, "chair": 18, "state": "extended", "area": 266.02 },
{ "NAME_EN": "el metouia", "gouv_name": "Gabes", "NAME_AR": "المطوية", "GOV_EN": "Gabes", "GOV_AR": "قابس", "allreg_male_sum": 3762, "allreg_female_sum": 3697, "reg_18_35": 2619, "reg_36_40": 790, "reg_41_60": 2784, "reg_p_60": 1266, "allreg_sum": 7459, "total_inscrits": 7459, "votes_nul": 117, "votes_blancs": 40, "total_votes_valide": 3835, "total_votes": 3992, "id": 87, "POP": 15321, "chair": 18, "state": "extended", "area": 146.06 },
{ "NAME_EN": "chenini nahal", "gouv_name": "Gabes", "NAME_AR": "شنني - نحال", "GOV_EN": "Gabes", "GOV_AR": "قابس", "allreg_male_sum": 4974, "allreg_female_sum": 5013, "reg_18_35": 3129, "reg_36_40": 1090, "reg_41_60": 3815, "reg_p_60": 1953, "allreg_sum": 9987, "total_inscrits": 9987, "votes_nul": 102, "votes_blancs": 65, "total_votes_valide": 2741, "total_votes": 2908, "id": 251, "POP": 19586, "chair": 18, "state": "extended", "area": 104.23 },
{ "NAME_EN": "bou-chemma", "gouv_name": "Gabes", "NAME_AR": "بوشمة", "GOV_EN": "Gabes", "GOV_AR": "قابس", "allreg_male_sum": 3171, "allreg_female_sum": 2962, "reg_18_35": 2119, "reg_36_40": 738, "reg_41_60": 2284, "reg_p_60": 992, "allreg_sum": 6133, "total_inscrits": 6133, "votes_nul": 80, "votes_blancs": 44, "total_votes_valide": 2313, "total_votes": 2437, "id": 138, "POP": 12182, "chair": 18, "state": "new", "area": 104.23 },
{ "NAME_EN": "ghanouch", "gouv_name": "Gabes", "NAME_AR": "غنوش", "GOV_EN": "Gabes", "GOV_AR": "قابس", "allreg_male_sum": 6971, "allreg_female_sum": 5704, "reg_18_35": 4885, "reg_36_40": 1560, "reg_41_60": 4302, "reg_p_60": 1928, "allreg_sum": 12675, "total_inscrits": 12675, "votes_nul": 124, "votes_blancs": 60, "total_votes_valide": 3468, "total_votes": 3652, "id": 278, "POP": 28051, "chair": 24, "state": "old", "area": 20.04 },
{ "NAME_EN": "Gabes", "gouv_name": "Gabes", "NAME_AR": "قابس", "GOV_EN": "Gabes", "GOV_AR": "قابس", "allreg_male_sum": 25343, "allreg_female_sum": 25667, "reg_18_35": 16001, "reg_36_40": 5493, "reg_41_60": 20050, "reg_p_60": 9466, "allreg_sum": 51010, "total_inscrits": 51010, "votes_nul": 261, "votes_blancs": 251, "total_votes_valide": 14461, "total_votes": 14973, "id": 284, "POP": 99426, "chair": 30, "state": "old", "area": 30.68 },
{ "NAME_EN": "habib thameur", "gouv_name": "Gabes", "NAME_AR": "الحبيب ثامر - بوعطوش", "GOV_EN": "Gabes", "GOV_AR": "قابس", "allreg_male_sum": 6552, "allreg_female_sum": 7686, "reg_18_35": 5216, "reg_36_40": 1581, "reg_41_60": 4796, "reg_p_60": 2645, "allreg_sum": 14238, "total_inscrits": 14238, "votes_nul": 219, "votes_blancs": 80, "total_votes_valide": 4027, "total_votes": 4326, "id": 18, "POP": 19320, "chair": 18, "state": "new", "area": 1695.2 },
{ "NAME_EN": "la marsa", "gouv_name": "Tunis", "NAME_AR": "المرسى", "GOV_EN": "Tunis", "GOV_AR": "تونس", "allreg_male_sum": 25414, "allreg_female_sum": 26392, "reg_18_35": 14894, "reg_36_40": 5739, "reg_41_60": 20044, "reg_p_60": 11129, "allreg_sum": 51806, "total_inscrits": 51807, "votes_nul": 355, "votes_blancs": 266, "total_votes_valide": 18999, "total_votes": 19620, "id": 83, "POP": 92987, "chair": 30, "state": "old", "area": 31.6 },
{ "NAME_EN": "le kram", "gouv_name": "Tunis", "NAME_AR": "الكرم", "GOV_EN": "Tunis", "GOV_AR": "تونس", "allreg_male_sum": 14840, "allreg_female_sum": 15339, "reg_18_35": 8272, "reg_36_40": 3319, "reg_41_60": 12356, "reg_p_60": 6232, "allreg_sum": 30179, "total_inscrits": 30179, "votes_nul": 346, "votes_blancs": 268, "total_votes_valide": 7559, "total_votes": 8173, "id": 77, "POP": 74132, "chair": 30, "state": "old", "area": 9.58 },
{ "NAME_EN": "le bardo", "gouv_name": "Tunis", "NAME_AR": "باردو", "GOV_EN": "Tunis", "GOV_AR": "تونس", "allreg_male_sum": 21823, "allreg_female_sum": 23077, "reg_18_35": 13536, "reg_36_40": 4647, "reg_41_60": 17025, "reg_p_60": 9692, "allreg_sum": 44900, "total_inscrits": 44901, "votes_nul": 329, "votes_blancs": 209, "total_votes_valide": 13084, "total_votes": 13622, "id": 112, "POP": 71691, "chair": 30, "state": "old", "area": 6.67 },
{ "NAME_EN": "sidi hassine", "gouv_name": "Tunis", "NAME_AR": "سيدي حسين", "GOV_EN": "Tunis", "GOV_AR": "تونس", "allreg_male_sum": 20059, "allreg_female_sum": 18060, "reg_18_35": 12054, "reg_36_40": 3926, "reg_41_60": 15405, "reg_p_60": 6734, "allreg_sum": 38119, "total_inscrits": 38119, "votes_nul": 392, "votes_blancs": 296, "total_votes_valide": 8483, "total_votes": 9171, "id": 238, "POP": 109672, "chair": 36, "state": "old", "area": 64.43 },
{ "NAME_EN": "carthage", "gouv_name": "Tunis", "NAME_AR": "قرطاج", "GOV_EN": "Tunis", "GOV_AR": "تونس", "allreg_male_sum": 7450, "allreg_female_sum": 8292, "reg_18_35": 4704, "reg_36_40": 1582, "reg_41_60": 6004, "reg_p_60": 3452, "allreg_sum": 15742, "total_inscrits": 15743, "votes_nul": 171, "votes_blancs": 131, "total_votes_valide": 5375, "total_votes": 5677, "id": 289, "POP": 17010, "chair": 18, "state": "old", "area": 6.15 },
{ "NAME_EN": "sidi bou saïd", "gouv_name": "Tunis", "NAME_AR": "سيدي بوسعيد", "GOV_EN": "Tunis", "GOV_AR": "تونس", "allreg_male_sum": 2580, "allreg_female_sum": 2756, "reg_18_35": 1624, "reg_36_40": 509, "reg_41_60": 2070, "reg_p_60": 1133, "allreg_sum": 5336, "total_inscrits": 5336, "votes_nul": 64, "votes_blancs": 42, "total_votes_valide": 2728, "total_votes": 2834, "id": 233, "POP": 7206, "chair": 12, "state": "old", "area": 2.17 },
{ "NAME_EN": "la goulette", "gouv_name": "Tunis", "NAME_AR": "حلق الوادي", "GOV_EN": "Tunis", "GOV_AR": "تونس", "allreg_male_sum": 11584, "allreg_female_sum": 11863, "reg_18_35": 7006, "reg_36_40": 2803, "reg_41_60": 9246, "reg_p_60": 4392, "allreg_sum": 23447, "total_inscrits": 23448, "votes_nul": 210, "votes_blancs": 172, "total_votes_valide": 7338, "total_votes": 7720, "id": 182, "POP": 45711, "chair": 24, "state": "old", "area": 20.08 },
{ "NAME_EN": "Tunis", "gouv_name": "Tunis", "NAME_AR": "تونس", "GOV_EN": "Tunis", "GOV_AR": "تونس", "allreg_male_sum": 163413, "allreg_female_sum": 164719, "reg_18_35": 93652, "reg_36_40": 34821, "reg_41_60": 127038, "reg_p_60": 72621, "allreg_sum": 328132, "total_inscrits": 328134, "votes_nul": 2831, "votes_blancs": 2058, "total_votes_valide": 79569, "total_votes": 84458, "id": 160, "POP": 637568, "chair": 60, "state": "old", "area": 122.14 },
{ "NAME_EN": "el hekaima", "gouv_name": "Mahdia", "NAME_AR": "الحكايمة", "GOV_EN": "Mahdia", "GOV_AR": "المهدية", "allreg_male_sum": 2551, "allreg_female_sum": 2409, "reg_18_35": 1561, "reg_36_40": 538, "reg_41_60": 1848, "reg_p_60": 1013, "allreg_sum": 4960, "total_inscrits": 4960, "votes_nul": 133, "votes_blancs": 40, "total_votes_valide": 1910, "total_votes": 2083, "id": 20, "POP": 16632, "chair": 18, "state": "new", "area": 81.887 },
{ "NAME_EN": "Mahdia", "gouv_name": "Mahdia", "NAME_AR": "المهدية", "GOV_EN": "Mahdia", "GOV_AR": "المهدية", "allreg_male_sum": 14168, "allreg_female_sum": 14546, "reg_18_35": 9451, "reg_36_40": 3123, "reg_41_60": 10916, "reg_p_60": 5224, "allreg_sum": 28714, "total_inscrits": 28714, "votes_nul": 287, "votes_blancs": 181, "total_votes_valide": 10446, "total_votes": 10914, "id": 96, "POP": 52602, "chair": 30, "state": "extended", "area": 68.66 },
{ "NAME_EN": "rejiche", "gouv_name": "Mahdia", "NAME_AR": "الرجيش", "GOV_EN": "Mahdia", "GOV_AR": "المهدية", "allreg_male_sum": 2736, "allreg_female_sum": 2718, "reg_18_35": 1934, "reg_36_40": 541, "reg_41_60": 2030, "reg_p_60": 949, "allreg_sum": 5454, "total_inscrits": 5454, "votes_nul": 53, "votes_blancs": 74, "total_votes_valide": 2897, "total_votes": 3024, "id": 27, "POP": 10311, "chair": 18, "state": "old", "area": 15.42 },
{ "NAME_EN": "talalsa", "gouv_name": "Mahdia", "NAME_AR": "تلالسة", "GOV_EN": "Mahdia", "GOV_AR": "المهدية", "allreg_male_sum": 3050, "allreg_female_sum": 2622, "reg_18_35": 2030, "reg_36_40": 589, "reg_41_60": 2024, "reg_p_60": 1029, "allreg_sum": 5672, "total_inscrits": 5672, "votes_nul": 122, "votes_blancs": 47, "total_votes_valide": 1580, "total_votes": 1749, "id": 157, "POP": 14745, "chair": 18, "state": "new", "area": 119.1 },
{ "NAME_EN": "bou merdes", "gouv_name": "Mahdia", "NAME_AR": "بومرداس", "GOV_EN": "Mahdia", "GOV_AR": "المهدية", "allreg_male_sum": 3841, "allreg_female_sum": 3414, "reg_18_35": 2668, "reg_36_40": 781, "reg_41_60": 2540, "reg_p_60": 1266, "allreg_sum": 7255, "total_inscrits": 7255, "votes_nul": 133, "votes_blancs": 52, "total_votes_valide": 3929, "total_votes": 4114, "id": 132, "POP": 16726, "chair": 18, "state": "extended", "area": 87.68 },
{ "NAME_EN": "el bradâa", "gouv_name": "Mahdia", "NAME_AR": "البرادعة", "GOV_EN": "Mahdia", "GOV_AR": "المهدية", "allreg_male_sum": 3192, "allreg_female_sum": 3679, "reg_18_35": 2270, "reg_36_40": 676, "reg_41_60": 2462, "reg_p_60": 1463, "allreg_sum": 6871, "total_inscrits": 6872, "votes_nul": 194, "votes_blancs": 72, "total_votes_valide": 2993, "total_votes": 3259, "id": 6, "POP": 20406, "chair": 18, "state": "extended", "area": 109.02 },
{ "NAME_EN": "chebba", "gouv_name": "Mahdia", "NAME_AR": "الشابة", "GOV_EN": "Mahdia", "GOV_AR": "المهدية", "allreg_male_sum": 8317, "allreg_female_sum": 8372, "reg_18_35": 5312, "reg_36_40": 1555, "reg_41_60": 6417, "reg_p_60": 3405, "allreg_sum": 16689, "total_inscrits": 16689, "votes_nul": 231, "votes_blancs": 115, "total_votes_valide": 7728, "total_votes": 8074, "id": 43, "POP": 24515, "chair": 18, "state": "extended", "area": 116.49 },
{ "NAME_EN": "zalba", "gouv_name": "Mahdia", "NAME_AR": "زالبة", "GOV_EN": "Mahdia", "GOV_AR": "المهدية", "allreg_male_sum": 2332, "allreg_female_sum": 1605, "reg_18_35": 1229, "reg_36_40": 446, "reg_41_60": 1464, "reg_p_60": 798, "allreg_sum": 3937, "total_inscrits": 3937, "votes_nul": 95, "votes_blancs": 26, "total_votes_valide": 1039, "total_votes": 1160, "id": 206, "POP": 12021, "chair": 18, "state": "new", "area": 183.8 },
{ "NAME_EN": "essouassi", "gouv_name": "Mahdia", "NAME_AR": "السواسي", "GOV_EN": "Mahdia", "GOV_AR": "المهدية", "allreg_male_sum": 7225, "allreg_female_sum": 4742, "reg_18_35": 4250, "reg_36_40": 1402, "reg_41_60": 4505, "reg_p_60": 1810, "allreg_sum": 11967, "total_inscrits": 11967, "votes_nul": 193, "votes_blancs": 113, "total_votes_valide": 5935, "total_votes": 6241, "id": 42, "POP": 29324, "chair": 24, "state": "extended", "area": 194.7 },
{ "NAME_EN": "kerker", "gouv_name": "Mahdia", "NAME_AR": "كركر", "GOV_EN": "Mahdia", "GOV_AR": "المهدية", "allreg_male_sum": 3881, "allreg_female_sum": 3317, "reg_18_35": 2808, "reg_36_40": 874, "reg_41_60": 2466, "reg_p_60": 1050, "allreg_sum": 7198, "total_inscrits": 7198, "votes_nul": 106, "votes_blancs": 54, "total_votes_valide": 3414, "total_votes": 3574, "id": 302, "POP": 17164, "chair": 18, "state": "extended", "area": 103.3 },
{ "NAME_EN": "hebira", "gouv_name": "Mahdia", "NAME_AR": "هبيرة", "GOV_EN": "Mahdia", "GOV_AR": "المهدية", "allreg_male_sum": 2618, "allreg_female_sum": 2419, "reg_18_35": 1288, "reg_36_40": 508, "reg_41_60": 2094, "reg_p_60": 1147, "allreg_sum": 5037, "total_inscrits": 5037, "votes_nul": 195, "votes_blancs": 64, "total_votes_valide": 1924, "total_votes": 2183, "id": 345, "POP": 10654, "chair": 18, "state": "extended", "area": 315.67 },
{ "NAME_EN": "chorbane", "gouv_name": "Mahdia", "NAME_AR": "شربان", "GOV_EN": "Mahdia", "GOV_AR": "المهدية", "allreg_male_sum": 6482, "allreg_female_sum": 4913, "reg_18_35": 3478, "reg_36_40": 1198, "reg_41_60": 4413, "reg_p_60": 2306, "allreg_sum": 11395, "total_inscrits": 11395, "votes_nul": 296, "votes_blancs": 110, "total_votes_valide": 4272, "total_votes": 4678, "id": 248, "POP": 25935, "chair": 24, "state": "extended", "area": 444.32 },
{ "NAME_EN": "sidi zid", "gouv_name": "Mahdia", "NAME_AR": "سيدي زيد - أولاد مولاهم", "GOV_EN": "Mahdia", "GOV_AR": "المهدية", "allreg_male_sum": 5030, "allreg_female_sum": 3170, "reg_18_35": 3082, "reg_36_40": 960, "reg_41_60": 2731, "reg_p_60": 1427, "allreg_sum": 8200, "total_inscrits": 8200, "votes_nul": 148, "votes_blancs": 81, "total_votes_valide": 4275, "total_votes": 4504, "id": 239, "POP": 21100, "chair": 18, "state": "new", "area": 148.3 },
{ "NAME_EN": "ouled chamekh", "gouv_name": "Mahdia", "NAME_AR": "أولاد شامخ", "GOV_EN": "Mahdia", "GOV_AR": "المهدية", "allreg_male_sum": 5090, "allreg_female_sum": 4616, "reg_18_35": 3321, "reg_36_40": 1083, "reg_41_60": 3299, "reg_p_60": 2003, "allreg_sum": 9706, "total_inscrits": 9706, "votes_nul": 236, "votes_blancs": 80, "total_votes_valide": 3927, "total_votes": 4243, "id": 110, "POP": 23020, "chair": 18, "state": "extended", "area": 357.6 },
{ "NAME_EN": "sidi alouane", "gouv_name": "Mahdia", "NAME_AR": "سيدي علوان", "GOV_EN": "Mahdia", "GOV_AR": "المهدية", "allreg_male_sum": 5655, "allreg_female_sum": 5031, "reg_18_35": 3602, "reg_36_40": 1168, "reg_41_60": 3987, "reg_p_60": 1929, "allreg_sum": 10686, "total_inscrits": 10678, "votes_nul": 178, "votes_blancs": 117, "total_votes_valide": 2430, "total_votes": 2725, "id": 241, "POP": 25746, "chair": 24, "state": "extended", "area": 444.32 },
{ "NAME_EN": "ksour essaf", "gouv_name": "Mahdia", "NAME_AR": "قصور الساف", "GOV_EN": "Mahdia", "GOV_AR": "المهدية", "allreg_male_sum": 8378, "allreg_female_sum": 7385, "reg_18_35": 5599, "reg_36_40": 1563, "reg_41_60": 5718, "reg_p_60": 2883, "allreg_sum": 15763, "total_inscrits": 15764, "votes_nul": 91, "votes_blancs": 93, "total_votes_valide": 5848, "total_votes": 6032, "id": 163, "POP": 33960, "chair": 24, "state": "extended", "area": 111.47 },
{ "NAME_EN": "melloulech", "gouv_name": "Mahdia", "NAME_AR": "ملولش", "GOV_EN": "Mahdia", "GOV_AR": "المهدية", "allreg_male_sum": 5348, "allreg_female_sum": 4308, "reg_18_35": 3663, "reg_36_40": 1080, "reg_41_60": 3293, "reg_p_60": 1620, "allreg_sum": 9656, "total_inscrits": 9656, "votes_nul": 137, "votes_blancs": 54, "total_votes_valide": 2463, "total_votes": 2654, "id": 320, "POP": 22085, "chair": 18, "state": "extended", "area": 160.31 },
{ "NAME_EN": "el djem", "gouv_name": "Mahdia", "NAME_AR": "الجم", "GOV_EN": "Mahdia", "GOV_AR": "المهدية", "allreg_male_sum": 7012, "allreg_female_sum": 4681, "reg_18_35": 3948, "reg_36_40": 1372, "reg_41_60": 4367, "reg_p_60": 2006, "allreg_sum": 11693, "total_inscrits": 11693, "votes_nul": 164, "votes_blancs": 120, "total_votes_valide": 4738, "total_votes": 5022, "id": 14, "POP": 33866, "chair": 24, "state": "extended", "area": 167.3 },
{ "NAME_EN": "er-rouhia", "gouv_name": "Siliana", "NAME_AR": "الروحية", "GOV_EN": "Siliana", "GOV_AR": "سليانة", "allreg_male_sum": 4243, "allreg_female_sum": 3572, "reg_18_35": 2439, "reg_36_40": 832, "reg_41_60": 2971, "reg_p_60": 1573, "allreg_sum": 7815, "total_inscrits": 7749, "votes_nul": 332, "votes_blancs": 86, "total_votes_valide": 3274, "total_votes": 3692, "id": 31, "POP": 14740, "chair": 18, "state": "extended", "area": 281.71 },
{ "NAME_EN": "el hababsa", "gouv_name": "Siliana", "NAME_AR": "الحبابسة", "GOV_EN": "Siliana", "GOV_AR": "سليانة", "allreg_male_sum": 1631, "allreg_female_sum": 1062, "reg_18_35": 757, "reg_36_40": 282, "reg_41_60": 1021, "reg_p_60": 633, "allreg_sum": 2693, "total_inscrits": 2680, "votes_nul": 108, "votes_blancs": 19, "total_votes_valide": 810, "total_votes": 937, "id": 17, "POP": 11211, "chair": 18, "state": "new", "area": 379.835 },
{ "NAME_EN": "gâafour", "gouv_name": "Siliana", "NAME_AR": "قعفور", "GOV_EN": "Siliana", "GOV_AR": "سليانة", "allreg_male_sum": 4714, "allreg_female_sum": 4379, "reg_18_35": 2482, "reg_36_40": 850, "reg_41_60": 3474, "reg_p_60": 2287, "allreg_sum": 9093, "total_inscrits": 8989, "votes_nul": 205, "votes_blancs": 74, "total_votes_valide": 2927, "total_votes": 3206, "id": 296, "POP": 16934, "chair": 18, "state": "extended", "area": 460.76 },
{ "NAME_EN": "bouarada", "gouv_name": "Siliana", "NAME_AR": "بوعرادة", "GOV_EN": "Siliana", "GOV_AR": "سليانة", "allreg_male_sum": 5180, "allreg_female_sum": 4465, "reg_18_35": 2757, "reg_36_40": 1012, "reg_41_60": 3605, "reg_p_60": 2271, "allreg_sum": 9645, "total_inscrits": 9568, "votes_nul": 170, "votes_blancs": 84, "total_votes_valide": 3143, "total_votes": 3397, "id": 139, "POP": 20444, "chair": 18, "state": "extended", "area": 376.49 },
{ "NAME_EN": "el aroussa", "gouv_name": "Siliana", "NAME_AR": "العروسة", "GOV_EN": "Siliana", "GOV_AR": "سليانة", "allreg_male_sum": 2659, "allreg_female_sum": 2166, "reg_18_35": 1373, "reg_36_40": 469, "reg_41_60": 1801, "reg_p_60": 1182, "allreg_sum": 4825, "total_inscrits": 4777, "votes_nul": 76, "votes_blancs": 32, "total_votes_valide": 1980, "total_votes": 2088, "id": 55, "POP": 9907, "chair": 12, "state": "extended", "area": 360.34 },
{ "NAME_EN": "bourouis", "gouv_name": "Siliana", "NAME_AR": "بورويس", "GOV_EN": "Siliana", "GOV_AR": "سليانة", "allreg_male_sum": 3565, "allreg_female_sum": 3154, "reg_18_35": 1869, "reg_36_40": 645, "reg_41_60": 2449, "reg_p_60": 1756, "allreg_sum": 6719, "total_inscrits": 6659, "votes_nul": 136, "votes_blancs": 130, "total_votes_valide": 2823, "total_votes": 3089, "id": 135, "POP": 12618, "chair": 18, "state": "extended", "area": 274.2 },
{ "NAME_EN": "el krib", "gouv_name": "Siliana", "NAME_AR": "الكريب", "GOV_EN": "Siliana", "GOV_AR": "سليانة", "allreg_male_sum": 5348, "allreg_female_sum": 4373, "reg_18_35": 2848, "reg_36_40": 931, "reg_41_60": 3598, "reg_p_60": 2344, "allreg_sum": 9721, "total_inscrits": 9651, "votes_nul": 239, "votes_blancs": 96, "total_votes_valide": 4722, "total_votes": 5057, "id": 78, "POP": 20155, "chair": 18, "state": "extended", "area": 424.01 },
{ "NAME_EN": "Siliana", "gouv_name": "Siliana", "NAME_AR": "سليانة", "GOV_EN": "Siliana", "GOV_AR": "سليانة", "allreg_male_sum": 12226, "allreg_female_sum": 10955, "reg_18_35": 7307, "reg_36_40": 2575, "reg_41_60": 8970, "reg_p_60": 4329, "allreg_sum": 23181, "total_inscrits": 22943, "votes_nul": 306, "votes_blancs": 130, "total_votes_valide": 6561, "total_votes": 6997, "id": 224, "POP": 44736, "chair": 24, "state": "extended", "area": 546.02 },
{ "NAME_EN": "sidi morched", "gouv_name": "Siliana", "NAME_AR": "سيدي مرشد", "GOV_EN": "Siliana", "GOV_AR": "سليانة", "allreg_male_sum": 3941, "allreg_female_sum": 3471, "reg_18_35": 2351, "reg_36_40": 782, "reg_41_60": 2604, "reg_p_60": 1675, "allreg_sum": 7412, "total_inscrits": 7352, "votes_nul": 161, "votes_blancs": 50, "total_votes_valide": 2077, "total_votes": 2288, "id": 245, "POP": 14404, "chair": 18, "state": "new", "area": 332.807 },
{ "NAME_EN": "makthar", "gouv_name": "Siliana", "NAME_AR": "مكثر", "GOV_EN": "Siliana", "GOV_AR": "سليانة", "allreg_male_sum": 7306, "allreg_female_sum": 5720, "reg_18_35": 4225, "reg_36_40": 1351, "reg_41_60": 4773, "reg_p_60": 2677, "allreg_sum": 13026, "total_inscrits": 12892, "votes_nul": 195, "votes_blancs": 132, "total_votes_valide": 4271, "total_votes": 4598, "id": 319, "POP": 29052, "chair": 24, "state": "extended", "area": 347.04 },
{ "NAME_EN": "bargou", "gouv_name": "Siliana", "NAME_AR": "برقو", "GOV_EN": "Siliana", "GOV_AR": "سليانة", "allreg_male_sum": 3760, "allreg_female_sum": 3074, "reg_18_35": 2018, "reg_36_40": 703, "reg_41_60": 2486, "reg_p_60": 1627, "allreg_sum": 6834, "total_inscrits": 6758, "votes_nul": 160, "votes_blancs": 43, "total_votes_valide": 2971, "total_votes": 3174, "id": 115, "POP": 12482, "chair": 18, "state": "extended", "area": 457.56 },
{ "NAME_EN": "kesra", "gouv_name": "Siliana", "NAME_AR": "كسرى", "GOV_EN": "Siliana", "GOV_AR": "سليانة", "allreg_male_sum": 4390, "allreg_female_sum": 3531, "reg_18_35": 2739, "reg_36_40": 823, "reg_41_60": 2701, "reg_p_60": 1658, "allreg_sum": 7921, "total_inscrits": 7794, "votes_nul": 207, "votes_blancs": 72, "total_votes_valide": 2423, "total_votes": 2702, "id": 303, "POP": 16404, "chair": 18, "state": "extended", "area": 439.15 },
{ "NAME_EN": "tazaghrane", "gouv_name": "Nabeul", "NAME_AR": "تزغران - زاوية المقايز", "GOV_EN": "Nabeul", "GOV_AR": "نابل", "allreg_male_sum": 4628, "allreg_female_sum": 3766, "reg_18_35": 2930, "reg_36_40": 929, "reg_41_60": 2878, "reg_p_60": 1657, "allreg_sum": 8394, "total_inscrits": 8277, "votes_nul": 196, "votes_blancs": 101, "total_votes_valide": 3791, "total_votes": 4088, "id": 153, "POP": 15322, "chair": 18, "state": "new", "area": 173.6 },
{ "NAME_EN": "el haouaria", "gouv_name": "Nabeul", "NAME_AR": "الهوارية", "GOV_EN": "Nabeul", "GOV_AR": "نابل", "allreg_male_sum": 7454, "allreg_female_sum": 6344, "reg_18_35": 4281, "reg_36_40": 1492, "reg_41_60": 5132, "reg_p_60": 2893, "allreg_sum": 13798, "total_inscrits": 13798, "votes_nul": 192, "votes_blancs": 101, "total_votes_valide": 3894, "total_votes": 4187, "id": 104, "POP": 25995, "chair": 24, "state": "extended", "area": 136.3 },
{ "NAME_EN": "azmour", "gouv_name": "Nabeul", "NAME_AR": "أزمور", "GOV_EN": "Nabeul", "GOV_AR": "نابل", "allreg_male_sum": 2120, "allreg_female_sum": 1713, "reg_18_35": 1232, "reg_36_40": 419, "reg_41_60": 1430, "reg_p_60": 752, "allreg_sum": 3833, "total_inscrits": 3822, "votes_nul": 47, "votes_blancs": 40, "total_votes_valide": 1540, "total_votes": 1627, "id": 3, "POP": 10835, "chair": 18, "state": "extended", "area": 91.03 },
{ "NAME_EN": "hammam el guezaz", "gouv_name": "Nabeul", "NAME_AR": "حمام الغزاز", "GOV_EN": "Nabeul", "GOV_AR": "نابل", "allreg_male_sum": 2553, "allreg_female_sum": 2478, "reg_18_35": 1739, "reg_36_40": 508, "reg_41_60": 1891, "reg_p_60": 893, "allreg_sum": 5031, "total_inscrits": 5031, "votes_nul": 69, "votes_blancs": 43, "total_votes_valide": 2219, "total_votes": 2331, "id": 185, "POP": 9545, "chair": 12, "state": "extended", "area": 33.6 },
{ "NAME_EN": "menzel horr", "gouv_name": "Nabeul", "NAME_AR": "منزل حر", "GOV_EN": "Nabeul", "GOV_AR": "نابل", "allreg_male_sum": 2047, "allreg_female_sum": 1780, "reg_18_35": 1294, "reg_36_40": 396, "reg_41_60": 1390, "reg_p_60": 747, "allreg_sum": 3827, "total_inscrits": 3827, "votes_nul": 73, "votes_blancs": 33, "total_votes_valide": 1702, "total_votes": 1808, "id": 329, "POP": 16425, "chair": 18, "state": "extended", "area": 129.53 },
{ "NAME_EN": "takelsa", "gouv_name": "Nabeul", "NAME_AR": "تاكلسة", "GOV_EN": "Nabeul", "GOV_AR": "نابل", "allreg_male_sum": 6924, "allreg_female_sum": 6089, "reg_18_35": 4334, "reg_36_40": 1481, "reg_41_60": 4679, "reg_p_60": 2519, "allreg_sum": 13013, "total_inscrits": 13013, "votes_nul": 246, "votes_blancs": 74, "total_votes_valide": 5562, "total_votes": 5882, "id": 150, "POP": 22151, "chair": 18, "state": "old", "area": 278.4 },
{ "NAME_EN": "menzel bou zelfa", "gouv_name": "Nabeul", "NAME_AR": "منزل بوزلفة", "GOV_EN": "Nabeul", "GOV_AR": "نابل", "allreg_male_sum": 10650, "allreg_female_sum": 10386, "reg_18_35": 6781, "reg_36_40": 2230, "reg_41_60": 7871, "reg_p_60": 4154, "allreg_sum": 21036, "total_inscrits": 21036, "votes_nul": 244, "votes_blancs": 154, "total_votes_valide": 6337, "total_votes": 6735, "id": 326, "POP": 37860, "chair": 24, "state": "extended", "area": 132.36 },
{ "NAME_EN": "el mida", "gouv_name": "Nabeul", "NAME_AR": "الميدة", "GOV_EN": "Nabeul", "GOV_AR": "نابل", "allreg_male_sum": 6598, "allreg_female_sum": 6477, "reg_18_35": 4521, "reg_36_40": 1470, "reg_41_60": 4653, "reg_p_60": 2431, "allreg_sum": 13075, "total_inscrits": 12970, "votes_nul": 209, "votes_blancs": 92, "total_votes_valide": 4670, "total_votes": 4971, "id": 97, "POP": 26995, "chair": 24, "state": "extended", "area": 155.19 },
{ "NAME_EN": "soliman", "gouv_name": "Nabeul", "NAME_AR": "سليمان", "GOV_EN": "Nabeul", "GOV_AR": "نابل", "allreg_male_sum": 9720, "allreg_female_sum": 9168, "reg_18_35": 6233, "reg_36_40": 2034, "reg_41_60": 7308, "reg_p_60": 3313, "allreg_sum": 18888, "total_inscrits": 18888, "votes_nul": 272, "votes_blancs": 136, "total_votes_valide": 9045, "total_votes": 9453, "id": 225, "POP": 37749, "chair": 24, "state": "extended", "area": 49.0 },
{ "NAME_EN": "bou argoub", "gouv_name": "Nabeul", "NAME_AR": "بوعرقوب", "GOV_EN": "Nabeul", "GOV_AR": "نابل", "allreg_male_sum": 8626, "allreg_female_sum": 7544, "reg_18_35": 5274, "reg_36_40": 1751, "reg_41_60": 6164, "reg_p_60": 2981, "allreg_sum": 16170, "total_inscrits": 16170, "votes_nul": 266, "votes_blancs": 99, "total_votes_valide": 5526, "total_votes": 5891, "id": 140, "POP": 30942, "chair": 24, "state": "extended", "area": 131.53 },
{ "NAME_EN": "beni khalled", "gouv_name": "Nabeul", "NAME_AR": "بني خلاد", "GOV_EN": "Nabeul", "GOV_AR": "نابل", "allreg_male_sum": 7526, "allreg_female_sum": 7003, "reg_18_35": 4802, "reg_36_40": 1467, "reg_41_60": 5593, "reg_p_60": 2667, "allreg_sum": 14529, "total_inscrits": 14529, "votes_nul": 189, "votes_blancs": 77, "total_votes_valide": 4514, "total_votes": 4780, "id": 128, "POP": 26135, "chair": 24, "state": "extended", "area": 77.33 },
{ "NAME_EN": "korba", "gouv_name": "Nabeul", "NAME_AR": "قربة", "GOV_EN": "Nabeul", "GOV_AR": "نابل", "allreg_male_sum": 13488, "allreg_female_sum": 11443, "reg_18_35": 7636, "reg_36_40": 2594, "reg_41_60": 10038, "reg_p_60": 4663, "allreg_sum": 24931, "total_inscrits": 24931, "votes_nul": 303, "votes_blancs": 163, "total_votes_valide": 9215, "total_votes": 9681, "id": 287, "POP": 59578, "chair": 30, "state": "extended", "area": 186.4 },
{ "NAME_EN": "dar châabane", "gouv_name": "Nabeul", "NAME_AR": "دار شعبان", "GOV_EN": "Nabeul", "GOV_AR": "نابل", "allreg_male_sum": 11973, "allreg_female_sum": 11595, "reg_18_35": 7816, "reg_36_40": 2523, "reg_41_60": 9283, "reg_p_60": 3946, "allreg_sum": 23568, "total_inscrits": 23512, "votes_nul": 296, "votes_blancs": 175, "total_votes_valide": 9290, "total_votes": 9761, "id": 191, "POP": 46781, "chair": 24, "state": "extended", "area": 69.34 },
{ "NAME_EN": "el mâamoura", "gouv_name": "Nabeul", "NAME_AR": "المعمورة", "GOV_EN": "Nabeul", "GOV_AR": "نابل", "allreg_male_sum": 2460, "allreg_female_sum": 2227, "reg_18_35": 1553, "reg_36_40": 566, "reg_41_60": 1702, "reg_p_60": 866, "allreg_sum": 4687, "total_inscrits": 4687, "votes_nul": 67, "votes_blancs": 42, "total_votes_valide": 3014, "total_votes": 3123, "id": 90, "POP": 10994, "chair": 18, "state": "extended", "area": 23.18 },
{ "NAME_EN": "tazerka", "gouv_name": "Nabeul", "NAME_AR": "تازركة", "GOV_EN": "Nabeul", "GOV_AR": "نابل", "allreg_male_sum": 2710, "allreg_female_sum": 2675, "reg_18_35": 1797, "reg_36_40": 529, "reg_41_60": 2086, "reg_p_60": 973, "allreg_sum": 5385, "total_inscrits": 5385, "votes_nul": 103, "votes_blancs": 60, "total_votes_valide": 3009, "total_votes": 3172, "id": 149, "POP": 9388, "chair": 12, "state": "old", "area": 19.49 },
{ "NAME_EN": "beni khiar", "gouv_name": "Nabeul", "NAME_AR": "بني خيار", "GOV_EN": "Nabeul", "GOV_AR": "نابل", "allreg_male_sum": 6844, "allreg_female_sum": 6746, "reg_18_35": 4333, "reg_36_40": 1512, "reg_41_60": 5406, "reg_p_60": 2339, "allreg_sum": 13590, "total_inscrits": 13548, "votes_nul": 211, "votes_blancs": 153, "total_votes_valide": 6273, "total_votes": 6637, "id": 129, "POP": 23640, "chair": 18, "state": "extended", "area": 32.77 },
{ "NAME_EN": "hammamet", "gouv_name": "Nabeul", "NAME_AR": "الحمامات", "GOV_EN": "Nabeul", "GOV_AR": "نابل", "allreg_male_sum": 24273, "allreg_female_sum": 18989, "reg_18_35": 13848, "reg_36_40": 5295, "reg_41_60": 17366, "reg_p_60": 6753, "allreg_sum": 43262, "total_inscrits": 43262, "votes_nul": 408, "votes_blancs": 229, "total_votes_valide": 14571, "total_votes": 15208, "id": 21, "POP": 83633, "chair": 30, "state": "extended", "area": 131.752 },
{ "NAME_EN": "Nabeul", "gouv_name": "Nabeul", "NAME_AR": "نابل", "GOV_EN": "Nabeul", "GOV_AR": "نابل", "allreg_male_sum": 21185, "allreg_female_sum": 20738, "reg_18_35": 13397, "reg_36_40": 4448, "reg_41_60": 16100, "reg_p_60": 7978, "allreg_sum": 41923, "total_inscrits": 41924, "votes_nul": 494, "votes_blancs": 327, "total_votes_valide": 16466, "total_votes": 17287, "id": 339, "POP": 73128, "chair": 30, "state": "extended", "area": 72.64 },
{ "NAME_EN": "zaouiet djedidi", "gouv_name": "Nabeul", "NAME_AR": "زاوية الجديدي", "GOV_EN": "Nabeul", "GOV_AR": "نابل", "allreg_male_sum": 3007, "allreg_female_sum": 3007, "reg_18_35": 1930, "reg_36_40": 603, "reg_41_60": 2290, "reg_p_60": 1191, "allreg_sum": 6014, "total_inscrits": 6014, "votes_nul": 120, "votes_blancs": 44, "total_votes_valide": 2851, "total_votes": 3015, "id": 208, "POP": 11829, "chair": 18, "state": "extended", "area": 39.16 },
{ "NAME_EN": "dar allouch", "gouv_name": "Nabeul", "NAME_AR": "دار علوش", "GOV_EN": "Nabeul", "GOV_AR": "نابل", "allreg_male_sum": 2157, "allreg_female_sum": 1602, "reg_18_35": 1230, "reg_36_40": 422, "reg_41_60": 1379, "reg_p_60": 728, "allreg_sum": 3759, "total_inscrits": 3759, "votes_nul": 83, "votes_blancs": 20, "total_votes_valide": 2459, "total_votes": 2562, "id": 192, "POP": 6182, "chair": 12, "state": "extended", "area": 102.7 },
{ "NAME_EN": "menzel temim", "gouv_name": "Nabeul", "NAME_AR": "منزل تميم", "GOV_EN": "Nabeul", "GOV_AR": "نابل", "allreg_male_sum": 13271, "allreg_female_sum": 12593, "reg_18_35": 8356, "reg_36_40": 2864, "reg_41_60": 9666, "reg_p_60": 4978, "allreg_sum": 25864, "total_inscrits": 25864, "votes_nul": 239, "votes_blancs": 172, "total_votes_valide": 7687, "total_votes": 8098, "id": 328, "POP": 49220, "chair": 24, "state": "extended", "area": 130.36 },
{ "NAME_EN": "bou charray ech-cherifet", "gouv_name": "Nabeul", "NAME_AR": "الشريفات - بوشراي", "GOV_EN": "Nabeul", "GOV_AR": "نابل", "allreg_male_sum": 3034, "allreg_female_sum": 2508, "reg_18_35": 1967, "reg_36_40": 577, "reg_41_60": 2033, "reg_p_60": 965, "allreg_sum": 5542, "total_inscrits": 5542, "votes_nul": 146, "votes_blancs": 32, "total_votes_valide": 2970, "total_votes": 3148, "id": 48, "POP": 12210, "chair": 18, "state": "new", "area": 44.1 },
{ "NAME_EN": "fondouk djedid", "gouv_name": "Nabeul", "NAME_AR": "فندق الجديد - سلتان", "GOV_EN": "Nabeul", "GOV_AR": "نابل", "allreg_male_sum": 5879, "allreg_female_sum": 5175, "reg_18_35": 3723, "reg_36_40": 1161, "reg_41_60": 4380, "reg_p_60": 1790, "allreg_sum": 11054, "total_inscrits": 11054, "votes_nul": 210, "votes_blancs": 66, "total_votes_valide": 4565, "total_votes": 4841, "id": 281, "POP": 23471, "chair": 18, "state": "new", "area": 123.7 },
{ "NAME_EN": "kelibia", "gouv_name": "Nabeul", "NAME_AR": "قليبية", "GOV_EN": "Nabeul", "GOV_AR": "نابل", "allreg_male_sum": 12870, "allreg_female_sum": 11752, "reg_18_35": 8021, "reg_36_40": 2554, "reg_41_60": 9433, "reg_p_60": 4614, "allreg_sum": 24622, "total_inscrits": 24622, "votes_nul": 231, "votes_blancs": 120, "total_votes_valide": 9544, "total_votes": 9895, "id": 300, "POP": 47656, "chair": 24, "state": "extended", "area": 34.33 },
{ "NAME_EN": "korbus", "gouv_name": "Nabeul", "NAME_AR": "قربص", "GOV_EN": "Nabeul", "GOV_AR": "نابل", "allreg_male_sum": 1028, "allreg_female_sum": 938, "reg_18_35": 585, "reg_36_40": 191, "reg_41_60": 789, "reg_p_60": 401, "allreg_sum": 1966, "total_inscrits": 1966, "votes_nul": 39, "votes_blancs": 19, "total_votes_valide": 1179, "total_votes": 1237, "id": 288, "POP": 3532, "chair": 12, "state": "old", "area": 49.15 },
{ "NAME_EN": "sidi djedidi", "gouv_name": "Nabeul", "NAME_AR": "سيدي الجديدي", "GOV_EN": "Nabeul", "GOV_AR": "نابل", "allreg_male_sum": 3221, "allreg_female_sum": 2262, "reg_18_35": 1728, "reg_36_40": 647, "reg_41_60": 2106, "reg_p_60": 1002, "allreg_sum": 5483, "total_inscrits": 5483, "votes_nul": 86, "votes_blancs": 54, "total_votes_valide": 1896, "total_votes": 2036, "id": 230, "POP": 14222, "chair": 18, "state": "new", "area": 190.347 },
{ "NAME_EN": "grombalia", "gouv_name": "Nabeul", "NAME_AR": "قرمبالية", "GOV_EN": "Nabeul", "GOV_AR": "نابل", "allreg_male_sum": 12524, "allreg_female_sum": 10984, "reg_18_35": 7901, "reg_36_40": 2681, "reg_41_60": 8842, "reg_p_60": 4084, "allreg_sum": 23508, "total_inscrits": 23508, "votes_nul": 275, "votes_blancs": 174, "total_votes_valide": 7787, "total_votes": 8236, "id": 291, "POP": 44004, "chair": 24, "state": "extended", "area": 173.5 },
{ "NAME_EN": "somâa", "gouv_name": "Nabeul", "NAME_AR": "الصمعة", "GOV_EN": "Nabeul", "GOV_AR": "نابل", "allreg_male_sum": 2428, "allreg_female_sum": 2206, "reg_18_35": 1450, "reg_36_40": 496, "reg_41_60": 1894, "reg_p_60": 794, "allreg_sum": 4634, "total_inscrits": 4634, "votes_nul": 94, "votes_blancs": 45, "total_votes_valide": 2577, "total_votes": 2716, "id": 51, "POP": 8498, "chair": 12, "state": "extended", "area": 50.37 },
{ "NAME_EN": "nefza", "gouv_name": "Beja", "NAME_AR": "نفزة", "GOV_EN": "Beja", "GOV_AR": "باجة", "allreg_male_sum": 7993, "allreg_female_sum": 7866, "reg_18_35": 4587, "reg_36_40": 1534, "reg_41_60": 5768, "reg_p_60": 3970, "allreg_sum": 15859, "total_inscrits": 15663, "votes_nul": 428, "votes_blancs": 153, "total_votes_valide": 5816, "total_votes": 6397, "id": 343, "POP": 29156, "chair": 24, "state": "extended", "area": 317.3 },
{ "NAME_EN": "ouachtata", "gouv_name": "Beja", "NAME_AR": "وشتاتة - الجميلة", "GOV_EN": "Beja", "GOV_AR": "باجة", "allreg_male_sum": 6293, "allreg_female_sum": 5532, "reg_18_35": 3219, "reg_36_40": 1196, "reg_41_60": 4349, "reg_p_60": 3061, "allreg_sum": 11825, "total_inscrits": 11702, "votes_nul": 38, "votes_blancs": 70, "total_votes_valide": 3789, "total_votes": 3897, "id": 350, "POP": 21942, "chair": 18, "state": "new", "area": 275.2 },
{ "NAME_EN": "zahret medien", "gouv_name": "Beja", "NAME_AR": "زهرة مدين", "GOV_EN": "Beja", "GOV_AR": "باجة", "allreg_male_sum": 5513, "allreg_female_sum": 4575, "reg_18_35": 2620, "reg_36_40": 1023, "reg_41_60": 3865, "reg_p_60": 2580, "allreg_sum": 10088, "total_inscrits": 9975, "votes_nul": 258, "votes_blancs": 64, "total_votes_valide": 2946, "total_votes": 3268, "id": 214, "POP": 21187, "chair": 18, "state": "extended", "area": 238.17 },
{ "NAME_EN": "Beja", "gouv_name": "Beja", "NAME_AR": "باجة", "GOV_EN": "Beja", "GOV_AR": "باجة", "allreg_male_sum": 21649, "allreg_female_sum": 20440, "reg_18_35": 11655, "reg_36_40": 3972, "reg_41_60": 16722, "reg_p_60": 9740, "allreg_sum": 42089, "total_inscrits": 41646, "votes_nul": 586, "votes_blancs": 314, "total_votes_valide": 10489, "total_votes": 11389, "id": 111, "POP": 83780, "chair": 30, "state": "extended", "area": 49.98 },
{ "NAME_EN": "el mâagoula", "gouv_name": "Beja", "NAME_AR": "المعقولة", "GOV_EN": "Beja", "GOV_AR": "باجة", "allreg_male_sum": 3546, "allreg_female_sum": 3301, "reg_18_35": 1971, "reg_36_40": 707, "reg_41_60": 2567, "reg_p_60": 1602, "allreg_sum": 6847, "total_inscrits": 6848, "votes_nul": 158, "votes_blancs": 79, "total_votes_valide": 1890, "total_votes": 2127, "id": 89, "POP": 15554, "chair": 18, "state": "extended", "area": 213.61 },
{ "NAME_EN": "sidi smaîl", "gouv_name": "Beja", "NAME_AR": "سيدي إسماعيل", "GOV_EN": "Beja", "GOV_AR": "باجة", "allreg_male_sum": 2317, "allreg_female_sum": 1413, "reg_18_35": 1080, "reg_36_40": 458, "reg_41_60": 1366, "reg_p_60": 826, "allreg_sum": 3730, "total_inscrits": 3730, "votes_nul": 122, "votes_blancs": 19, "total_votes_valide": 1359, "total_votes": 1500, "id": 229, "POP": 9965, "chair": 12, "state": "new", "area": 148.16 },
{ "NAME_EN": "testour", "gouv_name": "Beja", "NAME_AR": "تستور", "GOV_EN": "Beja", "GOV_AR": "باجة", "allreg_male_sum": 7142, "allreg_female_sum": 6542, "reg_18_35": 4061, "reg_36_40": 1407, "reg_41_60": 5195, "reg_p_60": 3021, "allreg_sum": 13684, "total_inscrits": 13521, "votes_nul": 220, "votes_blancs": 127, "total_votes_valide": 4698, "total_votes": 5045, "id": 154, "POP": 27540, "chair": 24, "state": "extended", "area": 558.32 },
{ "NAME_EN": "medjez el bab", "gouv_name": "Beja", "NAME_AR": "مجاز الباب", "GOV_EN": "Beja", "GOV_AR": "باجة", "allreg_male_sum": 9593, "allreg_female_sum": 8743, "reg_18_35": 5134, "reg_36_40": 1846, "reg_41_60": 7346, "reg_p_60": 4010, "allreg_sum": 18336, "total_inscrits": 18118, "votes_nul": 191, "votes_blancs": 97, "total_votes_valide": 6024, "total_votes": 6312, "id": 311, "POP": 41749, "chair": 24, "state": "extended", "area": 459.74 },
{ "NAME_EN": "goubellat", "gouv_name": "Beja", "NAME_AR": "قبلاط", "GOV_EN": "Beja", "GOV_AR": "باجة", "allreg_male_sum": 3208, "allreg_female_sum": 2397, "reg_18_35": 1661, "reg_36_40": 607, "reg_41_60": 1978, "reg_p_60": 1359, "allreg_sum": 5605, "total_inscrits": 5579, "votes_nul": 67, "votes_blancs": 72, "total_votes_valide": 1293, "total_votes": 1432, "id": 285, "POP": 15762, "chair": 18, "state": "extended", "area": 415.29 },
{ "NAME_EN": "es-slouguia", "gouv_name": "Beja", "NAME_AR": "السلوقية", "GOV_EN": "Beja", "GOV_AR": "باجة", "allreg_male_sum": 1683, "allreg_female_sum": 1489, "reg_18_35": 1025, "reg_36_40": 353, "reg_41_60": 1200, "reg_p_60": 594, "allreg_sum": 3172, "total_inscrits": 3172, "votes_nul": 30, "votes_blancs": 31, "total_votes_valide": 1351, "total_votes": 1412, "id": 40, "POP": 6073, "chair": 12, "state": "new", "area": 83.878 },
{ "NAME_EN": "tibar", "gouv_name": "Beja", "NAME_AR": "تيبار", "GOV_EN": "Beja", "GOV_AR": "باجة", "allreg_male_sum": 2833, "allreg_female_sum": 2496, "reg_18_35": 1301, "reg_36_40": 553, "reg_41_60": 1981, "reg_p_60": 1494, "allreg_sum": 5329, "total_inscrits": 5281, "votes_nul": 134, "votes_blancs": 33, "total_votes_valide": 1319, "total_votes": 1486, "id": 161, "POP": 11206, "chair": 18, "state": "new", "area": 114.33 },
{ "NAME_EN": "teboursouk", "gouv_name": "Beja", "NAME_AR": "تبرسق", "GOV_EN": "Beja", "GOV_AR": "باجة", "allreg_male_sum": 5717, "allreg_female_sum": 4581, "reg_18_35": 2781, "reg_36_40": 935, "reg_41_60": 4054, "reg_p_60": 2528, "allreg_sum": 10298, "total_inscrits": 10219, "votes_nul": 276, "votes_blancs": 70, "total_votes_valide": 3011, "total_votes": 3357, "id": 152, "POP": 22115, "chair": 18, "state": "extended", "area": 395.14 },
{ "NAME_EN": "sidi bou ali", "gouv_name": "Sousse", "NAME_AR": "سيدي بوعلي", "GOV_EN": "Sousse", "GOV_AR": "سوسة", "allreg_male_sum": 5052, "allreg_female_sum": 4426, "reg_18_35": 3166, "reg_36_40": 1076, "reg_41_60": 3637, "reg_p_60": 1599, "allreg_sum": 9478, "total_inscrits": 9478, "votes_nul": 159, "votes_blancs": 72, "total_votes_valide": 4601, "total_votes": 4832, "id": 234, "POP": 19693, "chair": 18, "state": "extended", "area": 129.47 },
{ "NAME_EN": "kalâa kebira", "gouv_name": "Sousse", "NAME_AR": "القلعة الكبرى", "GOV_EN": "Sousse", "GOV_AR": "سوسة", "allreg_male_sum": 12818, "allreg_female_sum": 9853, "reg_18_35": 7782, "reg_36_40": 2823, "reg_41_60": 8580, "reg_p_60": 3486, "allreg_sum": 22671, "total_inscrits": 22671, "votes_nul": 276, "votes_blancs": 123, "total_votes_valide": 8257, "total_votes": 8656, "id": 73, "POP": 59132, "chair": 30, "state": "extended", "area": 238.3 },
{ "NAME_EN": "sidi el heni", "gouv_name": "Sousse", "NAME_AR": "سيدي الهاني", "GOV_EN": "Sousse", "GOV_AR": "سوسة", "allreg_male_sum": 3201, "allreg_female_sum": 2500, "reg_18_35": 2088, "reg_36_40": 584, "reg_41_60": 1990, "reg_p_60": 1039, "allreg_sum": 5701, "total_inscrits": 5701, "votes_nul": 152, "votes_blancs": 80, "total_votes_valide": 2155, "total_votes": 2387, "id": 231, "POP": 13505, "chair": 18, "state": "extended", "area": 320.77 },
{ "NAME_EN": "ezzouhour", "gouv_name": "Sousse", "NAME_AR": "الزهور", "GOV_EN": "Kasserine", "GOV_AR": "القصرين", "allreg_male_sum": 4314, "allreg_female_sum": 4347, "reg_18_35": 2922, "reg_36_40": 1092, "reg_41_60": 3178, "reg_p_60": 1469, "allreg_sum": 8661, "total_inscrits": 8661, "votes_nul": 149, "votes_blancs": 53, "total_votes_valide": 3297, "total_votes": 3499, "id": 35, "POP": 64532, "chair": 30, "state": "old", "area": 10.08 },
{ "NAME_EN": "msaken", "gouv_name": "Sousse", "NAME_AR": "مساكن", "GOV_EN": "Sousse", "GOV_AR": "سوسة", "allreg_male_sum": 18964, "allreg_female_sum": 15861, "reg_18_35": 11650, "reg_36_40": 3680, "reg_41_60": 13506, "reg_p_60": 5989, "allreg_sum": 34825, "total_inscrits": 34825, "votes_nul": 336, "votes_blancs": 183, "total_votes_valide": 11664, "total_votes": 12183, "id": 315, "POP": 84295, "chair": 30, "state": "extended", "area": 328.4 },
{ "NAME_EN": "Sousse", "gouv_name": "Sousse", "NAME_AR": "سوسة", "GOV_EN": "Sousse", "GOV_AR": "سوسة", "allreg_male_sum": 51444, "allreg_female_sum": 51300, "reg_18_35": 33748, "reg_36_40": 12243, "reg_41_60": 38737, "reg_p_60": 18016, "allreg_sum": 102744, "total_inscrits": 102744, "votes_nul": 921, "votes_blancs": 561, "total_votes_valide": 30012, "total_votes": 31494, "id": 226, "POP": 174592, "chair": 36, "state": "old", "area": 32.9 },
{ "NAME_EN": "akouda", "gouv_name": "Sousse", "NAME_AR": "أكودة", "GOV_EN": "Sousse", "GOV_AR": "سوسة", "allreg_male_sum": 6722, "allreg_female_sum": 5981, "reg_18_35": 3874, "reg_36_40": 1427, "reg_41_60": 5270, "reg_p_60": 2132, "allreg_sum": 12703, "total_inscrits": 12703, "votes_nul": 136, "votes_blancs": 87, "total_votes_valide": 5408, "total_votes": 5631, "id": 4, "POP": 27200, "chair": 24, "state": "extended", "area": 23.1 },
{ "NAME_EN": "kalâa seghira", "gouv_name": "Sousse", "NAME_AR": "القلعة الصغرى", "GOV_EN": "Sousse", "GOV_AR": "سوسة", "allreg_male_sum": 8675, "allreg_female_sum": 7775, "reg_18_35": 5293, "reg_36_40": 1864, "reg_41_60": 6598, "reg_p_60": 2695, "allreg_sum": 16450, "total_inscrits": 16450, "votes_nul": 178, "votes_blancs": 125, "total_votes_valide": 5499, "total_votes": 5802, "id": 72, "POP": 37797, "chair": 24, "state": "extended", "area": 102.49 },
{ "NAME_EN": "chott meriam", "gouv_name": "Sousse", "NAME_AR": "شط مريم", "GOV_EN": "Sousse", "GOV_AR": "سوسة", "allreg_male_sum": 1803, "allreg_female_sum": 1573, "reg_18_35": 1019, "reg_36_40": 408, "reg_41_60": 1368, "reg_p_60": 581, "allreg_sum": 3376, "total_inscrits": 3376, "votes_nul": 70, "votes_blancs": 41, "total_votes_valide": 1545, "total_votes": 1656, "id": 249, "POP": 7294, "chair": 12, "state": "new", "area": 21.6 },
{ "NAME_EN": "Messaadine", "gouv_name": "Sousse", "NAME_AR": "المسعدين", "GOV_EN": "Sousse", "GOV_AR": "سوسة", "allreg_male_sum": 2690, "allreg_female_sum": 2673, "reg_18_35": 1998, "reg_36_40": 762, "reg_41_60": 1938, "reg_p_60": 665, "allreg_sum": 5363, "total_inscrits": 5363, "votes_nul": 48, "votes_blancs": 38, "total_votes_valide": 2512, "total_votes": 2598, "id": 86, "POP": 12930, "chair": 18, "state": "old", "area": 5.69 },
{ "NAME_EN": "hammam Sousse", "gouv_name": "Sousse", "NAME_AR": "حمام سوسة", "GOV_EN": "Sousse", "GOV_AR": "سوسة", "allreg_male_sum": 13473, "allreg_female_sum": 13308, "reg_18_35": 9025, "reg_36_40": 3191, "reg_41_60": 10296, "reg_p_60": 4269, "allreg_sum": 26781, "total_inscrits": 26781, "votes_nul": 294, "votes_blancs": 179, "total_votes_valide": 10030, "total_votes": 10503, "id": 186, "POP": 42691, "chair": 24, "state": "old", "area": 17.99 },
{ "NAME_EN": "bouficha", "gouv_name": "Sousse", "NAME_AR": "بوفيشة", "GOV_EN": "Sousse", "GOV_AR": "سوسة", "allreg_male_sum": 6770, "allreg_female_sum": 5760, "reg_18_35": 3801, "reg_36_40": 1473, "reg_41_60": 4908, "reg_p_60": 2348, "allreg_sum": 12530, "total_inscrits": 12531, "votes_nul": 283, "votes_blancs": 109, "total_votes_valide": 6243, "total_votes": 6635, "id": 142, "POP": 26763, "chair": 24, "state": "extended", "area": 261.1 },
{ "NAME_EN": "zaouit Sousse", "gouv_name": "Sousse", "NAME_AR": "زاوية سوسة", "GOV_EN": "Sousse", "GOV_AR": "سوسة", "allreg_male_sum": 4567, "allreg_female_sum": 3950, "reg_18_35": 3163, "reg_36_40": 1097, "reg_41_60": 3119, "reg_p_60": 1138, "allreg_sum": 8517, "total_inscrits": 8517, "votes_nul": 217, "votes_blancs": 57, "total_votes_valide": 3285, "total_votes": 3559, "id": 209, "POP": 20992, "chair": 18, "state": "old", "area": 16.18 },
{ "NAME_EN": "ksibet thrayet", "gouv_name": "Sousse", "NAME_AR": "قصيبة - الثريات", "GOV_EN": "Sousse", "GOV_AR": "سوسة", "allreg_male_sum": 3228, "allreg_female_sum": 3009, "reg_18_35": 2097, "reg_36_40": 677, "reg_41_60": 2442, "reg_p_60": 1021, "allreg_sum": 6237, "total_inscrits": 6237, "votes_nul": 123, "votes_blancs": 42, "total_votes_valide": 3048, "total_votes": 3213, "id": 294, "POP": 11312, "chair": 18, "state": "old", "area": 37.03 },
{ "NAME_EN": "enfidha", "gouv_name": "Sousse", "NAME_AR": "النفيضة", "GOV_EN": "Sousse", "GOV_AR": "سوسة", "allreg_male_sum": 8042, "allreg_female_sum": 7023, "reg_18_35": 4935, "reg_36_40": 1599, "reg_41_60": 5702, "reg_p_60": 2829, "allreg_sum": 15065, "total_inscrits": 15065, "votes_nul": 375, "votes_blancs": 140, "total_votes_valide": 6939, "total_votes": 7454, "id": 102, "POP": 27219, "chair": 24, "state": "extended", "area": 243.2 },
{ "NAME_EN": "gerimet", "gouv_name": "Sousse", "NAME_AR": "القريمات - هيشر", "GOV_EN": "Sousse", "GOV_AR": "سوسة", "allreg_male_sum": 4285, "allreg_female_sum": 2613, "reg_18_35": 2663, "reg_36_40": 783, "reg_41_60": 2311, "reg_p_60": 1141, "allreg_sum": 6898, "total_inscrits": 6898, "votes_nul": 143, "votes_blancs": 55, "total_votes_valide": 3738, "total_votes": 3936, "id": 65, "POP": 22116, "chair": 18, "state": "new", "area": 134.48 },
{ "NAME_EN": "hergla", "gouv_name": "Sousse", "NAME_AR": "هرقلة", "GOV_EN": "Sousse", "GOV_AR": "سوسة", "allreg_male_sum": 2313, "allreg_female_sum": 2118, "reg_18_35": 1436, "reg_36_40": 489, "reg_41_60": 1737, "reg_p_60": 769, "allreg_sum": 4431, "total_inscrits": 4431, "votes_nul": 129, "votes_blancs": 46, "total_votes_valide": 2302, "total_votes": 2477, "id": 346, "POP": 9343, "chair": 12, "state": "extended", "area": 95.43 },
{ "NAME_EN": "kondar", "gouv_name": "Sousse", "NAME_AR": "كندار", "GOV_EN": "Sousse", "GOV_AR": "سوسة", "allreg_male_sum": 3302, "allreg_female_sum": 2671, "reg_18_35": 2213, "reg_36_40": 733, "reg_41_60": 2032, "reg_p_60": 995, "allreg_sum": 5973, "total_inscrits": 5973, "votes_nul": 237, "votes_blancs": 67, "total_votes_valide": 3739, "total_votes": 4043, "id": 304, "POP": 13565, "chair": 18, "state": "extended", "area": 178.24 },
{ "NAME_EN": "Kalaat El Andalous", "gouv_name": "Ariana", "NAME_AR": "قلعة الأندلس", "GOV_EN": "Ariana", "GOV_AR": "أريانة", "allreg_male_sum": 6145, "allreg_female_sum": 4930, "reg_18_35": 3933, "reg_36_40": 1166, "reg_41_60": 4055, "reg_p_60": 1921, "allreg_sum": 11075, "total_inscrits": 11075, "votes_nul": 143, "votes_blancs": 65, "total_votes_valide": 5042, "total_votes": 5250, "id": 298, "POP": 26796, "chair": 24, "state": "extended", "area": 189.25 },
{ "NAME_EN": "Sidi Thabet", "gouv_name": "Ariana", "NAME_AR": "سيدي ثابت", "GOV_EN": "Ariana", "GOV_AR": "أريانة", "allreg_male_sum": 5730, "allreg_female_sum": 4369, "reg_18_35": 2907, "reg_36_40": 1050, "reg_41_60": 4202, "reg_p_60": 1940, "allreg_sum": 10099, "total_inscrits": 10100, "votes_nul": 147, "votes_blancs": 60, "total_votes_valide": 3719, "total_votes": 3926, "id": 237, "POP": 24503, "chair": 18, "state": "extended", "area": 97.09 },
{ "NAME_EN": "Raoued", "gouv_name": "Ariana", "NAME_AR": "روّاد", "GOV_EN": "Ariana", "GOV_AR": "أريانة", "allreg_male_sum": 22854, "allreg_female_sum": 20225, "reg_18_35": 13734, "reg_36_40": 5219, "reg_41_60": 16901, "reg_p_60": 7225, "allreg_sum": 43079, "total_inscrits": 43079, "votes_nul": 305, "votes_blancs": 258, "total_votes_valide": 12416, "total_votes": 12979, "id": 205, "POP": 106414, "chair": 36, "state": "extended", "area": 56.16 },
{ "NAME_EN": "Ariana", "gouv_name": "Ariana", "NAME_AR": "أريانة", "GOV_EN": "Ariana", "GOV_AR": "أريانة", "allreg_male_sum": 37195, "allreg_female_sum": 39588, "reg_18_35": 23757, "reg_36_40": 9212, "reg_41_60": 27837, "reg_p_60": 15977, "allreg_sum": 76783, "total_inscrits": 76783, "votes_nul": 456, "votes_blancs": 335, "total_votes_valide": 29372, "total_votes": 30163, "id": 2, "POP": 114486, "chair": 36, "state": "old", "area": 18.38 },
{ "NAME_EN": "Soukra", "gouv_name": "Ariana", "NAME_AR": "سكرة", "GOV_EN": "Ariana", "GOV_AR": "أريانة", "allreg_male_sum": 26288, "allreg_female_sum": 24886, "reg_18_35": 15492, "reg_36_40": 6466, "reg_41_60": 20375, "reg_p_60": 8841, "allreg_sum": 51174, "total_inscrits": 51175, "votes_nul": 387, "votes_blancs": 457, "total_votes_valide": 14094, "total_votes": 14938, "id": 223, "POP": 129693, "chair": 36, "state": "old", "area": 28.3 },
{ "NAME_EN": "El Mnihla", "gouv_name": "Ariana", "NAME_AR": "المنيهلة", "GOV_EN": "Ariana", "GOV_AR": "أريانة", "allreg_male_sum": 16276, "allreg_female_sum": 14681, "reg_18_35": 9486, "reg_36_40": 3365, "reg_41_60": 12742, "reg_p_60": 5364, "allreg_sum": 30957, "total_inscrits": 30959, "votes_nul": 276, "votes_blancs": 214, "total_votes_valide": 6959, "total_votes": 7449, "id": 95, "POP": 89884, "chair": 30, "state": "new", "area": 23.56 },
{ "NAME_EN": "Ettadhamen", "gouv_name": "Ariana", "NAME_AR": "التضامن", "GOV_EN": "Ariana", "GOV_AR": "أريانة", "allreg_male_sum": 18291, "allreg_female_sum": 17675, "reg_18_35": 10769, "reg_36_40": 4219, "reg_41_60": 13251, "reg_p_60": 7727, "allreg_sum": 35966, "total_inscrits": 35966, "votes_nul": 402, "votes_blancs": 218, "total_votes_valide": 6640, "total_votes": 7260, "id": 10, "POP": 84312, "chair": 30, "state": "old", "area": 3.29 },
{ "NAME_EN": "el battane", "gouv_name": "Manouba", "NAME_AR": "البطان", "GOV_EN": "Manouba", "GOV_AR": "منوبة", "allreg_male_sum": 4889, "allreg_female_sum": 4080, "reg_18_35": 2609, "reg_36_40": 1017, "reg_41_60": 3493, "reg_p_60": 1850, "allreg_sum": 8969, "total_inscrits": 8969, "votes_nul": 145, "votes_blancs": 101, "total_votes_valide": 1972, "total_votes": 2218, "id": 8, "POP": 18977, "chair": 18, "state": "extended", "area": 156.75 },
{ "NAME_EN": "tebourba", "gouv_name": "Manouba", "NAME_AR": "طبربة", "GOV_EN": "Manouba", "GOV_AR": "منوبة", "allreg_male_sum": 11024, "allreg_female_sum": 10251, "reg_18_35": 6703, "reg_36_40": 2195, "reg_41_60": 7856, "reg_p_60": 4521, "allreg_sum": 21275, "total_inscrits": 21275, "votes_nul": 365, "votes_blancs": 142, "total_votes_valide": 5521, "total_votes": 6028, "id": 257, "POP": 43499, "chair": 24, "state": "extended", "area": 287.28 },
{ "NAME_EN": "djedaïda", "gouv_name": "Manouba", "NAME_AR": "الجديدة", "GOV_EN": "Manouba", "GOV_AR": "منوبة", "allreg_male_sum": 11200, "allreg_female_sum": 9732, "reg_18_35": 6268, "reg_36_40": 2327, "reg_41_60": 8319, "reg_p_60": 4018, "allreg_sum": 20932, "total_inscrits": 20932, "votes_nul": 303, "votes_blancs": 157, "total_votes_valide": 6565, "total_votes": 7025, "id": 12, "POP": 44748, "chair": 24, "state": "extended", "area": 182.8 },
{ "NAME_EN": "den-den", "gouv_name": "Manouba", "NAME_AR": "الدندان", "GOV_EN": "Manouba", "GOV_AR": "منوبة", "allreg_male_sum": 8003, "allreg_female_sum": 8447, "reg_18_35": 5216, "reg_36_40": 1904, "reg_41_60": 5955, "reg_p_60": 3375, "allreg_sum": 16450, "total_inscrits": 16450, "votes_nul": 188, "votes_blancs": 139, "total_votes_valide": 4392, "total_votes": 4719, "id": 25, "POP": 26787, "chair": 24, "state": "old", "area": 3.47 },
{ "NAME_EN": "douar hicher", "gouv_name": "Manouba", "NAME_AR": "دوار هيشر", "GOV_EN": "Manouba", "GOV_AR": "منوبة", "allreg_male_sum": 16064, "allreg_female_sum": 15330, "reg_18_35": 9720, "reg_36_40": 3529, "reg_41_60": 11785, "reg_p_60": 6360, "allreg_sum": 31394, "total_inscrits": 31394, "votes_nul": 644, "votes_blancs": 172, "total_votes_valide": 6831, "total_votes": 7647, "id": 195, "POP": 84090, "chair": 30, "state": "extended", "area": 9.08 },
{ "NAME_EN": "mornaguia", "gouv_name": "Manouba", "NAME_AR": "المرناقية", "GOV_EN": "Manouba", "GOV_AR": "منوبة", "allreg_male_sum": 7446, "allreg_female_sum": 7003, "reg_18_35": 4578, "reg_36_40": 1539, "reg_41_60": 5608, "reg_p_60": 2724, "allreg_sum": 14449, "total_inscrits": 14449, "votes_nul": 215, "votes_blancs": 93, "total_votes_valide": 4643, "total_votes": 4951, "id": 84, "POP": 28986, "chair": 24, "state": "extended", "area": 88.6 },
{ "NAME_EN": "el bassatine", "gouv_name": "Manouba", "NAME_AR": "البساتين", "GOV_EN": "Manouba", "GOV_AR": "منوبة", "allreg_male_sum": 2981, "allreg_female_sum": 2568, "reg_18_35": 1644, "reg_36_40": 631, "reg_41_60": 2146, "reg_p_60": 1128, "allreg_sum": 5549, "total_inscrits": 5549, "votes_nul": 144, "votes_blancs": 78, "total_votes_valide": 2021, "total_votes": 2243, "id": 7, "POP": 13701, "chair": 18, "state": "new", "area": 172.1 },
{ "NAME_EN": "borj el amri", "gouv_name": "Manouba", "NAME_AR": "برج العامري", "GOV_EN": "Manouba", "GOV_AR": "منوبة", "allreg_male_sum": 4960, "allreg_female_sum": 4489, "reg_18_35": 2760, "reg_36_40": 996, "reg_41_60": 3725, "reg_p_60": 1968, "allreg_sum": 9449, "total_inscrits": 9449, "votes_nul": 180, "votes_blancs": 56, "total_votes_valide": 2636, "total_votes": 2872, "id": 114, "POP": 17408, "chair": 18, "state": "extended", "area": 175.74 },
{ "NAME_EN": "oued ellil", "gouv_name": "Manouba", "NAME_AR": "وادي الليل", "GOV_EN": "Manouba", "GOV_AR": "منوبة", "allreg_male_sum": 15714, "allreg_female_sum": 14394, "reg_18_35": 9514, "reg_36_40": 3246, "reg_41_60": 11486, "reg_p_60": 5862, "allreg_sum": 30108, "total_inscrits": 30108, "votes_nul": 424, "votes_blancs": 163, "total_votes_valide": 8404, "total_votes": 8991, "id": 347, "POP": 69317, "chair": 30, "state": "extended", "area": 57.76 },
{ "NAME_EN": "Manouba", "gouv_name": "Manouba", "NAME_AR": "منوبة", "GOV_EN": "Manouba", "GOV_AR": "منوبة", "allreg_male_sum": 11027, "allreg_female_sum": 11017, "reg_18_35": 7068, "reg_36_40": 2638, "reg_41_60": 8172, "reg_p_60": 4166, "allreg_sum": 22044, "total_inscrits": 22044, "votes_nul": 156, "votes_blancs": 136, "total_votes_valide": 7087, "total_votes": 7379, "id": 337, "POP": 32005, "chair": 24, "state": "old", "area": 8.68 },
{ "NAME_EN": "skhira", "gouv_name": "Sfax", "NAME_AR": "الصخيرة", "GOV_EN": "Sfax", "GOV_AR": "صفاقس", "allreg_male_sum": 9518, "allreg_female_sum": 6750, "reg_18_35": 6007, "reg_36_40": 2048, "reg_41_60": 5823, "reg_p_60": 2390, "allreg_sum": 16268, "total_inscrits": 16268, "votes_nul": 254, "votes_blancs": 95, "total_votes_valide": 8787, "total_votes": 9136, "id": 49, "POP": 34673, "chair": 24, "state": "extended", "area": 908.77 },
{ "NAME_EN": "bir ali ben khelifa", "gouv_name": "Sfax", "NAME_AR": "بئر علي بن خليفة", "GOV_EN": "Sfax", "GOV_AR": "صفاقس", "allreg_male_sum": 8600, "allreg_female_sum": 5557, "reg_18_35": 5049, "reg_36_40": 1491, "reg_41_60": 5101, "reg_p_60": 2516, "allreg_sum": 14157, "total_inscrits": 14157, "votes_nul": 151, "votes_blancs": 53, "total_votes_valide": 4579, "total_votes": 4783, "id": 147, "POP": 31823, "chair": 24, "state": "extended", "area": 545.3 },
{ "NAME_EN": "agareb", "gouv_name": "Sfax", "NAME_AR": "عقارب", "GOV_EN": "Sfax", "GOV_AR": "صفاقس", "allreg_male_sum": 11294, "allreg_female_sum": 8715, "reg_18_35": 6566, "reg_36_40": 2322, "reg_41_60": 7561, "reg_p_60": 3560, "allreg_sum": 20009, "total_inscrits": 20009, "votes_nul": 298, "votes_blancs": 152, "total_votes_valide": 7444, "total_votes": 7894, "id": 264, "POP": 40943, "chair": 24, "state": "extended", "area": 735.18 },
{ "NAME_EN": "el hajeb", "gouv_name": "Sfax", "NAME_AR": "الحاجب", "GOV_EN": "Sfax", "GOV_AR": "صفاقس", "allreg_male_sum": 4246, "allreg_female_sum": 3275, "reg_18_35": 2390, "reg_36_40": 832, "reg_41_60": 3268, "reg_p_60": 1031, "allreg_sum": 7521, "total_inscrits": 7521, "votes_nul": 85, "votes_blancs": 43, "total_votes_valide": 2326, "total_votes": 2454, "id": 15, "POP": 19455, "chair": 18, "state": "new", "area": 46.42 },
{ "NAME_EN": "Sfax", "gouv_name": "Sfax", "NAME_AR": "صفاقس", "GOV_EN": "Sfax", "GOV_AR": "صفاقس", "allreg_male_sum": 78685, "allreg_female_sum": 69962, "reg_18_35": 46047, "reg_36_40": 16329, "reg_41_60": 57455, "reg_p_60": 28816, "allreg_sum": 148647, "total_inscrits": 148647, "votes_nul": 1007, "votes_blancs": 784, "total_votes_valide": 45446, "total_votes": 47237, "id": 254, "POP": 280566, "chair": 36, "state": "old", "area": 44.01 },
{ "NAME_EN": "sakiet eddaier", "gouv_name": "Sfax", "NAME_AR": "ساقية الداير", "GOV_EN": "Sfax", "GOV_AR": "صفاقس", "allreg_male_sum": 12718, "allreg_female_sum": 10477, "reg_18_35": 7702, "reg_36_40": 2344, "reg_41_60": 9037, "reg_p_60": 4112, "allreg_sum": 23195, "total_inscrits": 23195, "votes_nul": 225, "votes_blancs": 147, "total_votes_valide": 9146, "total_votes": 9518, "id": 215, "POP": 44511, "chair": 24, "state": "extended", "area": 90.08 },
{ "NAME_EN": "sakiet ezzit", "gouv_name": "Sfax", "NAME_AR": "ساقية الزيت", "GOV_EN": "Sfax", "GOV_AR": "صفاقس", "allreg_male_sum": 17639, "allreg_female_sum": 14896, "reg_18_35": 10711, "reg_36_40": 3335, "reg_41_60": 12755, "reg_p_60": 5734, "allreg_sum": 32535, "total_inscrits": 32535, "votes_nul": 220, "votes_blancs": 193, "total_votes_valide": 13442, "total_votes": 13855, "id": 216, "POP": 60244, "chair": 30, "state": "extended", "area": 24.68 },
{ "NAME_EN": "el ghraiba", "gouv_name": "Sfax", "NAME_AR": "الغريبة", "GOV_EN": "Sfax", "GOV_AR": "صفاقس", "allreg_male_sum": 4330, "allreg_female_sum": 3340, "reg_18_35": 2551, "reg_36_40": 885, "reg_41_60": 2864, "reg_p_60": 1370, "allreg_sum": 7670, "total_inscrits": 7670, "votes_nul": 90, "votes_blancs": 46, "total_votes_valide": 1857, "total_votes": 1993, "id": 62, "POP": 15776, "chair": 18, "state": "extended", "area": 431.27 },
{ "NAME_EN": "el aïn", "gouv_name": "Sfax", "NAME_AR": "العين", "GOV_EN": "Sfax", "GOV_AR": "صفاقس", "allreg_male_sum": 15216, "allreg_female_sum": 13252, "reg_18_35": 9058, "reg_36_40": 2864, "reg_41_60": 10860, "reg_p_60": 5686, "allreg_sum": 28468, "total_inscrits": 28468, "votes_nul": 247, "votes_blancs": 196, "total_votes_valide": 10577, "total_votes": 11020, "id": 60, "POP": 43333, "chair": 24, "state": "old", "area": 14.92 },
{ "NAME_EN": "gremda", "gouv_name": "Sfax", "NAME_AR": "قرمدة", "GOV_EN": "Sfax", "GOV_AR": "صفاقس", "allreg_male_sum": 9166, "allreg_female_sum": 8000, "reg_18_35": 5600, "reg_36_40": 1525, "reg_41_60": 6430, "reg_p_60": 3611, "allreg_sum": 17166, "total_inscrits": 17166, "votes_nul": 116, "votes_blancs": 92, "total_votes_valide": 8116, "total_votes": 8324, "id": 292, "POP": 43333, "chair": 24, "state": "old", "area": 14.12 },
{ "NAME_EN": "el aouabed khazanet", "gouv_name": "Sfax", "NAME_AR": "العوابد - الخزانات", "GOV_EN": "Sfax", "GOV_AR": "صفاقس", "allreg_male_sum": 7210, "allreg_female_sum": 5571, "reg_18_35": 4162, "reg_36_40": 1540, "reg_41_60": 4994, "reg_p_60": 2085, "allreg_sum": 12781, "total_inscrits": 12781, "votes_nul": 131, "votes_blancs": 91, "total_votes_valide": 4545, "total_votes": 4767, "id": 59, "POP": 34944, "chair": 24, "state": "new", "area": 167.1 },
{ "NAME_EN": "mahres", "gouv_name": "Sfax", "NAME_AR": "المحرص", "GOV_EN": "Sfax", "GOV_AR": "صفاقس", "allreg_male_sum": 8809, "allreg_female_sum": 7797, "reg_18_35": 5332, "reg_36_40": 1661, "reg_41_60": 6407, "reg_p_60": 3206, "allreg_sum": 16606, "total_inscrits": 16606, "votes_nul": 145, "votes_blancs": 74, "total_votes_valide": 5269, "total_votes": 5488, "id": 80, "POP": 34257, "chair": 24, "state": "extended", "area": 435.75 },
{ "NAME_EN": "hazeg el louza", "gouv_name": "Sfax", "NAME_AR": "حزق - اللوزة", "GOV_EN": "Sfax", "GOV_AR": "صفاقس", "allreg_male_sum": 4829, "allreg_female_sum": 3463, "reg_18_35": 2814, "reg_36_40": 968, "reg_41_60": 3126, "reg_p_60": 1384, "allreg_sum": 8292, "total_inscrits": 8203, "votes_nul": 118, "votes_blancs": 82, "total_votes_valide": 2879, "total_votes": 3079, "id": 179, "POP": 18914, "chair": 18, "state": "new", "area": 63.908 },
{ "NAME_EN": "el achech", "gouv_name": "Sfax", "NAME_AR": "العشاش بوجربوع العوادنة ماجل الدرج", "GOV_EN": "Sfax", "GOV_AR": "صفاقس", "allreg_male_sum": 4921, "allreg_female_sum": 3749, "reg_18_35": 2965, "reg_36_40": 1069, "reg_41_60": 3109, "reg_p_60": 1527, "allreg_sum": 8670, "total_inscrits": 8670, "votes_nul": 154, "votes_blancs": 57, "total_votes_valide": 3339, "total_votes": 3550, "id": 56, "POP": 17804, "chair": 18, "state": "new", "area": 340.24 },
{ "NAME_EN": "el amra", "gouv_name": "Sfax", "NAME_AR": "العامرة", "GOV_EN": "Sfax", "GOV_AR": "صفاقس", "allreg_male_sum": 7550, "allreg_female_sum": 6046, "reg_18_35": 4603, "reg_36_40": 1673, "reg_41_60": 5006, "reg_p_60": 2314, "allreg_sum": 13596, "total_inscrits": 13596, "votes_nul": 166, "votes_blancs": 78, "total_votes_valide": 4159, "total_votes": 4403, "id": 54, "POP": 30599, "chair": 24, "state": "new", "area": 180.25 },
{ "NAME_EN": "tina", "gouv_name": "Sfax", "NAME_AR": "طينة", "GOV_EN": "Sfax", "GOV_AR": "صفاقس", "allreg_male_sum": 9585, "allreg_female_sum": 7807, "reg_18_35": 5822, "reg_36_40": 2027, "reg_41_60": 7030, "reg_p_60": 2513, "allreg_sum": 17392, "total_inscrits": 17393, "votes_nul": 216, "votes_blancs": 111, "total_votes_valide": 5317, "total_votes": 5644, "id": 262, "POP": 43542, "chair": 24, "state": "extended", "area": 55.9 },
{ "NAME_EN": "kerkenah", "gouv_name": "Sfax", "NAME_AR": "قرقنة", "GOV_EN": "Sfax", "GOV_AR": "صفاقس", "allreg_male_sum": 4949, "allreg_female_sum": 4253, "reg_18_35": 2536, "reg_36_40": 802, "reg_41_60": 3498, "reg_p_60": 2366, "allreg_sum": 9202, "total_inscrits": 9202, "votes_nul": 73, "votes_blancs": 55, "total_votes_valide": 3510, "total_votes": 3638, "id": 290, "POP": 15501, "chair": 18, "state": "old", "area": 152.19 },
{ "NAME_EN": "chihia", "gouv_name": "Sfax", "NAME_AR": "شيحية", "GOV_EN": "Sfax", "GOV_AR": "صفاقس", "allreg_male_sum": 10616, "allreg_female_sum": 9475, "reg_18_35": 6531, "reg_36_40": 2122, "reg_41_60": 7760, "reg_p_60": 3678, "allreg_sum": 20091, "total_inscrits": 20091, "votes_nul": 184, "votes_blancs": 115, "total_votes_valide": 7718, "total_votes": 8017, "id": 253, "POP": 27268, "chair": 24, "state": "extended", "area": 68.06 },
{ "NAME_EN": "en-nadhour sidi ali belabed", "gouv_name": "Sfax", "NAME_AR": "الناظور - سيدي علي بلعابد", "GOV_EN": "Sfax", "GOV_AR": "صفاقس", "allreg_male_sum": 5588, "allreg_female_sum": 3380, "reg_18_35": 2989, "reg_36_40": 1002, "reg_41_60": 3342, "reg_p_60": 1635, "allreg_sum": 8968, "total_inscrits": 8968, "votes_nul": 90, "votes_blancs": 56, "total_votes_valide": 3105, "total_votes": 3251, "id": 100, "POP": 20855, "chair": 18, "state": "new", "area": 662.1 },
{ "NAME_EN": "menzel chaker", "gouv_name": "Sfax", "NAME_AR": "منزل شاكر", "GOV_EN": "Sfax", "GOV_AR": "صفاقس", "allreg_male_sum": 5078, "allreg_female_sum": 3737, "reg_18_35": 2902, "reg_36_40": 1043, "reg_41_60": 3241, "reg_p_60": 1629, "allreg_sum": 8815, "total_inscrits": 8815, "votes_nul": 103, "votes_blancs": 43, "total_votes_valide": 2477, "total_votes": 2623, "id": 333, "POP": 19564, "chair": 18, "state": "extended", "area": 1295.4 },
{ "NAME_EN": "el hencha", "gouv_name": "Sfax", "NAME_AR": "الحنشة", "GOV_EN": "Sfax", "GOV_AR": "صفاقس", "allreg_male_sum": 8782, "allreg_female_sum": 7422, "reg_18_35": 5582, "reg_36_40": 1916, "reg_41_60": 5740, "reg_p_60": 2966, "allreg_sum": 16204, "total_inscrits": 16205, "votes_nul": 223, "votes_blancs": 73, "total_votes_valide": 4547, "total_votes": 4843, "id": 22, "POP": 32247, "chair": 24, "state": "extended", "area": 351.8 },
{ "NAME_EN": "en-nasr", "gouv_name": "Sfax", "NAME_AR": "النصر", "GOV_EN": "Sfax", "GOV_AR": "صفاقس", "allreg_male_sum": 4456, "allreg_female_sum": 3673, "reg_18_35": 2998, "reg_36_40": 964, "reg_41_60": 2797, "reg_p_60": 1370, "allreg_sum": 8129, "total_inscrits": 8129, "votes_nul": 74, "votes_blancs": 53, "total_votes_valide": 2542, "total_votes": 2669, "id": 101, "POP": 16976, "chair": 18, "state": "new", "area": 174.9 },
{ "NAME_EN": "djebeniana", "gouv_name": "Sfax", "NAME_AR": "جبنيانة", "GOV_EN": "Sfax", "GOV_AR": "صفاقس", "allreg_male_sum": 8106, "allreg_female_sum": 6596, "reg_18_35": 4969, "reg_36_40": 1766, "reg_41_60": 5479, "reg_p_60": 2488, "allreg_sum": 14702, "total_inscrits": 14702, "votes_nul": 224, "votes_blancs": 101, "total_votes_valide": 4185, "total_votes": 4510, "id": 165, "POP": 30764, "chair": 24, "state": "extended", "area": 189.4 },
{ "NAME_EN": "Zaghouan", "gouv_name": "Zaghouan", "NAME_AR": "زغوان", "GOV_EN": "Zaghouan", "GOV_AR": "زغوان", "allreg_male_sum": 10557, "allreg_female_sum": 9604, "reg_18_35": 6297, "reg_36_40": 2318, "reg_41_60": 7778, "reg_p_60": 3768, "allreg_sum": 20161, "total_inscrits": 20161, "votes_nul": 297, "votes_blancs": 183, "total_votes_valide": 7225, "total_votes": 7705, "id": 213, "POP": 38445, "chair": 24, "state": "extended", "area": 419.89 },
{ "NAME_EN": "jebel oust", "gouv_name": "Zaghouan", "NAME_AR": "جبل الوسط", "GOV_EN": "Zaghouan", "GOV_AR": "زغوان", "allreg_male_sum": 2411, "allreg_female_sum": 1860, "reg_18_35": 1373, "reg_36_40": 506, "reg_41_60": 1693, "reg_p_60": 699, "allreg_sum": 4271, "total_inscrits": 4271, "votes_nul": 67, "votes_blancs": 41, "total_votes_valide": 2587, "total_votes": 2695, "id": 164, "POP": 9783, "chair": 12, "state": "extended", "area": 229.41 },
{ "NAME_EN": "el fahs", "gouv_name": "Zaghouan", "NAME_AR": "الفحص", "GOV_EN": "Zaghouan", "GOV_AR": "زغوان", "allreg_male_sum": 8160, "allreg_female_sum": 7751, "reg_18_35": 4637, "reg_36_40": 1744, "reg_41_60": 6361, "reg_p_60": 3169, "allreg_sum": 15911, "total_inscrits": 15911, "votes_nul": 232, "votes_blancs": 119, "total_votes_valide": 5106, "total_votes": 5457, "id": 63, "POP": 34456, "chair": 24, "state": "extended", "area": 377.8 },
{ "NAME_EN": "bir m'chergua", "gouv_name": "Zaghouan", "NAME_AR": "بئر مشارقة", "GOV_EN": "Zaghouan", "GOV_AR": "زغوان", "allreg_male_sum": 3978, "allreg_female_sum": 3242, "reg_18_35": 2454, "reg_36_40": 849, "reg_41_60": 2643, "reg_p_60": 1274, "allreg_sum": 7220, "total_inscrits": 7220, "votes_nul": 91, "votes_blancs": 58, "total_votes_valide": 2727, "total_votes": 2876, "id": 146, "POP": 14604, "chair": 18, "state": "extended", "area": 305.1 },
{ "NAME_EN": "el amiem", "gouv_name": "Zaghouan", "NAME_AR": "العمايم", "GOV_EN": "Zaghouan", "GOV_AR": "زغوان", "allreg_male_sum": 3544, "allreg_female_sum": 2793, "reg_18_35": 1817, "reg_36_40": 771, "reg_41_60": 2289, "reg_p_60": 1460, "allreg_sum": 6337, "total_inscrits": 6337, "votes_nul": 120, "votes_blancs": 38, "total_votes_valide": 2469, "total_votes": 2627, "id": 58, "POP": 11993, "chair": 18, "state": "new", "area": 548.1 },
{ "NAME_EN": "en nadhour", "gouv_name": "Zaghouan", "NAME_AR": "الناظور", "GOV_EN": "Zaghouan", "GOV_AR": "زغوان", "allreg_male_sum": 8751, "allreg_female_sum": 7693, "reg_18_35": 6379, "reg_36_40": 1971, "reg_41_60": 5350, "reg_p_60": 2744, "allreg_sum": 16444, "total_inscrits": 16444, "votes_nul": 360, "votes_blancs": 171, "total_votes_valide": 7603, "total_votes": 8134, "id": 99, "POP": 30366, "chair": 24, "state": "extended", "area": 355.43 },
{ "NAME_EN": "ez zeriba", "gouv_name": "Zaghouan", "NAME_AR": "الزريبة", "GOV_EN": "Zaghouan", "GOV_AR": "زغوان", "allreg_male_sum": 6505, "allreg_female_sum": 6085, "reg_18_35": 4280, "reg_36_40": 1523, "reg_41_60": 4556, "reg_p_60": 2231, "allreg_sum": 12590, "total_inscrits": 12590, "votes_nul": 268, "votes_blancs": 112, "total_votes_valide": 5355, "total_votes": 5735, "id": 33, "POP": 24617, "chair": 18, "state": "extended", "area": 339.26 },
{ "NAME_EN": "saouef", "gouv_name": "Zaghouan", "NAME_AR": "صواف", "GOV_EN": "Zaghouan", "GOV_AR": "زغوان", "allreg_male_sum": 3582, "allreg_female_sum": 3527, "reg_18_35": 2563, "reg_36_40": 807, "reg_41_60": 2427, "reg_p_60": 1312, "allreg_sum": 7109, "total_inscrits": 7109, "votes_nul": 228, "votes_blancs": 79, "total_votes_valide": 2784, "total_votes": 3091, "id": 255, "POP": 12651, "chair": 18, "state": "new", "area": 260.86 },
{ "NAME_EN": "Kairouan", "gouv_name": "Kairouan", "NAME_AR": "القيروان", "GOV_EN": "Kairouan", "GOV_AR": "القيروان", "allreg_male_sum": 36991, "allreg_female_sum": 34395, "reg_18_35": 23375, "reg_36_40": 7910, "reg_41_60": 27416, "reg_p_60": 12685, "allreg_sum": 71386, "total_inscrits": 71387, "votes_nul": 636, "votes_blancs": 310, "total_votes_valide": 18800, "total_votes": 19746, "id": 75, "POP": 165761, "chair": 36, "state": "extended", "area": 460.6 },
{ "NAME_EN": "echbika", "gouv_name": "Kairouan", "NAME_AR": "الشبيكة", "GOV_EN": "Kairouan", "GOV_AR": "القيروان", "allreg_male_sum": 5092, "allreg_female_sum": 3735, "reg_18_35": 3022, "reg_36_40": 1052, "reg_41_60": 3318, "reg_p_60": 1435, "allreg_sum": 8827, "total_inscrits": 8827, "votes_nul": 269, "votes_blancs": 68, "total_votes_valide": 3887, "total_votes": 4224, "id": 44, "POP": 20275, "chair": 18, "state": "extended", "area": 295.33 },
{ "NAME_EN": "aîn djeloula", "gouv_name": "Kairouan", "NAME_AR": "عين جلولة", "GOV_EN": "Kairouan", "GOV_AR": "القيروان", "allreg_male_sum": 2132, "allreg_female_sum": 1761, "reg_18_35": 1175, "reg_36_40": 394, "reg_41_60": 1461, "reg_p_60": 863, "allreg_sum": 3893, "total_inscrits": 3894, "votes_nul": 89, "votes_blancs": 38, "total_votes_valide": 1462, "total_votes": 1589, "id": 271, "POP": 6780, "chair": 12, "state": "extended", "area": 153.62 },
{ "NAME_EN": "hafouz", "gouv_name": "Kairouan", "NAME_AR": "حفوز", "GOV_EN": "Kairouan", "GOV_AR": "القيروان", "allreg_male_sum": 7268, "allreg_female_sum": 6449, "reg_18_35": 4578, "reg_36_40": 1476, "reg_41_60": 4984, "reg_p_60": 2679, "allreg_sum": 13717, "total_inscrits": 13717, "votes_nul": 267, "votes_blancs": 126, "total_votes_valide": 5475, "total_votes": 5868, "id": 181, "POP": 27110, "chair": 24, "state": "extended", "area": 357.65 },
{ "NAME_EN": "el alâa", "gouv_name": "Kairouan", "NAME_AR": "العلا", "GOV_EN": "Kairouan", "GOV_AR": "القيروان", "allreg_male_sum": 6320, "allreg_female_sum": 5977, "reg_18_35": 3348, "reg_36_40": 1314, "reg_41_60": 4713, "reg_p_60": 2922, "allreg_sum": 12297, "total_inscrits": 12298, "votes_nul": 387, "votes_blancs": 97, "total_votes_valide": 4161, "total_votes": 4645, "id": 57, "POP": 28991, "chair": 24, "state": "extended", "area": 361.02 },
{ "NAME_EN": "chaouachi", "gouv_name": "Kairouan", "NAME_AR": "شواشي", "GOV_EN": "Kairouan", "GOV_AR": "القيروان", "allreg_male_sum": 3154, "allreg_female_sum": 2678, "reg_18_35": 1995, "reg_36_40": 626, "reg_41_60": 2107, "reg_p_60": 1104, "allreg_sum": 5832, "total_inscrits": 5833, "votes_nul": 197, "votes_blancs": 51, "total_votes_valide": 2034, "total_votes": 2282, "id": 252, "POP": 11440, "chair": 18, "state": "new", "area": 229.743 },
{ "NAME_EN": "el aîn el beidha", "gouv_name": "Kairouan", "NAME_AR": "عين البيضاء", "GOV_EN": "Kairouan", "GOV_AR": "القيروان", "allreg_male_sum": 3882, "allreg_female_sum": 3102, "reg_18_35": 2346, "reg_36_40": 849, "reg_41_60": 2520, "reg_p_60": 1269, "allreg_sum": 6984, "total_inscrits": 6984, "votes_nul": 166, "votes_blancs": 67, "total_votes_valide": 2626, "total_votes": 2859, "id": 269, "POP": 12956, "chair": 18, "state": "new", "area": 253.246 },
{ "NAME_EN": "abida", "gouv_name": "Kairouan", "NAME_AR": "عبيدة", "GOV_EN": "Kairouan", "GOV_AR": "القيروان", "allreg_male_sum": 3739, "allreg_female_sum": 2653, "reg_18_35": 2234, "reg_36_40": 795, "reg_41_60": 2325, "reg_p_60": 1038, "allreg_sum": 6392, "total_inscrits": 6392, "votes_nul": 175, "votes_blancs": 55, "total_votes_valide": 3275, "total_votes": 3505, "id": 263, "POP": 15033, "chair": 18, "state": "new", "area": 216.982 },
{ "NAME_EN": "El Ooueslatia", "gouv_name": "Kairouan", "NAME_AR": "الوسلاتية", "GOV_EN": "Kairouan", "GOV_AR": "القيروان", "allreg_male_sum": 7567, "allreg_female_sum": 6641, "reg_18_35": 4237, "reg_36_40": 1589, "reg_41_60": 5379, "reg_p_60": 3003, "allreg_sum": 14208, "total_inscrits": 14209, "votes_nul": 355, "votes_blancs": 107, "total_votes_valide": 4932, "total_votes": 5394, "id": 106, "POP": 27672, "chair": 24, "state": "extended", "area": 758.2 },
{ "NAME_EN": "bouhajla", "gouv_name": "Kairouan", "NAME_AR": "بوحجلة", "GOV_EN": "Kairouan", "GOV_AR": "القيروان", "allreg_male_sum": 14398, "allreg_female_sum": 9123, "reg_18_35": 7877, "reg_36_40": 2684, "reg_41_60": 8659, "reg_p_60": 4301, "allreg_sum": 23521, "total_inscrits": 23521, "votes_nul": 306, "votes_blancs": 81, "total_votes_valide": 6452, "total_votes": 6839, "id": 133, "POP": 47615, "chair": 24, "state": "extended", "area": 382.3 },
{ "NAME_EN": "menzel mhiri", "gouv_name": "Kairouan", "NAME_AR": "منزل المهيري", "GOV_EN": "Kairouan", "GOV_AR": "القيروان", "allreg_male_sum": 3481, "allreg_female_sum": 2944, "reg_18_35": 1979, "reg_36_40": 773, "reg_41_60": 2340, "reg_p_60": 1333, "allreg_sum": 6425, "total_inscrits": 6425, "votes_nul": 160, "votes_blancs": 44, "total_votes_valide": 2751, "total_votes": 2955, "id": 323, "POP": 12660, "chair": 18, "state": "extended", "area": 262.51 },
{ "NAME_EN": "hajeb el ayoun", "gouv_name": "Kairouan", "NAME_AR": "حاجب العيون", "GOV_EN": "Kairouan", "GOV_AR": "القيروان", "allreg_male_sum": 6352, "allreg_female_sum": 5613, "reg_18_35": 3974, "reg_36_40": 1300, "reg_41_60": 4500, "reg_p_60": 2191, "allreg_sum": 11965, "total_inscrits": 11965, "votes_nul": 330, "votes_blancs": 101, "total_votes_valide": 5683, "total_votes": 6114, "id": 176, "POP": 24697, "chair": 18, "state": "extended", "area": 352.78 },
{ "NAME_EN": "jehina", "gouv_name": "Kairouan", "NAME_AR": "جهينة", "GOV_EN": "Kairouan", "GOV_AR": "القيروان", "allreg_male_sum": 2299, "allreg_female_sum": 1428, "reg_18_35": 1247, "reg_36_40": 424, "reg_41_60": 1336, "reg_p_60": 720, "allreg_sum": 3727, "total_inscrits": 3727, "votes_nul": 109, "votes_blancs": 50, "total_votes_valide": 1605, "total_votes": 1764, "id": 173, "POP": 24756, "chair": 18, "state": "new", "area": 251.44 },
{ "NAME_EN": "nasrallah", "gouv_name": "Kairouan", "NAME_AR": "نصر الله", "GOV_EN": "Kairouan", "GOV_AR": "القيروان", "allreg_male_sum": 5668, "allreg_female_sum": 5277, "reg_18_35": 3197, "reg_36_40": 1063, "reg_41_60": 4103, "reg_p_60": 2582, "allreg_sum": 10945, "total_inscrits": 10945, "votes_nul": 269, "votes_blancs": 73, "total_votes_valide": 3363, "total_votes": 3705, "id": 341, "POP": 21129, "chair": 18, "state": "extended", "area": 422.14 },
{ "NAME_EN": "cheraitia", "gouv_name": "Kairouan", "NAME_AR": "الشرايطية - القصور", "GOV_EN": "Kairouan", "GOV_AR": "القيروان", "allreg_male_sum": 2678, "allreg_female_sum": 2186, "reg_18_35": 1695, "reg_36_40": 575, "reg_41_60": 1656, "reg_p_60": 938, "allreg_sum": 4864, "total_inscrits": 4864, "votes_nul": 131, "votes_blancs": 51, "total_votes_valide": 1560, "total_votes": 1742, "id": 46, "POP": 13826, "chair": 18, "state": "new", "area": 192.166 },
{ "NAME_EN": "echrarda", "gouv_name": "Kairouan", "NAME_AR": "الشراردة", "GOV_EN": "Kairouan", "GOV_AR": "القيروان", "allreg_male_sum": 3897, "allreg_female_sum": 3045, "reg_18_35": 2387, "reg_36_40": 800, "reg_41_60": 2543, "reg_p_60": 1212, "allreg_sum": 6942, "total_inscrits": 6942, "votes_nul": 93, "votes_blancs": 31, "total_votes_valide": 2137, "total_votes": 2261, "id": 45, "POP": 13692, "chair": 18, "state": "extended", "area": 137.55 },
{ "NAME_EN": "sbikha", "gouv_name": "Kairouan", "NAME_AR": "السبيخة", "GOV_EN": "Kairouan", "GOV_AR": "القيروان", "allreg_male_sum": 10016, "allreg_female_sum": 7560, "reg_18_35": 5826, "reg_36_40": 2031, "reg_41_60": 6241, "reg_p_60": 3478, "allreg_sum": 17576, "total_inscrits": 17576, "votes_nul": 359, "votes_blancs": 83, "total_votes_valide": 6138, "total_votes": 6580, "id": 38, "POP": 40206, "chair": 24, "state": "extended", "area": 746.1 },
{ "NAME_EN": "sisseb", "gouv_name": "Kairouan", "NAME_AR": "سيسب الدريعات", "GOV_EN": "Kairouan", "GOV_AR": "القيروان", "allreg_male_sum": 6016, "allreg_female_sum": 3686, "reg_18_35": 3347, "reg_36_40": 1219, "reg_41_60": 3503, "reg_p_60": 1633, "allreg_sum": 9702, "total_inscrits": 9702, "votes_nul": 141, "votes_blancs": 64, "total_votes_valide": 3384, "total_votes": 3589, "id": 246, "POP": 31716, "chair": 24, "state": "new", "area": 311.5 },
{ "NAME_EN": "rakada", "gouv_name": "Kairouan", "NAME_AR": "رقادة", "GOV_EN": "Kairouan", "GOV_AR": "القيروان", "allreg_male_sum": 5254, "allreg_female_sum": 3235, "reg_18_35": 2997, "reg_36_40": 1039, "reg_41_60": 3150, "reg_p_60": 1303, "allreg_sum": 8489, "total_inscrits": 8489, "votes_nul": 153, "votes_blancs": 60, "total_votes_valide": 2846, "total_votes": 3059, "id": 203, "POP": 24244, "chair": 18, "state": "new", "area": 308.875 },
{ "NAME_EN": "touiref", "gouv_name": "Le Kef", "NAME_AR": "الطويرف", "GOV_EN": "Le Le Kef", "GOV_AR": "الكاف", "allreg_male_sum": 1621, "allreg_female_sum": 1380, "reg_18_35": 782, "reg_36_40": 247, "reg_41_60": 1098, "reg_p_60": 874, "allreg_sum": 3001, "total_inscrits": 3001, "votes_nul": 88, "votes_blancs": 38, "total_votes_valide": 1196, "total_votes": 1322, "id": 52, "POP": 6592, "chair": 12, "state": "extended", "area": 322.26 },
{ "NAME_EN": "nebeur", "gouv_name": "Le Kef", "NAME_AR": "نبر", "GOV_EN": "Le Le Kef", "GOV_AR": "الكاف", "allreg_male_sum": 3398, "allreg_female_sum": 3471, "reg_18_35": 1899, "reg_36_40": 632, "reg_41_60": 2606, "reg_p_60": 1732, "allreg_sum": 6869, "total_inscrits": 6889, "votes_nul": 152, "votes_blancs": 82, "total_votes_valide": 2739, "total_votes": 2973, "id": 340, "POP": 13137, "chair": 18, "state": "extended", "area": 229.7 },
{ "NAME_EN": "sakiet sidi youssef", "gouv_name": "Le Kef", "NAME_AR": "ساقية سيدي يوسف", "GOV_EN": "Le Le Kef", "GOV_AR": "الكاف", "allreg_male_sum": 4426, "allreg_female_sum": 3569, "reg_18_35": 2010, "reg_36_40": 686, "reg_41_60": 3153, "reg_p_60": 2146, "allreg_sum": 7995, "total_inscrits": 7995, "votes_nul": 240, "votes_blancs": 82, "total_votes_valide": 2373, "total_votes": 2695, "id": 217, "POP": 17500, "chair": 18, "state": "extended", "area": 730.19 },
{ "NAME_EN": "kalâat snan", "gouv_name": "Le Kef", "NAME_AR": "قلعة سنان", "GOV_EN": "Le Le Kef", "GOV_AR": "الكاف", "allreg_male_sum": 3929, "allreg_female_sum": 3506, "reg_18_35": 2057, "reg_36_40": 651, "reg_41_60": 2778, "reg_p_60": 1949, "allreg_sum": 7435, "total_inscrits": 7435, "votes_nul": 220, "votes_blancs": 58, "total_votes_valide": 2747, "total_votes": 3025, "id": 299, "POP": 15621, "chair": 18, "state": "extended", "area": 515.14 },
{ "NAME_EN": "Le Kef", "gouv_name": "Le Kef", "NAME_AR": "الكاف", "GOV_EN": "Le Le Kef", "GOV_AR": "الكاف", "allreg_male_sum": 17185, "allreg_female_sum": 18339, "reg_18_35": 10467, "reg_36_40": 3341, "reg_41_60": 13783, "reg_p_60": 7933, "allreg_sum": 35524, "total_inscrits": 35526, "votes_nul": 456, "votes_blancs": 192, "total_votes_valide": 9952, "total_votes": 10600, "id": 76, "POP": 60876, "chair": 30, "state": "extended", "area": 217.4 },
{ "NAME_EN": "dahmani", "gouv_name": "Le Kef", "NAME_AR": "الدهماني", "GOV_EN": "Le Le Kef", "GOV_AR": "الكاف", "allreg_male_sum": 6735, "allreg_female_sum": 5165, "reg_18_35": 3190, "reg_36_40": 1095, "reg_41_60": 4535, "reg_p_60": 3080, "allreg_sum": 11900, "total_inscrits": 11900, "votes_nul": 336, "votes_blancs": 124, "total_votes_valide": 4138, "total_votes": 4598, "id": 26, "POP": 27907, "chair": 24, "state": "extended", "area": 549.95 },
{ "NAME_EN": "zâafrane dyr el Le Kef", "gouv_name": "Le Kef", "NAME_AR": "الزعفران - دير الكاف", "GOV_EN": "Le Le Kef", "GOV_AR": "الكاف", "allreg_male_sum": 3079, "allreg_female_sum": 2688, "reg_18_35": 1777, "reg_36_40": 525, "reg_41_60": 2194, "reg_p_60": 1271, "allreg_sum": 5767, "total_inscrits": 5767, "votes_nul": 133, "votes_blancs": 46, "total_votes_valide": 1341, "total_votes": 1520, "id": 212, "POP": 12830, "chair": 18, "state": "new", "area": 388.342 },
{ "NAME_EN": "menzel salem", "gouv_name": "Le Kef", "NAME_AR": "منزل سالم", "GOV_EN": "Le Le Kef", "GOV_AR": "الكاف", "allreg_male_sum": 449, "allreg_female_sum": 456, "reg_18_35": 260, "reg_36_40": 71, "reg_41_60": 315, "reg_p_60": 259, "allreg_sum": 905, "total_inscrits": 905, "votes_nul": 45, "votes_blancs": 7, "total_votes_valide": 506, "total_votes": 558, "id": 332, "POP": 7934, "chair": 12, "state": "extended", "area": 148.01 },
{ "NAME_EN": "tajerouine", "gouv_name": "Le Kef", "NAME_AR": "تاجروين", "GOV_EN": "Le Le Kef", "GOV_AR": "الكاف", "allreg_male_sum": 7261, "allreg_female_sum": 7061, "reg_18_35": 3921, "reg_36_40": 1223, "reg_41_60": 5421, "reg_p_60": 3757, "allreg_sum": 14322, "total_inscrits": 14322, "votes_nul": 345, "votes_blancs": 80, "total_votes_valide": 4909, "total_votes": 5334, "id": 148, "POP": 19658, "chair": 18, "state": "extended", "area": 573.72 },
{ "NAME_EN": "es-sers", "gouv_name": "Le Kef", "NAME_AR": "السرس", "GOV_EN": "Le Le Kef", "GOV_AR": "الكاف", "allreg_male_sum": 4800, "allreg_female_sum": 4632, "reg_18_35": 2438, "reg_36_40": 824, "reg_41_60": 3842, "reg_p_60": 2328, "allreg_sum": 9432, "total_inscrits": 9432, "votes_nul": 291, "votes_blancs": 70, "total_votes_valide": 2912, "total_votes": 3273, "id": 39, "POP": 17787, "chair": 18, "state": "extended", "area": 282.8 },
{ "NAME_EN": "el ksour", "gouv_name": "Le Kef", "NAME_AR": "القصور", "GOV_EN": "Le Le Kef", "GOV_AR": "الكاف", "allreg_male_sum": 4421, "allreg_female_sum": 3356, "reg_18_35": 2359, "reg_36_40": 772, "reg_41_60": 2974, "reg_p_60": 1672, "allreg_sum": 7777, "total_inscrits": 7777, "votes_nul": 165, "votes_blancs": 75, "total_votes_valide": 2561, "total_votes": 2801, "id": 68, "POP": 15215, "chair": 18, "state": "extended", "area": 450.04 },
{ "NAME_EN": "kalâat khasba", "gouv_name": "Le Kef", "NAME_AR": "القلعة الخصباء", "GOV_EN": "Le Le Kef", "GOV_AR": "الكاف", "allreg_male_sum": 1897, "allreg_female_sum": 1869, "reg_18_35": 1017, "reg_36_40": 304, "reg_41_60": 1426, "reg_p_60": 1019, "allreg_sum": 3766, "total_inscrits": 3766, "votes_nul": 136, "votes_blancs": 43, "total_votes_valide": 2049, "total_votes": 2228, "id": 71, "POP": 6652, "chair": 12, "state": "extended", "area": 206.33 },
{ "NAME_EN": "djerissa", "gouv_name": "Le Kef", "NAME_AR": "الجريصة", "GOV_EN": "Le Le Kef", "GOV_AR": "الكاف", "allreg_male_sum": 2892, "allreg_female_sum": 3046, "reg_18_35": 1616, "reg_36_40": 467, "reg_41_60": 2142, "reg_p_60": 1713, "allreg_sum": 5938, "total_inscrits": 5938, "votes_nul": 170, "votes_blancs": 82, "total_votes_valide": 1886, "total_votes": 2138, "id": 13, "POP": 9807, "chair": 12, "state": "old", "area": 176.24 },
{ "NAME_EN": "bahra", "gouv_name": "Le Kef", "NAME_AR": "بهرة", "GOV_EN": "Le Le Kef", "GOV_AR": "الكاف", "allreg_male_sum": 1510, "allreg_female_sum": 1289, "reg_18_35": 747, "reg_36_40": 274, "reg_41_60": 1054, "reg_p_60": 724, "allreg_sum": 2799, "total_inscrits": 2799, "votes_nul": 115, "votes_blancs": 24, "total_votes_valide": 1059, "total_votes": 1198, "id": 131, "POP": 6168, "chair": 12, "state": "new", "area": 166.855 },
{ "NAME_EN": "el marja", "gouv_name": "Le Kef", "NAME_AR": "المرجى", "GOV_EN": "Le Le Kef", "GOV_AR": "الكاف", "allreg_male_sum": 1392, "allreg_female_sum": 1128, "reg_18_35": 584, "reg_36_40": 243, "reg_41_60": 1015, "reg_p_60": 678, "allreg_sum": 2520, "total_inscrits": 2520, "votes_nul": 88, "votes_blancs": 45, "total_votes_valide": 796, "total_votes": 929, "id": 82, "POP": 5472, "chair": 12, "state": "new", "area": 147.6 },
{ "NAME_EN": "regueb", "gouv_name": "Sidi Bouzid", "NAME_AR": "الرقاب", "GOV_EN": "Sidi Bouzid", "GOV_AR": "سيدي بوزيد", "allreg_male_sum": 12881, "allreg_female_sum": 11184, "reg_18_35": 9068, "reg_36_40": 2843, "reg_41_60": 8374, "reg_p_60": 3780, "allreg_sum": 24065, "total_inscrits": 24066, "votes_nul": 210, "votes_blancs": 105, "total_votes_valide": 8204, "total_votes": 8519, "id": 30, "POP": 41823, "chair": 24, "state": "extended", "area": 741.3 },
{ "NAME_EN": "souk jedid", "gouv_name": "Sidi Bouzid", "NAME_AR": "سوق الجديد", "GOV_EN": "Sidi Bouzid", "GOV_AR": "سيدي بوزيد", "allreg_male_sum": 6676, "allreg_female_sum": 6685, "reg_18_35": 5188, "reg_36_40": 1629, "reg_41_60": 4196, "reg_p_60": 2348, "allreg_sum": 13361, "total_inscrits": 13361, "votes_nul": 277, "votes_blancs": 118, "total_votes_valide": 5158, "total_votes": 5553, "id": 228, "POP": 21660, "chair": 18, "state": "new", "area": 346.1 },
{ "NAME_EN": "Sidi Bouzid", "gouv_name": "Sidi Bouzid", "NAME_AR": "سيدي بوزيد", "GOV_EN": "Sidi Bouzid", "GOV_AR": "سيدي بوزيد", "allreg_male_sum": 22551, "allreg_female_sum": 19138, "reg_18_35": 15497, "reg_36_40": 4990, "reg_41_60": 14856, "reg_p_60": 6346, "allreg_sum": 41689, "total_inscrits": 41689, "votes_nul": 295, "votes_blancs": 132, "total_votes_valide": 9987, "total_votes": 10414, "id": 236, "POP": 73226, "chair": 24, "state": "extended", "area": 422.96 },
{ "NAME_EN": "el ahouaz", "gouv_name": "Sidi Bouzid", "NAME_AR": "لسودة", "GOV_EN": "Sidi Bouzid", "GOV_AR": "سيدي بوزيد", "allreg_male_sum": 4744, "allreg_female_sum": 3851, "reg_18_35": 3198, "reg_36_40": 1050, "reg_41_60": 2921, "reg_p_60": 1426, "allreg_sum": 8595, "total_inscrits": 8595, "votes_nul": 77, "votes_blancs": 44, "total_votes_valide": 2236, "total_votes": 2357, "id": 5, "POP": 25267, "chair": 24, "state": "new", "area": 349.4 },
{ "NAME_EN": "jilma", "gouv_name": "Sidi Bouzid", "NAME_AR": "جلمة", "GOV_EN": "Sidi Bouzid", "GOV_AR": "سيدي بوزيد", "allreg_male_sum": 7244, "allreg_female_sum": 6139, "reg_18_35": 5332, "reg_36_40": 1529, "reg_41_60": 4472, "reg_p_60": 2050, "allreg_sum": 13383, "total_inscrits": 13383, "votes_nul": 204, "votes_blancs": 111, "total_votes_valide": 5093, "total_votes": 5408, "id": 169, "POP": 24732, "chair": 18, "state": "extended", "area": 325.7 },
{ "NAME_EN": "bennour", "gouv_name": "Sidi Bouzid", "NAME_AR": "الفائض بنور", "GOV_EN": "Sidi Bouzid", "GOV_AR": "سيدي بوزيد", "allreg_male_sum": 6575, "allreg_female_sum": 5290, "reg_18_35": 4278, "reg_36_40": 1372, "reg_41_60": 4009, "reg_p_60": 2206, "allreg_sum": 11865, "total_inscrits": 11866, "votes_nul": 149, "votes_blancs": 61, "total_votes_valide": 2748, "total_votes": 2958, "id": 125, "POP": 24183, "chair": 18, "state": "new", "area": 445.2 },
{ "NAME_EN": "baten elghezel", "gouv_name": "Sidi Bouzid", "NAME_AR": "باطن الغزال", "GOV_EN": "Sidi Bouzid", "GOV_AR": "سيدي بوزيد", "allreg_male_sum": 3854, "allreg_female_sum": 3162, "reg_18_35": 2632, "reg_36_40": 802, "reg_41_60": 2462, "reg_p_60": 1120, "allreg_sum": 7016, "total_inscrits": 7016, "votes_nul": 127, "votes_blancs": 63, "total_votes_valide": 2476, "total_votes": 2666, "id": 113, "POP": 15507, "chair": 18, "state": "new", "area": 277.1 },
{ "NAME_EN": "cebalet ouled asker", "gouv_name": "Sidi Bouzid", "NAME_AR": "سبالة أولاد عسكر", "GOV_EN": "Sidi Bouzid", "GOV_AR": "سيدي بوزيد", "allreg_male_sum": 6864, "allreg_female_sum": 6755, "reg_18_35": 5598, "reg_36_40": 1513, "reg_41_60": 4488, "reg_p_60": 2020, "allreg_sum": 13619, "total_inscrits": 13619, "votes_nul": 207, "votes_blancs": 69, "total_votes_valide": 4358, "total_votes": 4634, "id": 218, "POP": 20382, "chair": 18, "state": "extended", "area": 295.33 },
{ "NAME_EN": "bir el hafey", "gouv_name": "Sidi Bouzid", "NAME_AR": "بئر الحفي", "GOV_EN": "Sidi Bouzid", "GOV_AR": "سيدي بوزيد", "allreg_male_sum": 8358, "allreg_female_sum": 6968, "reg_18_35": 5612, "reg_36_40": 1767, "reg_41_60": 5256, "reg_p_60": 2691, "allreg_sum": 15326, "total_inscrits": 15326, "votes_nul": 147, "votes_blancs": 64, "total_votes_valide": 4418, "total_votes": 4629, "id": 145, "POP": 24751, "chair": 18, "state": "extended", "area": 310.2 },
{ "NAME_EN": "menzel bouzaïane", "gouv_name": "Sidi Bouzid", "NAME_AR": "منزل بوزيان", "GOV_EN": "Sidi Bouzid", "GOV_AR": "سيدي بوزيد", "allreg_male_sum": 8416, "allreg_female_sum": 8209, "reg_18_35": 6942, "reg_36_40": 1872, "reg_41_60": 5062, "reg_p_60": 2749, "allreg_sum": 16625, "total_inscrits": 16625, "votes_nul": 236, "votes_blancs": 114, "total_votes_valide": 6880, "total_votes": 7230, "id": 327, "POP": 25321, "chair": 24, "state": "extended", "area": 544.51 },
{ "NAME_EN": "meknassy", "gouv_name": "Sidi Bouzid", "NAME_AR": "المكناسي", "GOV_EN": "Sidi Bouzid", "GOV_AR": "سيدي بوزيد", "allreg_male_sum": 7543, "allreg_female_sum": 7386, "reg_18_35": 5470, "reg_36_40": 1702, "reg_41_60": 5102, "reg_p_60": 2655, "allreg_sum": 14929, "total_inscrits": 14929, "votes_nul": 217, "votes_blancs": 78, "total_votes_valide": 5000, "total_votes": 5295, "id": 91, "POP": 23789, "chair": 18, "state": "extended", "area": 623.3 },
{ "NAME_EN": "mezzouna", "gouv_name": "Sidi Bouzid", "NAME_AR": "مزونة", "GOV_EN": "Sidi Bouzid", "GOV_AR": "سيدي بوزيد", "allreg_male_sum": 8012, "allreg_female_sum": 7408, "reg_18_35": 6928, "reg_36_40": 1657, "reg_41_60": 4718, "reg_p_60": 2117, "allreg_sum": 15420, "total_inscrits": 12420, "votes_nul": 185, "votes_blancs": 88, "total_votes_valide": 7206, "total_votes": 7479, "id": 314, "POP": 24766, "chair": 18, "state": "extended", "area": 1136.95 },
{ "NAME_EN": "rahal", "gouv_name": "Sidi Bouzid", "NAME_AR": "رحال", "GOV_EN": "Sidi Bouzid", "GOV_AR": "سيدي بوزيد", "allreg_male_sum": 2467, "allreg_female_sum": 2104, "reg_18_35": 1936, "reg_36_40": 542, "reg_41_60": 1320, "reg_p_60": 773, "allreg_sum": 4571, "total_inscrits": 4571, "votes_nul": 56, "votes_blancs": 63, "total_votes_valide": 2201, "total_votes": 2320, "id": 201, "POP": 13537, "chair": 18, "state": "new", "area": 204.504 },
{ "NAME_EN": "el mansoura", "gouv_name": "Sidi Bouzid", "NAME_AR": "المنصورة", "GOV_EN": "Sidi Bouzid", "GOV_AR": "سيدي بوزيد", "allreg_male_sum": 2461, "allreg_female_sum": 1931, "reg_18_35": 1488, "reg_36_40": 557, "reg_41_60": 1511, "reg_p_60": 836, "allreg_sum": 4392, "total_inscrits": 4392, "votes_nul": 59, "votes_blancs": 21, "total_votes_valide": 1265, "total_votes": 1345, "id": 94, "POP": 9658, "chair": 12, "state": "new", "area": 226.291 },
{ "NAME_EN": "ouled haffouz", "gouv_name": "Sidi Bouzid", "NAME_AR": "أولاد حفوز", "GOV_EN": "Sidi Bouzid", "GOV_AR": "سيدي بوزيد", "allreg_male_sum": 6797, "allreg_female_sum": 6655, "reg_18_35": 4766, "reg_36_40": 1349, "reg_41_60": 4604, "reg_p_60": 2733, "allreg_sum": 13452, "total_inscrits": 13452, "votes_nul": 176, "votes_blancs": 91, "total_votes_valide": 4521, "total_votes": 4788, "id": 109, "POP": 19579, "chair": 18, "state": "extended", "area": 422.09 },
{ "NAME_EN": "essaïda", "gouv_name": "Sidi Bouzid", "NAME_AR": "سعيدة", "GOV_EN": "Sidi Bouzid", "GOV_AR": "سيدي بوزيد", "allreg_male_sum": 6833, "allreg_female_sum": 4433, "reg_18_35": 4308, "reg_36_40": 1346, "reg_41_60": 3776, "reg_p_60": 1836, "allreg_sum": 11266, "total_inscrits": 11266, "votes_nul": 157, "votes_blancs": 96, "total_votes_valide": 4619, "total_votes": 4872, "id": 222, "POP": 23175, "chair": 18, "state": "new", "area": 93.14 },
{ "NAME_EN": "sidi ali ben aoun", "gouv_name": "Sidi Bouzid", "NAME_AR": "سيدي علي بن عون", "GOV_EN": "Sidi Bouzid", "GOV_AR": "سيدي بوزيد", "allreg_male_sum": 4733, "allreg_female_sum": 4088, "reg_18_35": 3395, "reg_36_40": 1029, "reg_41_60": 2912, "reg_p_60": 1485, "allreg_sum": 8821, "total_inscrits": 8821, "votes_nul": 125, "votes_blancs": 40, "total_votes_valide": 2308, "total_votes": 2473, "id": 242, "POP": 18556, "chair": 18, "state": "extended", "area": 387.0 },
{ "NAME_EN": "ennour", "gouv_name": "Kasserine", "NAME_AR": "النور", "GOV_EN": "Kasserine", "GOV_AR": "القصرين", "allreg_male_sum": 11394, "allreg_female_sum": 11553, "reg_18_35": 8790, "reg_36_40": 2448, "reg_41_60": 7915, "reg_p_60": 3794, "allreg_sum": 22947, "total_inscrits": 22947, "votes_nul": 282, "votes_blancs": 119, "total_votes_valide": 5977, "total_votes": 6378, "id": 103, "POP": 40573, "chair": 24, "state": "new", "area": 4.58 },
{ "NAME_EN": "el ayoun", "gouv_name": "Kasserine", "NAME_AR": "العيون", "GOV_EN": "Kasserine", "GOV_AR": "القصرين", "allreg_male_sum": 4929, "allreg_female_sum": 3506, "reg_18_35": 3517, "reg_36_40": 923, "reg_41_60": 2622, "reg_p_60": 1373, "allreg_sum": 8435, "total_inscrits": 8435, "votes_nul": 207, "votes_blancs": 63, "total_votes_valide": 4351, "total_votes": 4621, "id": 61, "POP": 19211, "chair": 18, "state": "new", "area": 411.25 },
{ "NAME_EN": "ech-chraya machrek ech-chams", "gouv_name": "Kasserine", "NAME_AR": "الشرائع - مشرق الشمس", "GOV_EN": "Kasserine", "GOV_AR": "القصرين", "allreg_male_sum": 6486, "allreg_female_sum": 5257, "reg_18_35": 5012, "reg_36_40": 1252, "reg_41_60": 3681, "reg_p_60": 1798, "allreg_sum": 11743, "total_inscrits": 11743, "votes_nul": 224, "votes_blancs": 95, "total_votes_valide": 4344, "total_votes": 4663, "id": 47, "POP": 23899, "chair": 18, "state": "new", "area": 640.3 },
{ "NAME_EN": "aïn el khemaïssia", "gouv_name": "Kasserine", "NAME_AR": "عين الخمايسية", "GOV_EN": "Kasserine", "GOV_AR": "القصرين", "allreg_male_sum": 3682, "allreg_female_sum": 2928, "reg_18_35": 3043, "reg_36_40": 785, "reg_41_60": 1912, "reg_p_60": 870, "allreg_sum": 6610, "total_inscrits": 6610, "votes_nul": 115, "votes_blancs": 67, "total_votes_valide": 2586, "total_votes": 2768, "id": 270, "POP": 18231, "chair": 18, "state": "new", "area": 278.31 },
{ "NAME_EN": "djedeliane", "gouv_name": "Kasserine", "NAME_AR": "جدليان", "GOV_EN": "Kasserine", "GOV_AR": "القصرين", "allreg_male_sum": 3512, "allreg_female_sum": 3228, "reg_18_35": 2529, "reg_36_40": 743, "reg_41_60": 2159, "reg_p_60": 1309, "allreg_sum": 6740, "total_inscrits": 6741, "votes_nul": 221, "votes_blancs": 48, "total_votes_valide": 3276, "total_votes": 3545, "id": 166, "POP": 12297, "chair": 18, "state": "extended", "area": 274.89 },
{ "NAME_EN": "thala", "gouv_name": "Kasserine", "NAME_AR": "تالة", "GOV_EN": "Kasserine", "GOV_AR": "القصرين", "allreg_male_sum": 8764, "allreg_female_sum": 7599, "reg_18_35": 5432, "reg_36_40": 1658, "reg_41_60": 5887, "reg_p_60": 3386, "allreg_sum": 16363, "total_inscrits": 16363, "votes_nul": 362, "votes_blancs": 102, "total_votes_valide": 4299, "total_votes": 4763, "id": 151, "POP": 37128, "chair": 24, "state": "extended", "area": 716.1 },
{ "NAME_EN": "hidra", "gouv_name": "Kasserine", "NAME_AR": "حيدرة", "GOV_EN": "Kasserine", "GOV_AR": "القصرين", "allreg_male_sum": 2620, "allreg_female_sum": 2353, "reg_18_35": 1694, "reg_36_40": 424, "reg_41_60": 1793, "reg_p_60": 1062, "allreg_sum": 4973, "total_inscrits": 4973, "votes_nul": 106, "votes_blancs": 43, "total_votes_valide": 2284, "total_votes": 2433, "id": 188, "POP": 9762, "chair": 12, "state": "extended", "area": 495.68 },
{ "NAME_EN": "feriana", "gouv_name": "Kasserine", "NAME_AR": "فريانة", "GOV_EN": "Kasserine", "GOV_AR": "القصرين", "allreg_male_sum": 8810, "allreg_female_sum": 7934, "reg_18_35": 7024, "reg_36_40": 1854, "reg_41_60": 5162, "reg_p_60": 2704, "allreg_sum": 16744, "total_inscrits": 16744, "votes_nul": 246, "votes_blancs": 105, "total_votes_valide": 5405, "total_votes": 5756, "id": 280, "POP": 34354, "chair": 24, "state": "extended", "area": 414.54 },
{ "NAME_EN": "telept", "gouv_name": "Kasserine", "NAME_AR": "تلابت", "GOV_EN": "Kasserine", "GOV_AR": "القصرين", "allreg_male_sum": 4517, "allreg_female_sum": 3684, "reg_18_35": 3439, "reg_36_40": 942, "reg_41_60": 2572, "reg_p_60": 1248, "allreg_sum": 8201, "total_inscrits": 8201, "votes_nul": 152, "votes_blancs": 35, "total_votes_valide": 2767, "total_votes": 2954, "id": 156, "POP": 17101, "chair": 18, "state": "extended", "area": 590.7 },
{ "NAME_EN": "majel bel abbes", "gouv_name": "Kasserine", "NAME_AR": "ماجل بلعباس", "GOV_EN": "Kasserine", "GOV_AR": "القصرين", "allreg_male_sum": 6030, "allreg_female_sum": 5015, "reg_18_35": 4258, "reg_36_40": 1345, "reg_41_60": 3677, "reg_p_60": 1765, "allreg_sum": 11045, "total_inscrits": 11045, "votes_nul": 197, "votes_blancs": 65, "total_votes_valide": 4835, "total_votes": 5097, "id": 308, "POP": 23315, "chair": 18, "state": "extended", "area": 886.57 },
{ "NAME_EN": "sbeitla", "gouv_name": "Kasserine", "NAME_AR": "سبيطلة", "GOV_EN": "Kasserine", "GOV_AR": "القصرين", "allreg_male_sum": 9250, "allreg_female_sum": 9090, "reg_18_35": 7468, "reg_36_40": 2004, "reg_41_60": 6028, "reg_p_60": 2840, "allreg_sum": 18340, "total_inscrits": 18341, "votes_nul": 351, "votes_blancs": 151, "total_votes_valide": 7279, "total_votes": 7781, "id": 220, "POP": 36388, "chair": 24, "state": "extended", "area": 236.1 },
{ "NAME_EN": "sbiba", "gouv_name": "Kasserine", "NAME_AR": "سبيبة", "GOV_EN": "Kasserine", "GOV_AR": "القصرين", "allreg_male_sum": 8575, "allreg_female_sum": 6613, "reg_18_35": 6589, "reg_36_40": 1695, "reg_41_60": 4671, "reg_p_60": 2233, "allreg_sum": 15188, "total_inscrits": 15188, "votes_nul": 167, "votes_blancs": 122, "total_votes_valide": 6301, "total_votes": 6590, "id": 219, "POP": 22958, "chair": 18, "state": "extended", "area": 168.8 },
{ "NAME_EN": "foussana", "gouv_name": "Kasserine", "NAME_AR": "فوسانة", "GOV_EN": "Kasserine", "GOV_AR": "القصرين", "allreg_male_sum": 8781, "allreg_female_sum": 7714, "reg_18_35": 6405, "reg_36_40": 1794, "reg_41_60": 5478, "reg_p_60": 2818, "allreg_sum": 16495, "total_inscrits": 16494, "votes_nul": 329, "votes_blancs": 101, "total_votes_valide": 6872, "total_votes": 7302, "id": 282, "POP": 23904, "chair": 24, "state": "extended", "area": 546.14 },
{ "NAME_EN": "hassi el ferid", "gouv_name": "Kasserine", "NAME_AR": "حاسي الفريد", "GOV_EN": "Kasserine", "GOV_AR": "القصرين", "allreg_male_sum": 5443, "allreg_female_sum": 3719, "reg_18_35": 4145, "reg_36_40": 1029, "reg_41_60": 2724, "reg_p_60": 1264, "allreg_sum": 9162, "total_inscrits": 9162, "votes_nul": 206, "votes_blancs": 75, "total_votes_valide": 4443, "total_votes": 4724, "id": 177, "POP": 19400, "chair": 18, "state": "new", "area": 968.35 },
{ "NAME_EN": "Kasserine", "gouv_name": "Kasserine", "NAME_AR": "القصرين", "GOV_EN": "Kasserine", "GOV_AR": "القصرين", "allreg_male_sum": 10433, "allreg_female_sum": 9241, "reg_18_35": 7456, "reg_36_40": 2151, "reg_41_60": 6878, "reg_p_60": 3189, "allreg_sum": 19674, "total_inscrits": 19675, "votes_nul": 204, "votes_blancs": 83, "total_votes_valide": 5977, "total_votes": 6264, "id": 67, "POP": 31823, "chair": 24, "state": "extended", "area": 582.0 },
{ "NAME_EN": "bouzguam", "gouv_name": "Kasserine", "NAME_AR": "بوزقام", "GOV_EN": "Kasserine", "GOV_AR": "القصرين", "allreg_male_sum": 3728, "allreg_female_sum": 3311, "reg_18_35": 2634, "reg_36_40": 840, "reg_41_60": 2449, "reg_p_60": 1116, "allreg_sum": 7039, "total_inscrits": 7039, "votes_nul": 130, "votes_blancs": 71, "total_votes_valide": 3717, "total_votes": 3918, "id": 136, "POP": 14579, "chair": 18, "state": "new", "area": 375.9 },
{ "NAME_EN": "errakhmet", "gouv_name": "Kasserine", "NAME_AR": "الرخمات", "GOV_EN": "Kasserine", "GOV_AR": "القصرين", "allreg_male_sum": 3810, "allreg_female_sum": 2512, "reg_18_35": 2697, "reg_36_40": 719, "reg_41_60": 1997, "reg_p_60": 909, "allreg_sum": 6322, "total_inscrits": 6322, "votes_nul": 99, "votes_blancs": 26, "total_votes_valide": 2262, "total_votes": 2387, "id": 28, "POP": 14958, "chair": 18, "state": "new", "area": 236.1 },
{ "NAME_EN": "Ezzouhour", "gouv_name": "Kasserine", "NAME_AR": "الزهور - القصرين", "GOV_EN": "Kasserine", "GOV_AR": "القصرين", "allreg_male_sum": 6996, "allreg_female_sum": 7135, "reg_18_35": 5971, "reg_36_40": 1591, "reg_41_60": 4465, "reg_p_60": 2104, "allreg_sum": 14131, "total_inscrits": 14131, "votes_nul": 231, "votes_blancs": 71, "total_votes_valide": 4600, "total_votes": 4902, "id": 36, "POP": 21819, "chair": 18, "state": "new", "area": 3.17 },
{ "NAME_EN": "khmouda", "gouv_name": "Kasserine", "NAME_AR": "خمودة", "GOV_EN": "Kasserine", "GOV_AR": "القصرين", "allreg_male_sum": 3255, "allreg_female_sum": 2930, "reg_18_35": 2386, "reg_36_40": 691, "reg_41_60": 2033, "reg_p_60": 1075, "allreg_sum": 6185, "total_inscrits": 6186, "votes_nul": 98, "votes_blancs": 31, "total_votes_valide": 2375, "total_votes": 2504, "id": 189, "POP": 17543, "chair": 18, "state": "new", "area": 366.29 }
]